{
"type": "FeatureCollection",
"name": "hosts",
"crs": { "type": "name", "properties": { "name": "urn:ogc:def:crs:OGC:1.3:CRS84" } },
"features": [
{ "type": "Feature", "properties": { "name": "四番町児童館", "host_kind": "児童館", "ward": "千代田区", "source": "国土数値情報 P14 福祉施設（定員つき）", "synthetic": false, "lon": 139.73660474630856, "lat": 35.688300917711331 }, "geometry": { "type": "Point", "coordinates": [ 139.736604746308558, 35.688300917711331 ] } },
{ "type": "Feature", "properties": { "name": "一番町児童館", "host_kind": "児童館", "ward": "千代田区", "source": "国土数値情報 P14 福祉施設（定員つき）", "synthetic": false, "lon": 139.73927010800003, "lat": 35.686405266000179 }, "geometry": { "type": "Point", "coordinates": [ 139.739270108000028, 35.686405266000179 ] } },
{ "type": "Feature", "properties": { "name": "港区立麻布子ども中高生プラザ", "host_kind": "児童館", "ward": "港区", "source": "国土数値情報 P14 福祉施設（定員つき）", "synthetic": false, "lon": 139.7273474549919, "lat": 35.651030447404025 }, "geometry": { "type": "Point", "coordinates": [ 139.7273474549919, 35.651030447404025 ] } },
{ "type": "Feature", "properties": { "name": "本塩町児童館", "host_kind": "児童館", "ward": "新宿区", "source": "国土数値情報 P14 福祉施設（定員つき）", "synthetic": false, "lon": 139.72934501200007, "lat": 35.688539048000166 }, "geometry": { "type": "Point", "coordinates": [ 139.729345012000067, 35.688539048000166 ] } },
{ "type": "Feature", "properties": { "name": "こどもの森児童館", "host_kind": "児童館", "ward": "目黒区", "source": "国土数値情報 P14 福祉施設（定員つき）", "synthetic": false, "lon": 139.69428594200019, "lat": 35.62703138500018 }, "geometry": { "type": "Point", "coordinates": [ 139.694285942000192, 35.62703138500018 ] } },
{ "type": "Feature", "properties": { "name": "南馬込四丁目児童館", "host_kind": "児童館", "ward": "大田区", "source": "国土数値情報 P14 福祉施設（定員つき）", "synthetic": false, "lon": 139.70988290400021, "lat": 35.586401241000146 }, "geometry": { "type": "Point", "coordinates": [ 139.70988290400021, 35.586401241000146 ] } },
{ "type": "Feature", "properties": { "name": "代田児童館", "host_kind": "児童館", "ward": "世田谷区", "source": "国土数値情報 P14 福祉施設（定員つき）", "synthetic": false, "lon": 139.66064768800015, "lat": 35.662797259000001 }, "geometry": { "type": "Point", "coordinates": [ 139.660647688000154, 35.662797259 ] } },
{ "type": "Feature", "properties": { "name": "児童青少年センター　フレンズ本町", "host_kind": "児童館", "ward": "渋谷区", "source": "国土数値情報 P14 福祉施設（定員つき）", "synthetic": false, "lon": 139.67959280100013, "lat": 35.682095627000024 }, "geometry": { "type": "Point", "coordinates": [ 139.679592801000126, 35.682095627000024 ] } },
{ "type": "Feature", "properties": { "name": "杉並区立子ども・子育てプラザ高円寺", "host_kind": "児童館", "ward": "杉並区", "source": "国土数値情報 P14 福祉施設（定員つき）", "synthetic": false, "lon": 139.65175516000011, "lat": 35.702087472000073 }, "geometry": { "type": "Point", "coordinates": [ 139.651755160000107, 35.702087472000073 ] } },
{ "type": "Feature", "properties": { "name": "杉並区立子ども・子育てプラザ成田西", "host_kind": "児童館", "ward": "杉並区", "source": "国土数値情報 P14 福祉施設（定員つき）", "synthetic": false, "lon": 139.63074047100019, "lat": 35.69121061200002 }, "geometry": { "type": "Point", "coordinates": [ 139.630740471000195, 35.69121061200002 ] } },
{ "type": "Feature", "properties": { "name": "子ども・子育てプラザ和泉", "host_kind": "児童館", "ward": "杉並区", "source": "国土数値情報 P14 福祉施設（定員つき）", "synthetic": false, "lon": 139.6511654090001, "lat": 35.675119285000108 }, "geometry": { "type": "Point", "coordinates": [ 139.6511654090001, 35.675119285000108 ] } },
{ "type": "Feature", "properties": { "name": "東多世代交流センター", "host_kind": "児童館", "ward": "三鷹市", "source": "国土数値情報 P14 福祉施設（定員つき）", "synthetic": false, "lon": 139.58463354900005, "lat": 35.684269013000062 }, "geometry": { "type": "Point", "coordinates": [ 139.584633549000046, 35.684269013000062 ] } },
{ "type": "Feature", "properties": { "name": "つつじケ丘児童館", "host_kind": "児童館", "ward": "調布市", "source": "国土数値情報 P14 福祉施設（定員つき）", "synthetic": false, "lon": 139.57138150900005, "lat": 35.657822893000002 }, "geometry": { "type": "Point", "coordinates": [ 139.571381509000048, 35.657822893 ] } },
{ "type": "Feature", "properties": { "name": "狛江市立北部児童館", "host_kind": "児童館", "ward": "狛江市", "source": "国土数値情報 P14 福祉施設（定員つき）", "synthetic": false, "lon": 139.57544396600019, "lat": 35.642067974000042 }, "geometry": { "type": "Point", "coordinates": [ 139.575443966000194, 35.642067974000042 ] } },
{ "type": "Feature", "properties": { "name": "港区立赤坂子ども中高生プラザ青山館", "host_kind": "児童館", "ward": "港区", "source": "国土数値情報 P14 福祉施設（定員つき）", "synthetic": false, "lon": 139.71341340848983, "lat": 35.667560440785223 }, "geometry": { "type": "Point", "coordinates": [ 139.713413408489828, 35.667560440785223 ] } },
{ "type": "Feature", "properties": { "name": "東大井児童センター", "host_kind": "児童館", "ward": "品川区", "source": "国土数値情報 P14 福祉施設（定員つき）", "synthetic": false, "lon": 139.74146792653096, "lat": 35.603319190257821 }, "geometry": { "type": "Point", "coordinates": [ 139.741467926530959, 35.603319190257821 ] } },
{ "type": "Feature", "properties": { "name": "目黒区立平町児童館", "host_kind": "児童館", "ward": "目黒区", "source": "国土数値情報 P14 福祉施設（定員つき）", "synthetic": false, "lon": 139.68217979170481, "lat": 35.617196143426611 }, "geometry": { "type": "Point", "coordinates": [ 139.682179791704812, 35.617196143426611 ] } },
{ "type": "Feature", "properties": { "name": "新宿区立子ども総合センター", "host_kind": "児童館", "ward": "新宿区", "source": "国土数値情報 P14 福祉施設（定員つき）", "synthetic": false, "lon": 139.71232732119881, "lat": 35.700902796448645 }, "geometry": { "type": "Point", "coordinates": [ 139.712327321198813, 35.700902796448645 ] } },
{ "type": "Feature", "properties": { "name": "白金台児童館", "host_kind": "児童館", "ward": "港区", "source": "国土数値情報 P14 福祉施設（定員つき）", "synthetic": false, "lon": 139.72494123525007, "lat": 35.637630058081015 }, "geometry": { "type": "Point", "coordinates": [ 139.724941235250071, 35.637630058081015 ] } },
{ "type": "Feature", "properties": { "name": "榎町子ども家庭支援センター", "host_kind": "児童館", "ward": "新宿区", "source": "国土数値情報 P14 福祉施設（定員つき）", "synthetic": false, "lon": 139.72772164134085, "lat": 35.704551111644719 }, "geometry": { "type": "Point", "coordinates": [ 139.72772164134085, 35.704551111644719 ] } },
{ "type": "Feature", "properties": { "name": "堀ノ内東児童館", "host_kind": "児童館", "ward": "杉並区", "source": "国土数値情報 P14 福祉施設（定員つき）", "synthetic": false, "lon": 139.65414269532926, "lat": 35.692190152253943 }, "geometry": { "type": "Point", "coordinates": [ 139.654142695329256, 35.692190152253943 ] } },
{ "type": "Feature", "properties": { "name": "和田中央児童館", "host_kind": "児童館", "ward": "杉並区", "source": "国土数値情報 P14 福祉施設（定員つき）", "synthetic": false, "lon": 139.66111131883258, "lat": 35.692428094880938 }, "geometry": { "type": "Point", "coordinates": [ 139.661111318832582, 35.692428094880938 ] } },
{ "type": "Feature", "properties": { "name": "高輪子ども中高生プラザ", "host_kind": "児童館", "ward": "港区", "source": "国土数値情報 P14 福祉施設（定員つき）", "synthetic": false, "lon": 139.73480486365384, "lat": 35.642431780402489 }, "geometry": { "type": "Point", "coordinates": [ 139.734804863653835, 35.642431780402489 ] } },
{ "type": "Feature", "properties": { "name": "高輪児童館", "host_kind": "児童館", "ward": "港区", "source": "国土数値情報 P14 福祉施設（定員つき）", "synthetic": false, "lon": 139.73571621772942, "lat": 35.633151276910041 }, "geometry": { "type": "Point", "coordinates": [ 139.735716217729419, 35.633151276910041 ] } },
{ "type": "Feature", "properties": { "name": "豊岡児童館", "host_kind": "児童館", "ward": "港区", "source": "国土数値情報 P14 福祉施設（定員つき）", "synthetic": false, "lon": 139.7396088819446, "lat": 35.646541785575096 }, "geometry": { "type": "Point", "coordinates": [ 139.739608881944605, 35.646541785575096 ] } },
{ "type": "Feature", "properties": { "name": "赤坂子ども中高生プラザ", "host_kind": "児童館", "ward": "港区", "source": "国土数値情報 P14 福祉施設（定員つき）", "synthetic": false, "lon": 139.73765842509647, "lat": 35.669922155982988 }, "geometry": { "type": "Point", "coordinates": [ 139.73765842509647, 35.669922155982988 ] } },
{ "type": "Feature", "properties": { "name": "岩戸児童センター", "host_kind": "児童館", "ward": "狛江市", "source": "国土数値情報 P14 福祉施設（定員つき）", "synthetic": false, "lon": 139.58791416740519, "lat": 35.629159666585622 }, "geometry": { "type": "Point", "coordinates": [ 139.587914167405188, 35.629159666585622 ] } },
{ "type": "Feature", "properties": { "name": "和泉児童館", "host_kind": "児童館", "ward": "狛江市", "source": "国土数値情報 P14 福祉施設（定員つき）", "synthetic": false, "lon": 139.57051574820355, "lat": 35.63687774910909 }, "geometry": { "type": "Point", "coordinates": [ 139.570515748203547, 35.63687774910909 ] } },
{ "type": "Feature", "properties": { "name": "代官山ティーンズ・クリエイティブ", "host_kind": "児童館", "ward": "渋谷区", "source": "国土数値情報 P14 福祉施設（定員つき）", "synthetic": false, "lon": 139.70503462215027, "lat": 35.650766260954413 }, "geometry": { "type": "Point", "coordinates": [ 139.705034622150265, 35.650766260954413 ] } },
{ "type": "Feature", "properties": { "name": "薬王寺児童館", "host_kind": "児童館", "ward": "新宿区", "source": "国土数値情報 P14 福祉施設（定員つき）", "synthetic": false, "lon": 139.7246746402227, "lat": 35.696109977793469 }, "geometry": { "type": "Point", "coordinates": [ 139.724674640222702, 35.696109977793469 ] } },
{ "type": "Feature", "properties": { "name": "信濃町子ども家庭支援センター", "host_kind": "児童館", "ward": "新宿区", "source": "国土数値情報 P14 福祉施設（定員つき）", "synthetic": false, "lon": 139.72021867755006, "lat": 35.683385633840203 }, "geometry": { "type": "Point", "coordinates": [ 139.720218677550065, 35.683385633840203 ] } },
{ "type": "Feature", "properties": { "name": "西新宿児童館", "host_kind": "児童館", "ward": "新宿区", "source": "国土数値情報 P14 福祉施設（定員つき）", "synthetic": false, "lon": 139.68690204589302, "lat": 35.686351043965658 }, "geometry": { "type": "Point", "coordinates": [ 139.686902045893021, 35.686351043965658 ] } },
{ "type": "Feature", "properties": { "name": "早稲田南町児童館", "host_kind": "児童館", "ward": "新宿区", "source": "国土数値情報 P14 福祉施設（定員つき）", "synthetic": false, "lon": 139.72229471303092, "lat": 35.705106665140761 }, "geometry": { "type": "Point", "coordinates": [ 139.722294713030919, 35.705106665140761 ] } },
{ "type": "Feature", "properties": { "name": "中町児童館", "host_kind": "児童館", "ward": "新宿区", "source": "国土数値情報 P14 福祉施設（定員つき）", "synthetic": false, "lon": 139.73456885277051, "lat": 35.698991921839877 }, "geometry": { "type": "Point", "coordinates": [ 139.734568852770508, 35.698991921839877 ] } },
{ "type": "Feature", "properties": { "name": "東五軒町児童館", "host_kind": "児童館", "ward": "新宿区", "source": "国土数値情報 P14 福祉施設（定員つき）", "synthetic": false, "lon": 139.74012775389303, "lat": 35.706776557792125 }, "geometry": { "type": "Point", "coordinates": [ 139.740127753893034, 35.706776557792125 ] } },
{ "type": "Feature", "properties": { "name": "百人町児童館", "host_kind": "児童館", "ward": "新宿区", "source": "国土数値情報 P14 福祉施設（定員つき）", "synthetic": false, "lon": 139.69816451757856, "lat": 35.703342845496081 }, "geometry": { "type": "Point", "coordinates": [ 139.698164517578562, 35.703342845496081 ] } },
{ "type": "Feature", "properties": { "name": "富久町児童館", "host_kind": "児童館", "ward": "新宿区", "source": "国土数値情報 P14 福祉施設（定員つき）", "synthetic": false, "lon": 139.71543747236171, "lat": 35.693997361805714 }, "geometry": { "type": "Point", "coordinates": [ 139.715437472361714, 35.693997361805714 ] } },
{ "type": "Feature", "properties": { "name": "北山伏児童館", "host_kind": "児童館", "ward": "新宿区", "source": "国土数値情報 P14 福祉施設（定員つき）", "synthetic": false, "lon": 139.72991083761519, "lat": 35.700328039207932 }, "geometry": { "type": "Point", "coordinates": [ 139.729910837615193, 35.700328039207932 ] } },
{ "type": "Feature", "properties": { "name": "北新宿第一児童館", "host_kind": "児童館", "ward": "新宿区", "source": "国土数値情報 P14 福祉施設（定員つき）", "synthetic": false, "lon": 139.69023067150852, "lat": 35.698535722745589 }, "geometry": { "type": "Point", "coordinates": [ 139.690230671508516, 35.698535722745589 ] } },
{ "type": "Feature", "properties": { "name": "北新宿子ども家庭支援センター", "host_kind": "児童館", "ward": "新宿区", "source": "国土数値情報 P14 福祉施設（定員つき）", "synthetic": false, "lon": 139.6894447737576, "lat": 35.702958842176997 }, "geometry": { "type": "Point", "coordinates": [ 139.6894447737576, 35.702958842176997 ] } },
{ "type": "Feature", "properties": { "name": "阿佐ヶ谷南児童館", "host_kind": "児童館", "ward": "杉並区", "source": "国土数値情報 P14 福祉施設（定員つき）", "synthetic": false, "lon": 139.63714565434873, "lat": 35.699753559479404 }, "geometry": { "type": "Point", "coordinates": [ 139.637145654348728, 35.699753559479404 ] } },
{ "type": "Feature", "properties": { "name": "阿佐谷児童館", "host_kind": "児童館", "ward": "杉並区", "source": "国土数値情報 P14 福祉施設（定員つき）", "synthetic": false, "lon": 139.63741564611541, "lat": 35.706465765582891 }, "geometry": { "type": "Point", "coordinates": [ 139.637415646115414, 35.706465765582891 ] } },
{ "type": "Feature", "properties": { "name": "児童青少年センター", "host_kind": "児童館", "ward": "杉並区", "source": "国土数値情報 P14 福祉施設（定員つき）", "synthetic": false, "lon": 139.62750318812198, "lat": 35.694454130753684 }, "geometry": { "type": "Point", "coordinates": [ 139.627503188121977, 35.694454130753684 ] } },
{ "type": "Feature", "properties": { "name": "荻窪児童館", "host_kind": "児童館", "ward": "杉並区", "source": "国土数値情報 P14 福祉施設（定員つき）", "synthetic": false, "lon": 139.62222429991164, "lat": 35.697674389861447 }, "geometry": { "type": "Point", "coordinates": [ 139.622224299911636, 35.697674389861447 ] } },
{ "type": "Feature", "properties": { "name": "下高井戸児童館", "host_kind": "児童館", "ward": "杉並区", "source": "国土数値情報 P14 福祉施設（定員つき）", "synthetic": false, "lon": 139.63042000607857, "lat": 35.673179211751403 }, "geometry": { "type": "Point", "coordinates": [ 139.630420006078566, 35.673179211751403 ] } },
{ "type": "Feature", "properties": { "name": "宮前北児童館", "host_kind": "児童館", "ward": "杉並区", "source": "国土数値情報 P14 福祉施設（定員つき）", "synthetic": false, "lon": 139.60822718683539, "lat": 35.69659311068375 }, "geometry": { "type": "Point", "coordinates": [ 139.608227186835393, 35.69659311068375 ] } },
{ "type": "Feature", "properties": { "name": "宮前児童館", "host_kind": "児童館", "ward": "杉並区", "source": "国土数値情報 P14 福祉施設（定員つき）", "synthetic": false, "lon": 139.60246760919313, "lat": 35.692369813416292 }, "geometry": { "type": "Point", "coordinates": [ 139.602467609193127, 35.692369813416292 ] } },
{ "type": "Feature", "properties": { "name": "高井戸西児童館", "host_kind": "児童館", "ward": "杉並区", "source": "国土数値情報 P14 福祉施設（定員つき）", "synthetic": false, "lon": 139.60690705401748, "lat": 35.6813925401338 }, "geometry": { "type": "Point", "coordinates": [ 139.606907054017483, 35.6813925401338 ] } },
{ "type": "Feature", "properties": { "name": "高井戸児童館", "host_kind": "児童館", "ward": "杉並区", "source": "国土数値情報 P14 福祉施設（定員つき）", "synthetic": false, "lon": 139.61158808192465, "lat": 35.684066158926271 }, "geometry": { "type": "Point", "coordinates": [ 139.611588081924651, 35.684066158926271 ] } },
{ "type": "Feature", "properties": { "name": "上高井戸児童館", "host_kind": "児童館", "ward": "杉並区", "source": "国土数値情報 P14 福祉施設（定員つき）", "synthetic": false, "lon": 139.61979504490569, "lat": 35.682619818849787 }, "geometry": { "type": "Point", "coordinates": [ 139.619795044905686, 35.682619818849787 ] } },
{ "type": "Feature", "properties": { "name": "高円寺東児童館", "host_kind": "児童館", "ward": "杉並区", "source": "国土数値情報 P14 福祉施設（定員つき）", "synthetic": false, "lon": 139.65809407987808, "lat": 35.698604851832727 }, "geometry": { "type": "Point", "coordinates": [ 139.658094079878083, 35.698604851832727 ] } },
{ "type": "Feature", "properties": { "name": "高円寺南児童館", "host_kind": "児童館", "ward": "杉並区", "source": "国土数値情報 P14 福祉施設（定員つき）", "synthetic": false, "lon": 139.64575469702197, "lat": 35.701492320414502 }, "geometry": { "type": "Point", "coordinates": [ 139.645754697021971, 35.701492320414502 ] } },
{ "type": "Feature", "properties": { "name": "馬橋児童館", "host_kind": "児童館", "ward": "杉並区", "source": "国土数値情報 P14 福祉施設（定員つき）", "synthetic": false, "lon": 139.64341834647973, "lat": 35.705898077534471 }, "geometry": { "type": "Point", "coordinates": [ 139.643418346479734, 35.705898077534471 ] } },
{ "type": "Feature", "properties": { "name": "松ノ木児童館", "host_kind": "児童館", "ward": "杉並区", "source": "国土数値情報 P14 福祉施設（定員つき）", "synthetic": false, "lon": 139.64619624076408, "lat": 35.692316122091484 }, "geometry": { "type": "Point", "coordinates": [ 139.646196240764084, 35.692316122091484 ] } },
{ "type": "Feature", "properties": { "name": "松庵児童館", "host_kind": "児童館", "ward": "杉並区", "source": "国土数値情報 P14 福祉施設（定員つき）", "synthetic": false, "lon": 139.59326456071119, "lat": 35.699663721703644 }, "geometry": { "type": "Point", "coordinates": [ 139.593264560711191, 35.699663721703644 ] } },
{ "type": "Feature", "properties": { "name": "上荻児童館", "host_kind": "児童館", "ward": "杉並区", "source": "国土数値情報 P14 福祉施設（定員つき）", "synthetic": false, "lon": 139.61690762758508, "lat": 35.706066543036684 }, "geometry": { "type": "Point", "coordinates": [ 139.616907627585078, 35.706066543036684 ] } },
{ "type": "Feature", "properties": { "name": "西荻南児童館", "host_kind": "児童館", "ward": "杉並区", "source": "国土数値情報 P14 福祉施設（定員つき）", "synthetic": false, "lon": 139.60181022726033, "lat": 35.701508086429271 }, "geometry": { "type": "Point", "coordinates": [ 139.60181022726033, 35.701508086429271 ] } },
{ "type": "Feature", "properties": { "name": "西荻北児童館", "host_kind": "児童館", "ward": "杉並区", "source": "国土数値情報 P14 福祉施設（定員つき）", "synthetic": false, "lon": 139.60887130376784, "lat": 35.704737087846468 }, "geometry": { "type": "Point", "coordinates": [ 139.608871303767842, 35.704737087846468 ] } },
{ "type": "Feature", "properties": { "name": "天沼児童館", "host_kind": "児童館", "ward": "杉並区", "source": "国土数値情報 P14 福祉施設（定員つき）", "synthetic": false, "lon": 139.62714940472154, "lat": 35.705692705654087 }, "geometry": { "type": "Point", "coordinates": [ 139.627149404721536, 35.705692705654087 ] } },
{ "type": "Feature", "properties": { "name": "方南児童館", "host_kind": "児童館", "ward": "杉並区", "source": "国土数値情報 P14 福祉施設（定員つき）", "synthetic": false, "lon": 139.6589182015141, "lat": 35.679096138376337 }, "geometry": { "type": "Point", "coordinates": [ 139.658918201514098, 35.679096138376337 ] } },
{ "type": "Feature", "properties": { "name": "中央八丁目児童館", "host_kind": "児童館", "ward": "大田区", "source": "国土数値情報 P14 福祉施設（定員つき）", "synthetic": false, "lon": 139.71851476354573, "lat": 35.573367536283058 }, "geometry": { "type": "Point", "coordinates": [ 139.718514763545727, 35.573367536283058 ] } },
{ "type": "Feature", "properties": { "name": "中馬込児童館", "host_kind": "児童館", "ward": "大田区", "source": "国土数値情報 P14 福祉施設（定員つき）", "synthetic": false, "lon": 139.70476017154488, "lat": 35.59470307678572 }, "geometry": { "type": "Point", "coordinates": [ 139.704760171544876, 35.59470307678572 ] } },
{ "type": "Feature", "properties": { "name": "仲池上児童館", "host_kind": "児童館", "ward": "大田区", "source": "国土数値情報 P14 福祉施設（定員つき）", "synthetic": false, "lon": 139.69790234811501, "lat": 35.586165591369138 }, "geometry": { "type": "Point", "coordinates": [ 139.697902348115008, 35.586165591369138 ] } },
{ "type": "Feature", "properties": { "name": "田園調布二丁目児童館", "host_kind": "児童館", "ward": "大田区", "source": "国土数値情報 P14 福祉施設（定員つき）", "synthetic": false, "lon": 139.67289189444557, "lat": 35.59535621841485 }, "geometry": { "type": "Point", "coordinates": [ 139.67289189444557, 35.59535621841485 ] } },
{ "type": "Feature", "properties": { "name": "田園調布本町児童館", "host_kind": "児童館", "ward": "大田区", "source": "国土数値情報 P14 福祉施設（定員つき）", "synthetic": false, "lon": 139.67802212652009, "lat": 35.584508302716188 }, "geometry": { "type": "Point", "coordinates": [ 139.678022126520091, 35.584508302716188 ] } },
{ "type": "Feature", "properties": { "name": "東嶺町児童館", "host_kind": "児童館", "ward": "大田区", "source": "国土数値情報 P14 福祉施設（定員つき）", "synthetic": false, "lon": 139.6854265012322, "lat": 35.582902053287398 }, "geometry": { "type": "Point", "coordinates": [ 139.6854265012322, 35.582902053287398 ] } },
{ "type": "Feature", "properties": { "name": "南雪谷児童館", "host_kind": "児童館", "ward": "大田区", "source": "国土数値情報 P14 福祉施設（定員つき）", "synthetic": false, "lon": 139.69045045502469, "lat": 35.588076445671675 }, "geometry": { "type": "Point", "coordinates": [ 139.690450455024688, 35.588076445671675 ] } },
{ "type": "Feature", "properties": { "name": "洗足池児童館", "host_kind": "児童館", "ward": "大田区", "source": "国土数値情報 P14 福祉施設（定員つき）", "synthetic": false, "lon": 139.68936196957952, "lat": 35.603050181121262 }, "geometry": { "type": "Point", "coordinates": [ 139.689361969579522, 35.603050181121262 ] } },
{ "type": "Feature", "properties": { "name": "南馬込児童館", "host_kind": "児童館", "ward": "大田区", "source": "国土数値情報 P14 福祉施設（定員つき）", "synthetic": false, "lon": 139.71232242314159, "lat": 35.589248378310231 }, "geometry": { "type": "Point", "coordinates": [ 139.712322423141586, 35.589248378310231 ] } },
{ "type": "Feature", "properties": { "name": "南馬込三丁目児童館", "host_kind": "児童館", "ward": "大田区", "source": "国土数値情報 P14 福祉施設（定員つき）", "synthetic": false, "lon": 139.71780396997758, "lat": 35.587636133101284 }, "geometry": { "type": "Point", "coordinates": [ 139.717803969977581, 35.587636133101284 ] } },
{ "type": "Feature", "properties": { "name": "鵜の木児童館", "host_kind": "児童館", "ward": "大田区", "source": "国土数値情報 P14 福祉施設（定員つき）", "synthetic": false, "lon": 139.67563108280842, "lat": 35.57579754851821 }, "geometry": { "type": "Point", "coordinates": [ 139.675631082808422, 35.57579754851821 ] } },
{ "type": "Feature", "properties": { "name": "下丸子四丁目児童館", "host_kind": "児童館", "ward": "大田区", "source": "国土数値情報 P14 福祉施設（定員つき）", "synthetic": false, "lon": 139.67795001707987, "lat": 35.572350010045227 }, "geometry": { "type": "Point", "coordinates": [ 139.677950017079866, 35.572350010045227 ] } },
{ "type": "Feature", "properties": { "name": "久が原児童館", "host_kind": "児童館", "ward": "大田区", "source": "国土数値情報 P14 福祉施設（定員つき）", "synthetic": false, "lon": 139.69770488936933, "lat": 35.578792187509748 }, "geometry": { "type": "Point", "coordinates": [ 139.697704889369334, 35.578792187509748 ] } },
{ "type": "Feature", "properties": { "name": "山王児童館", "host_kind": "児童館", "ward": "大田区", "source": "国土数値情報 P14 福祉施設（定員つき）", "synthetic": false, "lon": 139.7266930102744, "lat": 35.591774107189451 }, "geometry": { "type": "Point", "coordinates": [ 139.726693010274403, 35.591774107189451 ] } },
{ "type": "Feature", "properties": { "name": "上池台児童館", "host_kind": "児童館", "ward": "大田区", "source": "国土数値情報 P14 福祉施設（定員つき）", "synthetic": false, "lon": 139.69164905256207, "lat": 35.597943236091737 }, "geometry": { "type": "Point", "coordinates": [ 139.69164905256207, 35.597943236091737 ] } },
{ "type": "Feature", "properties": { "name": "東部児童館", "host_kind": "児童館", "ward": "調布市", "source": "国土数値情報 P14 福祉施設（定員つき）", "synthetic": false, "lon": 139.5831390317411, "lat": 35.657988134445077 }, "geometry": { "type": "Point", "coordinates": [ 139.583139031741098, 35.657988134445077 ] } },
{ "type": "Feature", "properties": { "name": "緑ヶ丘児童館", "host_kind": "児童館", "ward": "調布市", "source": "国土数値情報 P14 福祉施設（定員つき）", "synthetic": false, "lon": 139.58417156136875, "lat": 35.669185670582522 }, "geometry": { "type": "Point", "coordinates": [ 139.584171561368748, 35.669185670582522 ] } },
{ "type": "Feature", "properties": { "name": "千鳥児童館", "host_kind": "児童館", "ward": "大田区", "source": "国土数値情報 P14 福祉施設（定員つき）", "synthetic": false, "lon": 139.68788963999521, "lat": 35.572746463578653 }, "geometry": { "type": "Point", "coordinates": [ 139.687889639995205, 35.572746463578653 ] } },
{ "type": "Feature", "properties": { "name": "子ども交流センター", "host_kind": "児童館", "ward": "大田区", "source": "国土数値情報 P14 福祉施設（定員つき）", "synthetic": false, "lon": 139.72988302158433, "lat": 35.576608321517028 }, "geometry": { "type": "Point", "coordinates": [ 139.729883021584328, 35.576608321517028 ] } },
{ "type": "Feature", "properties": { "name": "沢田児童館", "host_kind": "児童館", "ward": "大田区", "source": "国土数値情報 P14 福祉施設（定員つき）", "synthetic": false, "lon": 139.7283885237116, "lat": 35.578823336428059 }, "geometry": { "type": "Point", "coordinates": [ 139.728388523711601, 35.578823336428059 ] } },
{ "type": "Feature", "properties": { "name": "大森東一丁目児童館", "host_kind": "児童館", "ward": "大田区", "source": "国土数値情報 P14 福祉施設（定員つき）", "synthetic": false, "lon": 139.7386635532805, "lat": 35.576210697066301 }, "geometry": { "type": "Point", "coordinates": [ 139.738663553280503, 35.576210697066301 ] } },
{ "type": "Feature", "properties": { "name": "大森北児童館", "host_kind": "児童館", "ward": "大田区", "source": "国土数値情報 P14 福祉施設（定員つき）", "synthetic": false, "lon": 139.73119297137885, "lat": 35.582442104919494 }, "geometry": { "type": "Point", "coordinates": [ 139.731192971378846, 35.582442104919494 ] } },
{ "type": "Feature", "properties": { "name": "大森本町児童館", "host_kind": "児童館", "ward": "大田区", "source": "国土数値情報 P14 福祉施設（定員つき）", "synthetic": false, "lon": 139.73742914294087, "lat": 35.58097239775816 }, "geometry": { "type": "Point", "coordinates": [ 139.737429142940869, 35.58097239775816 ] } },
{ "type": "Feature", "properties": { "name": "池上児童館", "host_kind": "児童館", "ward": "大田区", "source": "国土数値情報 P14 福祉施設（定員つき）", "synthetic": false, "lon": 139.70795467496862, "lat": 35.572806153381464 }, "geometry": { "type": "Point", "coordinates": [ 139.707954674968619, 35.572806153381464 ] } },
{ "type": "Feature", "properties": { "name": "新井宿児童館", "host_kind": "児童館", "ward": "大田区", "source": "国土数値情報 P14 福祉施設（定員つき）", "synthetic": false, "lon": 139.71959691866311, "lat": 35.580562842001768 }, "geometry": { "type": "Point", "coordinates": [ 139.719596918663115, 35.580562842001768 ] } },
{ "type": "Feature", "properties": { "name": "城山ふれあいの家", "host_kind": "児童館", "ward": "中野区", "source": "国土数値情報 P14 福祉施設（定員つき）", "synthetic": false, "lon": 139.67694350214106, "lat": 35.704038032229676 }, "geometry": { "type": "Point", "coordinates": [ 139.676943502141057, 35.704038032229676 ] } },
{ "type": "Feature", "properties": { "name": "文園児童館", "host_kind": "児童館", "ward": "中野区", "source": "国土数値情報 P14 福祉施設（定員つき）", "synthetic": false, "lon": 139.67676595528474, "lat": 35.70651441530822 }, "geometry": { "type": "Point", "coordinates": [ 139.676765955284736, 35.70651441530822 ] } },
{ "type": "Feature", "properties": { "name": "みなみ児童館", "host_kind": "児童館", "ward": "中野区", "source": "国土数値情報 P14 福祉施設（定員つき）", "synthetic": false, "lon": 139.66241853378858, "lat": 35.680120721594221 }, "geometry": { "type": "Point", "coordinates": [ 139.662418533788582, 35.680120721594221 ] } },
{ "type": "Feature", "properties": { "name": "朝日が丘児童館", "host_kind": "児童館", "ward": "中野区", "source": "国土数値情報 P14 福祉施設（定員つき）", "synthetic": false, "lon": 139.68101936005576, "lat": 35.695041897066119 }, "geometry": { "type": "Point", "coordinates": [ 139.681019360055757, 35.695041897066119 ] } },
{ "type": "Feature", "properties": { "name": "宮の台児童館", "host_kind": "児童館", "ward": "中野区", "source": "国土数値情報 P14 福祉施設（定員つき）", "synthetic": false, "lon": 139.67315641024038, "lat": 35.695705063438083 }, "geometry": { "type": "Point", "coordinates": [ 139.673156410240381, 35.695705063438083 ] } },
{ "type": "Feature", "properties": { "name": "弥生児童館", "host_kind": "児童館", "ward": "中野区", "source": "国土数値情報 P14 福祉施設（定員つき）", "synthetic": false, "lon": 139.68103340476796, "lat": 35.690365063597028 }, "geometry": { "type": "Point", "coordinates": [ 139.681033404767959, 35.690365063597028 ] } },
{ "type": "Feature", "properties": { "name": "南中野児童館", "host_kind": "児童館", "ward": "中野区", "source": "国土数値情報 P14 福祉施設（定員つき）", "synthetic": false, "lon": 139.67096935075506, "lat": 35.689944083752607 }, "geometry": { "type": "Point", "coordinates": [ 139.670969350755058, 35.689944083752607 ] } },
{ "type": "Feature", "properties": { "name": "国領児童館", "host_kind": "児童館", "ward": "調布市", "source": "国土数値情報 P14 福祉施設（定員つき）", "synthetic": false, "lon": 139.56167696651903, "lat": 35.648930109737023 }, "geometry": { "type": "Point", "coordinates": [ 139.56167696651903, 35.648930109737023 ] } },
{ "type": "Feature", "properties": { "name": "東五反田児童センター", "host_kind": "児童館", "ward": "品川区", "source": "国土数値情報 P14 福祉施設（定員つき）", "synthetic": false, "lon": 139.72328218212726, "lat": 35.62801107495136 }, "geometry": { "type": "Point", "coordinates": [ 139.723282182127264, 35.62801107495136 ] } },
{ "type": "Feature", "properties": { "name": "東中延児童センター", "host_kind": "児童館", "ward": "品川区", "source": "国土数値情報 P14 福祉施設（定員つき）", "synthetic": false, "lon": 139.71388004712674, "lat": 35.607839938862298 }, "geometry": { "type": "Point", "coordinates": [ 139.713880047126736, 35.607839938862298 ] } },
{ "type": "Feature", "properties": { "name": "南大井児童センター", "host_kind": "児童館", "ward": "品川区", "source": "国土数値情報 P14 福祉施設（定員つき）", "synthetic": false, "lon": 139.73440284151809, "lat": 35.591633006115671 }, "geometry": { "type": "Point", "coordinates": [ 139.73440284151809, 35.591633006115671 ] } },
{ "type": "Feature", "properties": { "name": "水神児童センター", "host_kind": "児童館", "ward": "品川区", "source": "国土数値情報 P14 福祉施設（定員つき）", "synthetic": false, "lon": 139.73413604594191, "lat": 35.595441084738411 }, "geometry": { "type": "Point", "coordinates": [ 139.734136045941909, 35.595441084738411 ] } },
{ "type": "Feature", "properties": { "name": "南品川児童センター", "host_kind": "児童館", "ward": "品川区", "source": "国土数値情報 P14 福祉施設（定員つき）", "synthetic": false, "lon": 139.73873034952624, "lat": 35.613464360092394 }, "geometry": { "type": "Point", "coordinates": [ 139.738730349526236, 35.613464360092394 ] } },
{ "type": "Feature", "properties": { "name": "平塚児童センター", "host_kind": "児童館", "ward": "品川区", "source": "国土数値情報 P14 福祉施設（定員つき）", "synthetic": false, "lon": 139.71741311922028, "lat": 35.61886109906078 }, "geometry": { "type": "Point", "coordinates": [ 139.717413119220282, 35.61886109906078 ] } },
{ "type": "Feature", "properties": { "name": "目黒区立烏森住区センター児童館", "host_kind": "児童館", "ward": "目黒区", "source": "国土数値情報 P14 福祉施設（定員つき）", "synthetic": false, "lon": 139.69163815008085, "lat": 35.64390612626687 }, "geometry": { "type": "Point", "coordinates": [ 139.691638150080848, 35.64390612626687 ] } },
{ "type": "Feature", "properties": { "name": "目黒区立五本木住区センター児童館", "host_kind": "児童館", "ward": "目黒区", "source": "国土数値情報 P14 福祉施設（定員つき）", "synthetic": false, "lon": 139.68936874866915, "lat": 35.633224529388769 }, "geometry": { "type": "Point", "coordinates": [ 139.689368748669153, 35.633224529388769 ] } },
{ "type": "Feature", "properties": { "name": "目黒区立中央町児童館", "host_kind": "児童館", "ward": "目黒区", "source": "国土数値情報 P14 福祉施設（定員つき）", "synthetic": false, "lon": 139.68878913381172, "lat": 35.631478335556949 }, "geometry": { "type": "Point", "coordinates": [ 139.688789133811724, 35.631478335556949 ] } },
{ "type": "Feature", "properties": { "name": "旗の台児童センター", "host_kind": "児童館", "ward": "品川区", "source": "国土数値情報 P14 福祉施設（定員つき）", "synthetic": false, "lon": 139.70050000387221, "lat": 35.603856156236702 }, "geometry": { "type": "Point", "coordinates": [ 139.700500003872207, 35.603856156236702 ] } },
{ "type": "Feature", "properties": { "name": "大原児童センター", "host_kind": "児童館", "ward": "品川区", "source": "国土数値情報 P14 福祉施設（定員つき）", "synthetic": false, "lon": 139.71541557476917, "lat": 35.607320962592496 }, "geometry": { "type": "Point", "coordinates": [ 139.715415574769168, 35.607320962592496 ] } },
{ "type": "Feature", "properties": { "name": "中原児童センター", "host_kind": "児童館", "ward": "品川区", "source": "国土数値情報 P14 福祉施設（定員つき）", "synthetic": false, "lon": 139.71258775552076, "lat": 35.62212341496388 }, "geometry": { "type": "Point", "coordinates": [ 139.712587755520758, 35.62212341496388 ] } },
{ "type": "Feature", "properties": { "name": "後地児童センター", "host_kind": "児童館", "ward": "品川区", "source": "国土数値情報 P14 福祉施設（定員つき）", "synthetic": false, "lon": 139.7091341016577, "lat": 35.620595116072025 }, "geometry": { "type": "Point", "coordinates": [ 139.709134101657696, 35.620595116072025 ] } },
{ "type": "Feature", "properties": { "name": "伊藤児童センター", "host_kind": "児童館", "ward": "品川区", "source": "国土数値情報 P14 福祉施設（定員つき）", "synthetic": false, "lon": 139.71755403219311, "lat": 35.600690119953299 }, "geometry": { "type": "Point", "coordinates": [ 139.717554032193107, 35.600690119953299 ] } },
{ "type": "Feature", "properties": { "name": "冨士見台児童センター", "host_kind": "児童館", "ward": "品川区", "source": "国土数値情報 P14 福祉施設（定員つき）", "synthetic": false, "lon": 139.71426254027585, "lat": 35.601314298325008 }, "geometry": { "type": "Point", "coordinates": [ 139.714262540275854, 35.601314298325008 ] } },
{ "type": "Feature", "properties": { "name": "中延児童センター", "host_kind": "児童館", "ward": "品川区", "source": "国土数値情報 P14 福祉施設（定員つき）", "synthetic": false, "lon": 139.70843885377042, "lat": 35.612440894731719 }, "geometry": { "type": "Point", "coordinates": [ 139.708438853770417, 35.612440894731719 ] } },
{ "type": "Feature", "properties": { "name": "西中延児童センター", "host_kind": "児童館", "ward": "品川区", "source": "国土数値情報 P14 福祉施設（定員つき）", "synthetic": false, "lon": 139.70815727783645, "lat": 35.607313911907681 }, "geometry": { "type": "Point", "coordinates": [ 139.708157277836449, 35.607313911907681 ] } },
{ "type": "Feature", "properties": { "name": "三ツ木児童センター", "host_kind": "児童館", "ward": "品川区", "source": "国土数値情報 P14 福祉施設（定員つき）", "synthetic": false, "lon": 139.72625229840514, "lat": 35.613977390944115 }, "geometry": { "type": "Point", "coordinates": [ 139.726252298405143, 35.613977390944115 ] } },
{ "type": "Feature", "properties": { "name": "一本橋児童センター", "host_kind": "児童館", "ward": "品川区", "source": "国土数値情報 P14 福祉施設（定員つき）", "synthetic": false, "lon": 139.7296640825316, "lat": 35.604606086501974 }, "geometry": { "type": "Point", "coordinates": [ 139.729664082531599, 35.604606086501974 ] } },
{ "type": "Feature", "properties": { "name": "大井倉田児童センター", "host_kind": "児童館", "ward": "品川区", "source": "国土数値情報 P14 福祉施設（定員つき）", "synthetic": false, "lon": 139.73369280068255, "lat": 35.602362239325998 }, "geometry": { "type": "Point", "coordinates": [ 139.733692800682547, 35.602362239325998 ] } },
{ "type": "Feature", "properties": { "name": "滝王子児童センター", "host_kind": "児童館", "ward": "品川区", "source": "国土数値情報 P14 福祉施設（定員つき）", "synthetic": false, "lon": 139.72906724925429, "lat": 35.598210255599042 }, "geometry": { "type": "Point", "coordinates": [ 139.729067249254285, 35.598210255599042 ] } },
{ "type": "Feature", "properties": { "name": "ゆたか児童センター", "host_kind": "児童館", "ward": "品川区", "source": "国土数値情報 P14 福祉施設（定員つき）", "synthetic": false, "lon": 139.7226830987463, "lat": 35.611557095883427 }, "geometry": { "type": "Point", "coordinates": [ 139.722683098746302, 35.611557095883427 ] } },
{ "type": "Feature", "properties": { "name": "南ゆたか児童センター", "host_kind": "児童館", "ward": "品川区", "source": "国土数値情報 P14 福祉施設（定員つき）", "synthetic": false, "lon": 139.72086496561974, "lat": 35.606497591859693 }, "geometry": { "type": "Point", "coordinates": [ 139.720864965619739, 35.606497591859693 ] } },
{ "type": "Feature", "properties": { "name": "北品川児童センター", "host_kind": "児童館", "ward": "品川区", "source": "国土数値情報 P14 福祉施設（定員つき）", "synthetic": false, "lon": 139.74399619666747, "lat": 35.618772038299198 }, "geometry": { "type": "Point", "coordinates": [ 139.743996196667467, 35.618772038299198 ] } },
{ "type": "Feature", "properties": { "name": "小関児童センター", "host_kind": "児童館", "ward": "品川区", "source": "国土数値情報 P14 福祉施設（定員つき）", "synthetic": false, "lon": 139.73244983329346, "lat": 35.620137479860944 }, "geometry": { "type": "Point", "coordinates": [ 139.732449833293458, 35.620137479860944 ] } },
{ "type": "Feature", "properties": { "name": "水道児童館", "host_kind": "児童館", "ward": "文京区", "source": "国土数値情報 P14 福祉施設（定員つき）", "synthetic": false, "lon": 139.74224281725253, "lat": 35.709538936073216 }, "geometry": { "type": "Point", "coordinates": [ 139.742242817252531, 35.709538936073216 ] } },
{ "type": "Feature", "properties": { "name": "目黒区立不動児童館", "host_kind": "児童館", "ward": "目黒区", "source": "国土数値情報 P14 福祉施設（定員つき）", "synthetic": false, "lon": 139.70227712359065, "lat": 35.630241121131064 }, "geometry": { "type": "Point", "coordinates": [ 139.702277123590648, 35.630241121131064 ] } },
{ "type": "Feature", "properties": { "name": "目黒区立駒場児童館", "host_kind": "児童館", "ward": "目黒区", "source": "国土数値情報 P14 福祉施設（定員つき）", "synthetic": false, "lon": 139.68208262362043, "lat": 35.65878176742342 }, "geometry": { "type": "Point", "coordinates": [ 139.682082623620431, 35.65878176742342 ] } },
{ "type": "Feature", "properties": { "name": "目黒区立油面住区センター児童館", "host_kind": "児童館", "ward": "目黒区", "source": "国土数値情報 P14 福祉施設（定員つき）", "synthetic": false, "lon": 139.6998013529502, "lat": 35.631354819069941 }, "geometry": { "type": "Point", "coordinates": [ 139.699801352950203, 35.631354819069941 ] } },
{ "type": "Feature", "properties": { "name": "目黒区立中目黒住区センター児童館", "host_kind": "児童館", "ward": "目黒区", "source": "国土数値情報 P14 福祉施設（定員つき）", "synthetic": false, "lon": 139.70305417650934, "lat": 35.640407105203963 }, "geometry": { "type": "Point", "coordinates": [ 139.70305417650934, 35.640407105203963 ] } },
{ "type": "Feature", "properties": { "name": "目黒区立東山児童館", "host_kind": "児童館", "ward": "目黒区", "source": "国土数値情報 P14 福祉施設（定員つき）", "synthetic": false, "lon": 139.68536114390201, "lat": 35.647878134968209 }, "geometry": { "type": "Point", "coordinates": [ 139.685361143902014, 35.647878134968209 ] } },
{ "type": "Feature", "properties": { "name": "目黒区立原町住区センター児童館", "host_kind": "児童館", "ward": "目黒区", "source": "国土数値情報 P14 福祉施設（定員つき）", "synthetic": false, "lon": 139.68933401595234, "lat": 35.615132167215904 }, "geometry": { "type": "Point", "coordinates": [ 139.68933401595234, 35.615132167215904 ] } },
{ "type": "Feature", "properties": { "name": "目黒区立八雲住区センター児童館", "host_kind": "児童館", "ward": "目黒区", "source": "国土数値情報 P14 福祉施設（定員つき）", "synthetic": false, "lon": 139.67224509213747, "lat": 35.61870658294265 }, "geometry": { "type": "Point", "coordinates": [ 139.672245092137473, 35.61870658294265 ] } },
{ "type": "Feature", "properties": { "name": "目黒区立目黒区民センター児童館", "host_kind": "児童館", "ward": "目黒区", "source": "国土数値情報 P14 福祉施設（定員つき）", "synthetic": false, "lon": 139.70808531768341, "lat": 35.63586834374928 }, "geometry": { "type": "Point", "coordinates": [ 139.708085317683413, 35.63586834374928 ] } },
{ "type": "Feature", "properties": { "name": "目黒区立向原住区センター児童館", "host_kind": "児童館", "ward": "目黒区", "source": "国土数値情報 P14 福祉施設（定員つき）", "synthetic": false, "lon": 139.69860455135927, "lat": 35.618740694227824 }, "geometry": { "type": "Point", "coordinates": [ 139.698604551359267, 35.618740694227824 ] } },
{ "type": "Feature", "properties": { "name": "目黒区立上目黒住区センター児童館", "host_kind": "児童館", "ward": "目黒区", "source": "国土数値情報 P14 福祉施設（定員つき）", "synthetic": false, "lon": 139.69383312360003, "lat": 35.636713131805834 }, "geometry": { "type": "Point", "coordinates": [ 139.693833123600029, 35.636713131805834 ] } },
{ "type": "Feature", "properties": { "name": "目黒区立緑が丘児童館", "host_kind": "児童館", "ward": "目黒区", "source": "国土数値情報 P14 福祉施設（定員つき）", "synthetic": false, "lon": 139.67430694530958, "lat": 35.609438203210686 }, "geometry": { "type": "Point", "coordinates": [ 139.674306945309581, 35.609438203210686 ] } },
{ "type": "Feature", "properties": { "name": "鎌田児童館", "host_kind": "児童館", "ward": "世田谷区", "source": "国土数値情報 P14 福祉施設（定員つき）", "synthetic": false, "lon": 139.61347880939968, "lat": 35.622269237335672 }, "geometry": { "type": "Point", "coordinates": [ 139.61347880939968, 35.622269237335672 ] } },
{ "type": "Feature", "properties": { "name": "喜多見児童館", "host_kind": "児童館", "ward": "世田谷区", "source": "国土数値情報 P14 福祉施設（定員つき）", "synthetic": false, "lon": 139.59471217602629, "lat": 35.624736207210447 }, "geometry": { "type": "Point", "coordinates": [ 139.594712176026292, 35.624736207210447 ] } },
{ "type": "Feature", "properties": { "name": "山野児童館", "host_kind": "児童館", "ward": "世田谷区", "source": "国土数値情報 P14 福祉施設（定員つき）", "synthetic": false, "lon": 139.61464947579282, "lat": 35.638045775092564 }, "geometry": { "type": "Point", "coordinates": [ 139.614649475792817, 35.638045775092564 ] } },
{ "type": "Feature", "properties": { "name": "玉川台児童館", "host_kind": "児童館", "ward": "世田谷区", "source": "国土数値情報 P14 福祉施設（定員つき）", "synthetic": false, "lon": 139.63294984845697, "lat": 35.622963240561262 }, "geometry": { "type": "Point", "coordinates": [ 139.632949848456974, 35.622963240561262 ] } },
{ "type": "Feature", "properties": { "name": "弦巻児童館", "host_kind": "児童館", "ward": "世田谷区", "source": "国土数値情報 P14 福祉施設（定員つき）", "synthetic": false, "lon": 139.65182206558347, "lat": 35.636952249056264 }, "geometry": { "type": "Point", "coordinates": [ 139.651822065583474, 35.636952249056264 ] } },
{ "type": "Feature", "properties": { "name": "桜丘児童館", "host_kind": "児童館", "ward": "世田谷区", "source": "国土数値情報 P14 福祉施設（定員つき）", "synthetic": false, "lon": 139.62219987972082, "lat": 35.644710237987397 }, "geometry": { "type": "Point", "coordinates": [ 139.622199879720824, 35.644710237987397 ] } },
{ "type": "Feature", "properties": { "name": "若林児童館", "host_kind": "児童館", "ward": "世田谷区", "source": "国土数値情報 P14 福祉施設（定員つき）", "synthetic": false, "lon": 139.65696474542688, "lat": 35.648623842916209 }, "geometry": { "type": "Point", "coordinates": [ 139.656964745426876, 35.648623842916209 ] } },
{ "type": "Feature", "properties": { "name": "上祖師谷ぱる児童館", "host_kind": "児童館", "ward": "世田谷区", "source": "国土数値情報 P14 福祉施設（定員つき）", "synthetic": false, "lon": 139.59661792757561, "lat": 35.653569186968696 }, "geometry": { "type": "Point", "coordinates": [ 139.596617927575608, 35.653569186968696 ] } },
{ "type": "Feature", "properties": { "name": "上北沢児童館", "host_kind": "児童館", "ward": "世田谷区", "source": "国土数値情報 P14 福祉施設（定員つき）", "synthetic": false, "lon": 139.6256149292858, "lat": 35.667569244425351 }, "geometry": { "type": "Point", "coordinates": [ 139.625614929285803, 35.667569244425351 ] } },
{ "type": "Feature", "properties": { "name": "森の児童館", "host_kind": "児童館", "ward": "世田谷区", "source": "国土数値情報 P14 福祉施設（定員つき）", "synthetic": false, "lon": 139.63881600205718, "lat": 35.616896486883661 }, "geometry": { "type": "Point", "coordinates": [ 139.638816002057183, 35.616896486883661 ] } },
{ "type": "Feature", "properties": { "name": "上用賀児童館", "host_kind": "児童館", "ward": "世田谷区", "source": "国土数値情報 P14 福祉施設（定員つき）", "synthetic": false, "lon": 139.63004928844418, "lat": 35.635893611101551 }, "geometry": { "type": "Point", "coordinates": [ 139.630049288444184, 35.635893611101551 ] } },
{ "type": "Feature", "properties": { "name": "新町児童館", "host_kind": "児童館", "ward": "世田谷区", "source": "国土数値情報 P14 福祉施設（定員つき）", "synthetic": false, "lon": 139.64769037441147, "lat": 35.630908207647963 }, "geometry": { "type": "Point", "coordinates": [ 139.647690374411468, 35.630908207647963 ] } },
{ "type": "Feature", "properties": { "name": "深沢児童館", "host_kind": "児童館", "ward": "世田谷区", "source": "国土数値情報 P14 福祉施設（定員つき）", "synthetic": false, "lon": 139.6537820276186, "lat": 35.620222423526229 }, "geometry": { "type": "Point", "coordinates": [ 139.653782027618604, 35.620222423526229 ] } },
{ "type": "Feature", "properties": { "name": "上町児童館", "host_kind": "児童館", "ward": "世田谷区", "source": "国土数値情報 P14 福祉施設（定員つき）", "synthetic": false, "lon": 139.64280893348575, "lat": 35.643044225910444 }, "geometry": { "type": "Point", "coordinates": [ 139.642808933485753, 35.643044225910444 ] } },
{ "type": "Feature", "properties": { "name": "成城さくら児童館", "host_kind": "児童館", "ward": "世田谷区", "source": "国土数値情報 P14 福祉施設（定員つき）", "synthetic": false, "lon": 139.59759499960967, "lat": 35.634126999961325 }, "geometry": { "type": "Point", "coordinates": [ 139.597594999609669, 35.634126999961325 ] } },
{ "type": "Feature", "properties": { "name": "松沢児童館", "host_kind": "児童館", "ward": "世田谷区", "source": "国土数値情報 P14 福祉施設（定員つき）", "synthetic": false, "lon": 139.64186400771803, "lat": 35.664458211577482 }, "geometry": { "type": "Point", "coordinates": [ 139.641864007718027, 35.664458211577482 ] } },
{ "type": "Feature", "properties": { "name": "船橋児童館", "host_kind": "児童館", "ward": "世田谷区", "source": "国土数値情報 P14 福祉施設（定員つき）", "synthetic": false, "lon": 139.62542613640721, "lat": 35.65487206899104 }, "geometry": { "type": "Point", "coordinates": [ 139.625426136407214, 35.65487206899104 ] } },
{ "type": "Feature", "properties": { "name": "祖師谷児童館", "host_kind": "児童館", "ward": "世田谷区", "source": "国土数値情報 P14 福祉施設（定員つき）", "synthetic": false, "lon": 139.60621181782142, "lat": 35.649671160995581 }, "geometry": { "type": "Point", "coordinates": [ 139.606211817821418, 35.649671160995581 ] } },
{ "type": "Feature", "properties": { "name": "代田南児童館", "host_kind": "児童館", "ward": "世田谷区", "source": "国土数値情報 P14 福祉施設（定員つき）", "synthetic": false, "lon": 139.66156205724337, "lat": 35.652616183490238 }, "geometry": { "type": "Point", "coordinates": [ 139.661562057243373, 35.652616183490238 ] } },
{ "type": "Feature", "properties": { "name": "池尻児童館", "host_kind": "児童館", "ward": "世田谷区", "source": "国土数値情報 P14 福祉施設（定員つき）", "synthetic": false, "lon": 139.68246667859455, "lat": 35.646596775521061 }, "geometry": { "type": "Point", "coordinates": [ 139.682466678594551, 35.646596775521061 ] } },
{ "type": "Feature", "properties": { "name": "等々力児童館", "host_kind": "児童館", "ward": "世田谷区", "source": "国土数値情報 P14 福祉施設（定員つき）", "synthetic": false, "lon": 139.65004810093933, "lat": 35.6113526368149 }, "geometry": { "type": "Point", "coordinates": [ 139.65004810093933, 35.6113526368149 ] } },
{ "type": "Feature", "properties": { "name": "烏山児童館", "host_kind": "児童館", "ward": "世田谷区", "source": "国土数値情報 P14 福祉施設（定員つき）", "synthetic": false, "lon": 139.60165701066273, "lat": 35.671659169535189 }, "geometry": { "type": "Point", "coordinates": [ 139.601657010662734, 35.671659169535189 ] } },
{ "type": "Feature", "properties": { "name": "粕谷児童館", "host_kind": "児童館", "ward": "世田谷区", "source": "国土数値情報 P14 福祉施設（定員つき）", "synthetic": false, "lon": 139.60514495297741, "lat": 35.663124196824413 }, "geometry": { "type": "Point", "coordinates": [ 139.605144952977412, 35.663124196824413 ] } },
{ "type": "Feature", "properties": { "name": "野沢児童館", "host_kind": "児童館", "ward": "世田谷区", "source": "国土数値情報 P14 福祉施設（定員つき）", "synthetic": false, "lon": 139.67106734897914, "lat": 35.634691720246792 }, "geometry": { "type": "Point", "coordinates": [ 139.671067348979136, 35.634691720246792 ] } }
]
}
