{
"type": "FeatureCollection",
"name": "noise",
"crs": { "type": "name", "properties": { "name": "urn:ogc:def:crs:OGC:1.3:CRS84" } },
"features": [
{ "type": "Feature", "properties": { "name": "千代田区麹町6-2", "laeq_db": 67, "lon": 139.733078, "lat": 35.685215, "source": "自動車騒音 要請限度測定結果", "synthetic": false }, "geometry": { "type": "Point", "coordinates": [ 139.733078, 35.685215 ] } },
{ "type": "Feature", "properties": { "name": "千代田区平河町2-5-1", "laeq_db": 62, "lon": 139.738847, "lat": 35.680439, "source": "自動車騒音 要請限度測定結果", "synthetic": false }, "geometry": { "type": "Point", "coordinates": [ 139.738847, 35.680439 ] } },
{ "type": "Feature", "properties": { "name": "千代田区九段南3-8-14", "laeq_db": 69, "lon": 139.742935, "lat": 35.692982, "source": "自動車騒音 要請限度測定結果", "synthetic": false }, "geometry": { "type": "Point", "coordinates": [ 139.742935, 35.692982 ] } },
{ "type": "Feature", "properties": { "name": "千代田区平河町2-6", "laeq_db": 68, "lon": 139.739197, "lat": 35.679234, "source": "自動車騒音 要請限度測定結果", "synthetic": false }, "geometry": { "type": "Point", "coordinates": [ 139.739197, 35.679234 ] } },
{ "type": "Feature", "properties": { "name": "港区白金台1-2", "laeq_db": 65, "lon": 139.730743, "lat": 35.636738, "source": "自動車騒音 要請限度測定結果", "synthetic": false }, "geometry": { "type": "Point", "coordinates": [ 139.730743, 35.636738 ] } },
{ "type": "Feature", "properties": { "name": "港区東麻布2-31", "laeq_db": 72, "lon": 139.740875, "lat": 35.655727, "source": "自動車騒音 要請限度測定結果", "synthetic": false }, "geometry": { "type": "Point", "coordinates": [ 139.740875, 35.655727 ] } },
{ "type": "Feature", "properties": { "name": "港区白金台5-10", "laeq_db": 73, "lon": 139.719849, "lat": 35.641472, "source": "自動車騒音 要請限度測定結果", "synthetic": false }, "geometry": { "type": "Point", "coordinates": [ 139.719849, 35.641472 ] } },
{ "type": "Feature", "properties": { "name": "港区西麻布3-12", "laeq_db": 66, "lon": 139.724091, "lat": 35.656204, "source": "自動車騒音 要請限度測定結果", "synthetic": false }, "geometry": { "type": "Point", "coordinates": [ 139.724091, 35.656204 ] } },
{ "type": "Feature", "properties": { "name": "港区高輪2-13", "laeq_db": 69, "lon": 139.737762, "lat": 35.634586, "source": "自動車騒音 要請限度測定結果", "synthetic": false }, "geometry": { "type": "Point", "coordinates": [ 139.737762, 35.634586 ] } },
{ "type": "Feature", "properties": { "name": "港区北青山3-3", "laeq_db": 69, "lon": 139.714828, "lat": 35.668293, "source": "自動車騒音 要請限度測定結果", "synthetic": false }, "geometry": { "type": "Point", "coordinates": [ 139.714828, 35.668293 ] } },
{ "type": "Feature", "properties": { "name": "港区西麻布3-21", "laeq_db": 68, "lon": 139.725067, "lat": 35.659618, "source": "自動車騒音 要請限度測定結果", "synthetic": false }, "geometry": { "type": "Point", "coordinates": [ 139.725067, 35.659618 ] } },
{ "type": "Feature", "properties": { "name": "港区三田2-7", "laeq_db": 68, "lon": 139.744034, "lat": 35.651531, "source": "自動車騒音 要請限度測定結果", "synthetic": false }, "geometry": { "type": "Point", "coordinates": [ 139.744034, 35.651531 ] } },
{ "type": "Feature", "properties": { "name": "港区東麻布2-31", "laeq_db": 72, "lon": 139.740875, "lat": 35.655727, "source": "自動車騒音 要請限度測定結果", "synthetic": false }, "geometry": { "type": "Point", "coordinates": [ 139.740875, 35.655727 ] } },
{ "type": "Feature", "properties": { "name": "港区北青山1-7", "laeq_db": 59, "lon": 139.720215, "lat": 35.677811, "source": "自動車騒音 要請限度測定結果", "synthetic": false }, "geometry": { "type": "Point", "coordinates": [ 139.720215, 35.677811 ] } },
{ "type": "Feature", "properties": { "name": "港区南青山4-1", "laeq_db": 68, "lon": 139.71936, "lat": 35.667164, "source": "自動車騒音 要請限度測定結果", "synthetic": false }, "geometry": { "type": "Point", "coordinates": [ 139.71936, 35.667164 ] } },
{ "type": "Feature", "properties": { "name": "港区港南2-3", "laeq_db": 65, "lon": 139.743881, "lat": 35.629086, "source": "自動車騒音 要請限度測定結果", "synthetic": false }, "geometry": { "type": "Point", "coordinates": [ 139.743881, 35.629086 ] } },
{ "type": "Feature", "properties": { "name": "新宿区新小川町6-27", "laeq_db": 72, "lon": 139.741959, "lat": 35.707932, "source": "自動車騒音 要請限度測定結果", "synthetic": false }, "geometry": { "type": "Point", "coordinates": [ 139.741959, 35.707932 ] } },
{ "type": "Feature", "properties": { "name": "新宿区神楽坂6-58", "laeq_db": 66, "lon": 139.736923, "lat": 35.702477, "source": "自動車騒音 要請限度測定結果", "synthetic": false }, "geometry": { "type": "Point", "coordinates": [ 139.736923, 35.702477 ] } },
{ "type": "Feature", "properties": { "name": "新宿区西早稲田1-2-6", "laeq_db": 68, "lon": 139.717514, "lat": 35.708347, "source": "自動車騒音 要請限度測定結果", "synthetic": false }, "geometry": { "type": "Point", "coordinates": [ 139.717514, 35.708347 ] } },
{ "type": "Feature", "properties": { "name": "新宿区西早稲田2-14-4", "laeq_db": 69, "lon": 139.711731, "lat": 35.708221, "source": "自動車騒音 要請限度測定結果", "synthetic": false }, "geometry": { "type": "Point", "coordinates": [ 139.711731, 35.708221 ] } },
{ "type": "Feature", "properties": { "name": "新宿区余丁町1", "laeq_db": 63, "lon": 139.716858, "lat": 35.694946, "source": "自動車騒音 要請限度測定結果", "synthetic": false }, "geometry": { "type": "Point", "coordinates": [ 139.716858, 35.694946 ] } },
{ "type": "Feature", "properties": { "name": "新宿区富久町8-25", "laeq_db": 71, "lon": 139.71814, "lat": 35.691345, "source": "自動車騒音 要請限度測定結果", "synthetic": false }, "geometry": { "type": "Point", "coordinates": [ 139.71814, 35.691345 ] } },
{ "type": "Feature", "properties": { "name": "新宿区新宿5-16-5", "laeq_db": 70, "lon": 139.7061, "lat": 35.692558, "source": "自動車騒音 要請限度測定結果", "synthetic": false }, "geometry": { "type": "Point", "coordinates": [ 139.7061, 35.692558 ] } },
{ "type": "Feature", "properties": { "name": "新宿区西新宿8-14-18", "laeq_db": 67, "lon": 139.691574, "lat": 35.694984, "source": "自動車騒音 要請限度測定結果", "synthetic": false }, "geometry": { "type": "Point", "coordinates": [ 139.691574, 35.694984 ] } },
{ "type": "Feature", "properties": { "name": "新宿区新宿1-7-3", "laeq_db": 70, "lon": 139.710327, "lat": 35.68877, "source": "自動車騒音 要請限度測定結果", "synthetic": false }, "geometry": { "type": "Point", "coordinates": [ 139.710327, 35.68877 ] } },
{ "type": "Feature", "properties": { "name": "新宿区市谷本村町7-3", "laeq_db": 69, "lon": 139.724976, "lat": 35.695076, "source": "自動車騒音 要請限度測定結果", "synthetic": false }, "geometry": { "type": "Point", "coordinates": [ 139.724976, 35.695076 ] } },
{ "type": "Feature", "properties": { "name": "新宿区左門町13", "laeq_db": 68, "lon": 139.719818, "lat": 35.686466, "source": "自動車騒音 要請限度測定結果", "synthetic": false }, "geometry": { "type": "Point", "coordinates": [ 139.719818, 35.686466 ] } },
{ "type": "Feature", "properties": { "name": "新宿区納戸町36", "laeq_db": 62, "lon": 139.733063, "lat": 35.696926, "source": "自動車騒音 要請限度測定結果", "synthetic": false }, "geometry": { "type": "Point", "coordinates": [ 139.733063, 35.696926 ] } },
{ "type": "Feature", "properties": { "name": "新宿区大久保3-1-3", "laeq_db": 75, "lon": 139.708092, "lat": 35.704676, "source": "自動車騒音 要請限度測定結果", "synthetic": false }, "geometry": { "type": "Point", "coordinates": [ 139.708092, 35.704676 ] } },
{ "type": "Feature", "properties": { "name": "新宿区西新宿4-39-5", "laeq_db": 68, "lon": 139.685654, "lat": 35.685955, "source": "自動車騒音 要請限度測定結果", "synthetic": false }, "geometry": { "type": "Point", "coordinates": [ 139.685654, 35.685955 ] } },
{ "type": "Feature", "properties": { "name": "新宿区南元町15", "laeq_db": 62, "lon": 139.723129, "lat": 35.67963, "source": "自動車騒音 要請限度測定結果", "synthetic": false }, "geometry": { "type": "Point", "coordinates": [ 139.723129, 35.67963 ] } },
{ "type": "Feature", "properties": { "name": "新宿区西新宿3-4", "laeq_db": 70, "lon": 139.692352, "lat": 35.685623, "source": "自動車騒音 要請限度測定結果", "synthetic": false }, "geometry": { "type": "Point", "coordinates": [ 139.692352, 35.685623 ] } },
{ "type": "Feature", "properties": { "name": "新宿区大久保3-14", "laeq_db": 69, "lon": 139.708572, "lat": 35.707726, "source": "自動車騒音 要請限度測定結果", "synthetic": false }, "geometry": { "type": "Point", "coordinates": [ 139.708572, 35.707726 ] } },
{ "type": "Feature", "properties": { "name": "新宿区西新宿2-11", "laeq_db": 65, "lon": 139.687698, "lat": 35.691105, "source": "自動車騒音 要請限度測定結果", "synthetic": false }, "geometry": { "type": "Point", "coordinates": [ 139.687698, 35.691105 ] } },
{ "type": "Feature", "properties": { "name": "文京区関口1-20", "laeq_db": 69, "lon": 139.733521, "lat": 35.709316, "source": "自動車騒音 要請限度測定結果", "synthetic": false }, "geometry": { "type": "Point", "coordinates": [ 139.733521, 35.709316 ] } },
{ "type": "Feature", "properties": { "name": "品川区上大崎2-13", "laeq_db": 65, "lon": 139.71788, "lat": 35.634651, "source": "自動車騒音 要請限度測定結果", "synthetic": false }, "geometry": { "type": "Point", "coordinates": [ 139.71788, 35.634651 ] } },
{ "type": "Feature", "properties": { "name": "品川区上大崎2-13", "laeq_db": 63, "lon": 139.71788, "lat": 35.634651, "source": "自動車騒音 要請限度測定結果", "synthetic": false }, "geometry": { "type": "Point", "coordinates": [ 139.71788, 35.634651 ] } },
{ "type": "Feature", "properties": { "name": "品川区北品川3-10", "laeq_db": 69, "lon": 139.737625, "lat": 35.616417, "source": "自動車騒音 要請限度測定結果", "synthetic": false }, "geometry": { "type": "Point", "coordinates": [ 139.737625, 35.616417 ] } },
{ "type": "Feature", "properties": { "name": "品川区西五反田5-3", "laeq_db": 69, "lon": 139.716583, "lat": 35.624962, "source": "自動車騒音 要請限度測定結果", "synthetic": false }, "geometry": { "type": "Point", "coordinates": [ 139.716583, 35.624962 ] } },
{ "type": "Feature", "properties": { "name": "品川区戸越4-8", "laeq_db": 61, "lon": 139.718582, "lat": 35.610844, "source": "自動車騒音 要請限度測定結果", "synthetic": false }, "geometry": { "type": "Point", "coordinates": [ 139.718582, 35.610844 ] } },
{ "type": "Feature", "properties": { "name": "品川区平塚3-12", "laeq_db": 62, "lon": 139.712585, "lat": 35.6133, "source": "自動車騒音 要請限度測定結果", "synthetic": false }, "geometry": { "type": "Point", "coordinates": [ 139.712585, 35.6133 ] } },
{ "type": "Feature", "properties": { "name": "品川区南品川5-13", "laeq_db": 68, "lon": 139.741135, "lat": 35.608231, "source": "自動車騒音 要請限度測定結果", "synthetic": false }, "geometry": { "type": "Point", "coordinates": [ 139.741135, 35.608231 ] } },
{ "type": "Feature", "properties": { "name": "品川区大井6-18", "laeq_db": 68, "lon": 139.730331, "lat": 35.595699, "source": "自動車騒音 要請限度測定結果", "synthetic": false }, "geometry": { "type": "Point", "coordinates": [ 139.730331, 35.595699 ] } },
{ "type": "Feature", "properties": { "name": "品川区大井1-21", "laeq_db": 58, "lon": 139.731628, "lat": 35.606804, "source": "自動車騒音 要請限度測定結果", "synthetic": false }, "geometry": { "type": "Point", "coordinates": [ 139.731628, 35.606804 ] } },
{ "type": "Feature", "properties": { "name": "品川区北品川2-7", "laeq_db": 69, "lon": 139.74411, "lat": 35.618835, "source": "自動車騒音 要請限度測定結果", "synthetic": false }, "geometry": { "type": "Point", "coordinates": [ 139.74411, 35.618835 ] } },
{ "type": "Feature", "properties": { "name": "品川区東五反田5-1", "laeq_db": 70, "lon": 139.721039, "lat": 35.632069, "source": "自動車騒音 要請限度測定結果", "synthetic": false }, "geometry": { "type": "Point", "coordinates": [ 139.721039, 35.632069 ] } },
{ "type": "Feature", "properties": { "name": "目黒区目黒2-8地先", "laeq_db": 70, "lon": 139.7099, "lat": 35.633884, "source": "自動車騒音 要請限度測定結果", "synthetic": false }, "geometry": { "type": "Point", "coordinates": [ 139.7099, 35.633884 ] } },
{ "type": "Feature", "properties": { "name": "目黒区碑文谷2－11地先", "laeq_db": 67, "lon": 139.68605, "lat": 35.623592, "source": "自動車騒音 要請限度測定結果", "synthetic": false }, "geometry": { "type": "Point", "coordinates": [ 139.68605, 35.623592 ] } },
{ "type": "Feature", "properties": { "name": "目黒区中根1-25地先", "laeq_db": 72, "lon": 139.668488, "lat": 35.614166, "source": "自動車騒音 要請限度測定結果", "synthetic": false }, "geometry": { "type": "Point", "coordinates": [ 139.668488, 35.614166 ] } },
{ "type": "Feature", "properties": { "name": "目黒区下目黒3-4地先", "laeq_db": 73, "lon": 139.708832, "lat": 35.630386, "source": "自動車騒音 要請限度測定結果", "synthetic": false }, "geometry": { "type": "Point", "coordinates": [ 139.708832, 35.630386 ] } },
{ "type": "Feature", "properties": { "name": "目黒区青葉台4－1地先", "laeq_db": 69, "lon": 139.691025, "lat": 35.656101, "source": "自動車騒音 要請限度測定結果", "synthetic": false }, "geometry": { "type": "Point", "coordinates": [ 139.691025, 35.656101 ] } },
{ "type": "Feature", "properties": { "name": "目黒区東が丘1-5地先", "laeq_db": 68, "lon": 139.671295, "lat": 35.626621, "source": "自動車騒音 要請限度測定結果", "synthetic": false }, "geometry": { "type": "Point", "coordinates": [ 139.671295, 35.626621 ] } },
{ "type": "Feature", "properties": { "name": "目黒区東山3-2", "laeq_db": 72, "lon": 139.684952, "lat": 35.65062, "source": "自動車騒音 要請限度測定結果", "synthetic": false }, "geometry": { "type": "Point", "coordinates": [ 139.684952, 35.65062 ] } },
{ "type": "Feature", "properties": { "name": "目黒区八雲1-12", "laeq_db": 70, "lon": 139.672684, "lat": 35.6171, "source": "自動車騒音 要請限度測定結果", "synthetic": false }, "geometry": { "type": "Point", "coordinates": [ 139.672684, 35.6171 ] } },
{ "type": "Feature", "properties": { "name": "目黒区東山1-1", "laeq_db": 70, "lon": 139.692566, "lat": 35.648373, "source": "自動車騒音 要請限度測定結果", "synthetic": false }, "geometry": { "type": "Point", "coordinates": [ 139.692566, 35.648373 ] } },
{ "type": "Feature", "properties": { "name": "目黒区五本木3-18", "laeq_db": 69, "lon": 139.685181, "lat": 35.631634, "source": "自動車騒音 要請限度測定結果", "synthetic": false }, "geometry": { "type": "Point", "coordinates": [ 139.685181, 35.631634 ] } },
{ "type": "Feature", "properties": { "name": "目黒区目黒本町3-20", "laeq_db": 67, "lon": 139.697281, "lat": 35.624226, "source": "自動車騒音 要請限度測定結果", "synthetic": false }, "geometry": { "type": "Point", "coordinates": [ 139.697281, 35.624226 ] } },
{ "type": "Feature", "properties": { "name": "目黒区五本木2-3", "laeq_db": 62, "lon": 139.686081, "lat": 35.635952, "source": "自動車騒音 要請限度測定結果", "synthetic": false }, "geometry": { "type": "Point", "coordinates": [ 139.686081, 35.635952 ] } },
{ "type": "Feature", "properties": { "name": "大田区南馬込5-42", "laeq_db": 73, "lon": 139.70575, "lat": 35.585648, "source": "自動車騒音 要請限度測定結果", "synthetic": false }, "geometry": { "type": "Point", "coordinates": [ 139.70575, 35.585648 ] } },
{ "type": "Feature", "properties": { "name": "大田区池上3-4", "laeq_db": 74, "lon": 139.699539, "lat": 35.575981, "source": "自動車騒音 要請限度測定結果", "synthetic": false }, "geometry": { "type": "Point", "coordinates": [ 139.699539, 35.575981 ] } },
{ "type": "Feature", "properties": { "name": "大田区南馬込5-42", "laeq_db": 72, "lon": 139.70575, "lat": 35.585648, "source": "自動車騒音 要請限度測定結果", "synthetic": false }, "geometry": { "type": "Point", "coordinates": [ 139.70575, 35.585648 ] } },
{ "type": "Feature", "properties": { "name": "大田区南馬込2-31", "laeq_db": 72, "lon": 139.718979, "lat": 35.588638, "source": "自動車騒音 要請限度測定結果", "synthetic": false }, "geometry": { "type": "Point", "coordinates": [ 139.718979, 35.588638 ] } },
{ "type": "Feature", "properties": { "name": "大田区南千束3-32", "laeq_db": 70, "lon": 139.687881, "lat": 35.599949, "source": "自動車騒音 要請限度測定結果", "synthetic": false }, "geometry": { "type": "Point", "coordinates": [ 139.687881, 35.599949 ] } },
{ "type": "Feature", "properties": { "name": "大田区山王1-6", "laeq_db": 67, "lon": 139.727737, "lat": 35.59148, "source": "自動車騒音 要請限度測定結果", "synthetic": false }, "geometry": { "type": "Point", "coordinates": [ 139.727737, 35.59148 ] } },
{ "type": "Feature", "properties": { "name": "大田区北千束1-4", "laeq_db": 70, "lon": 139.69252, "lat": 35.609825, "source": "自動車騒音 要請限度測定結果", "synthetic": false }, "geometry": { "type": "Point", "coordinates": [ 139.69252, 35.609825 ] } },
{ "type": "Feature", "properties": { "name": "大田区北馬込2-39", "laeq_db": 67, "lon": 139.712006, "lat": 35.598221, "source": "自動車騒音 要請限度測定結果", "synthetic": false }, "geometry": { "type": "Point", "coordinates": [ 139.712006, 35.598221 ] } },
{ "type": "Feature", "properties": { "name": "世田谷区羽根木1-6-14", "laeq_db": 69, "lon": 139.660507, "lat": 35.664528, "source": "自動車騒音 要請限度測定結果", "synthetic": false }, "geometry": { "type": "Point", "coordinates": [ 139.660507, 35.664528 ] } },
{ "type": "Feature", "properties": { "name": "世田谷区太子堂１-4-24", "laeq_db": 72, "lon": 139.676056, "lat": 35.645943, "source": "自動車騒音 要請限度測定結果", "synthetic": false }, "geometry": { "type": "Point", "coordinates": [ 139.676056, 35.645943 ] } },
{ "type": "Feature", "properties": { "name": "世田谷区上馬4-1-3", "laeq_db": 74, "lon": 139.664078, "lat": 35.635284, "source": "自動車騒音 要請限度測定結果", "synthetic": false }, "geometry": { "type": "Point", "coordinates": [ 139.664078, 35.635284 ] } },
{ "type": "Feature", "properties": { "name": "世田谷区野毛1-25-1", "laeq_db": 74, "lon": 139.643334, "lat": 35.605718, "source": "自動車騒音 要請限度測定結果", "synthetic": false }, "geometry": { "type": "Point", "coordinates": [ 139.643334, 35.605718 ] } },
{ "type": "Feature", "properties": { "name": "世田谷区八幡山2-10-2", "laeq_db": 68, "lon": 139.614968, "lat": 35.660605, "source": "自動車騒音 要請限度測定結果", "synthetic": false }, "geometry": { "type": "Point", "coordinates": [ 139.614968, 35.660605 ] } },
{ "type": "Feature", "properties": { "name": "世田谷区北烏山9-3-8", "laeq_db": 75, "lon": 139.594894, "lat": 35.669563, "source": "自動車騒音 要請限度測定結果", "synthetic": false }, "geometry": { "type": "Point", "coordinates": [ 139.594894, 35.669563 ] } },
{ "type": "Feature", "properties": { "name": "世田谷区等々力4-19-18", "laeq_db": 69, "lon": 139.652435, "lat": 35.610874, "source": "自動車騒音 要請限度測定結果", "synthetic": false }, "geometry": { "type": "Point", "coordinates": [ 139.652435, 35.610874 ] } },
{ "type": "Feature", "properties": { "name": "世田谷区世田谷1-11-18", "laeq_db": 67, "lon": 139.653488, "lat": 35.642334, "source": "自動車騒音 要請限度測定結果", "synthetic": false }, "geometry": { "type": "Point", "coordinates": [ 139.653488, 35.642334 ] } },
{ "type": "Feature", "properties": { "name": "世田谷区上北沢2-1-3", "laeq_db": 66, "lon": 139.617523, "lat": 35.669216, "source": "自動車騒音 要請限度測定結果", "synthetic": false }, "geometry": { "type": "Point", "coordinates": [ 139.617523, 35.669216 ] } },
{ "type": "Feature", "properties": { "name": "世田谷区大原1-16-16", "laeq_db": 66, "lon": 139.665207, "lat": 35.668644, "source": "自動車騒音 要請限度測定結果", "synthetic": false }, "geometry": { "type": "Point", "coordinates": [ 139.665207, 35.668644 ] } },
{ "type": "Feature", "properties": { "name": "世田谷区野沢3-4", "laeq_db": 71, "lon": 139.67424, "lat": 35.629002, "source": "自動車騒音 要請限度測定結果", "synthetic": false }, "geometry": { "type": "Point", "coordinates": [ 139.67424, 35.629002 ] } },
{ "type": "Feature", "properties": { "name": "世田谷区太子堂2-12-2", "laeq_db": 76, "lon": 139.673462, "lat": 35.644928, "source": "自動車騒音 要請限度測定結果", "synthetic": false }, "geometry": { "type": "Point", "coordinates": [ 139.673462, 35.644928 ] } },
{ "type": "Feature", "properties": { "name": "世田谷区上北沢4-31-10", "laeq_db": 71, "lon": 139.617905, "lat": 35.67099, "source": "自動車騒音 要請限度測定結果", "synthetic": false }, "geometry": { "type": "Point", "coordinates": [ 139.617905, 35.67099 ] } },
{ "type": "Feature", "properties": { "name": "世田谷区砧公園7", "laeq_db": 69, "lon": 139.62421, "lat": 35.632093, "source": "自動車騒音 要請限度測定結果", "synthetic": false }, "geometry": { "type": "Point", "coordinates": [ 139.62421, 35.632093 ] } },
{ "type": "Feature", "properties": { "name": "世田谷区瀬田2-31-2", "laeq_db": 75, "lon": 139.629593, "lat": 35.61813, "source": "自動車騒音 要請限度測定結果", "synthetic": false }, "geometry": { "type": "Point", "coordinates": [ 139.629593, 35.61813 ] } },
{ "type": "Feature", "properties": { "name": "世田谷区野毛3-20", "laeq_db": 70, "lon": 139.63707, "lat": 35.60442, "source": "自動車騒音 要請限度測定結果", "synthetic": false }, "geometry": { "type": "Point", "coordinates": [ 139.63707, 35.60442 ] } },
{ "type": "Feature", "properties": { "name": "世田谷区松原1-39-15", "laeq_db": 73, "lon": 139.651688, "lat": 35.670254, "source": "自動車騒音 要請限度測定結果", "synthetic": false }, "geometry": { "type": "Point", "coordinates": [ 139.651688, 35.670254 ] } },
{ "type": "Feature", "properties": { "name": "世田谷区成城3-18-23", "laeq_db": 70, "lon": 139.597687, "lat": 35.634262, "source": "自動車騒音 要請限度測定結果", "synthetic": false }, "geometry": { "type": "Point", "coordinates": [ 139.597687, 35.634262 ] } },
{ "type": "Feature", "properties": { "name": "世田谷区大原2-27", "laeq_db": 74, "lon": 139.658142, "lat": 35.671265, "source": "自動車騒音 要請限度測定結果", "synthetic": false }, "geometry": { "type": "Point", "coordinates": [ 139.658142, 35.671265 ] } },
{ "type": "Feature", "properties": { "name": "世田谷区北烏山1-12", "laeq_db": 74, "lon": 139.60434, "lat": 35.673161, "source": "自動車騒音 要請限度測定結果", "synthetic": false }, "geometry": { "type": "Point", "coordinates": [ 139.60434, 35.673161 ] } },
{ "type": "Feature", "properties": { "name": "世田谷区新町2-8", "laeq_db": 74, "lon": 139.64978, "lat": 35.629463, "source": "自動車騒音 要請限度測定結果", "synthetic": false }, "geometry": { "type": "Point", "coordinates": [ 139.64978, 35.629463 ] } },
{ "type": "Feature", "properties": { "name": "世田谷区野毛2-8", "laeq_db": 62, "lon": 139.641083, "lat": 35.601734, "source": "自動車騒音 要請限度測定結果", "synthetic": false }, "geometry": { "type": "Point", "coordinates": [ 139.641083, 35.601734 ] } },
{ "type": "Feature", "properties": { "name": "世田谷区上用賀6-20", "laeq_db": 70, "lon": 139.622925, "lat": 35.635181, "source": "自動車騒音 要請限度測定結果", "synthetic": false }, "geometry": { "type": "Point", "coordinates": [ 139.622925, 35.635181 ] } },
{ "type": "Feature", "properties": { "name": "世田谷区北沢4-26", "laeq_db": 64, "lon": 139.668488, "lat": 35.66814, "source": "自動車騒音 要請限度測定結果", "synthetic": false }, "geometry": { "type": "Point", "coordinates": [ 139.668488, 35.66814 ] } },
{ "type": "Feature", "properties": { "name": "世田谷区代田1-3", "laeq_db": 68, "lon": 139.664078, "lat": 35.650566, "source": "自動車騒音 要請限度測定結果", "synthetic": false }, "geometry": { "type": "Point", "coordinates": [ 139.664078, 35.650566 ] } },
{ "type": "Feature", "properties": { "name": "渋谷区渋谷2-9-1", "laeq_db": 69, "lon": 139.707596, "lat": 35.660892, "source": "自動車騒音 要請限度測定結果", "synthetic": false }, "geometry": { "type": "Point", "coordinates": [ 139.707596, 35.660892 ] } },
{ "type": "Feature", "properties": { "name": "渋谷区広尾5-7-4", "laeq_db": 68, "lon": 139.722443, "lat": 35.649475, "source": "自動車騒音 要請限度測定結果", "synthetic": false }, "geometry": { "type": "Point", "coordinates": [ 139.722443, 35.649475 ] } },
{ "type": "Feature", "properties": { "name": "渋谷区富ヶ谷1-11-10", "laeq_db": 68, "lon": 139.690994, "lat": 35.668056, "source": "自動車騒音 要請限度測定結果", "synthetic": false }, "geometry": { "type": "Point", "coordinates": [ 139.690994, 35.668056 ] } },
{ "type": "Feature", "properties": { "name": "渋谷区本町1-56-2", "laeq_db": 66, "lon": 139.683182, "lat": 35.682587, "source": "自動車騒音 要請限度測定結果", "synthetic": false }, "geometry": { "type": "Point", "coordinates": [ 139.683182, 35.682587 ] } },
{ "type": "Feature", "properties": { "name": "渋谷区鉢山町14", "laeq_db": 67, "lon": 139.697159, "lat": 35.650928, "source": "自動車騒音 要請限度測定結果", "synthetic": false }, "geometry": { "type": "Point", "coordinates": [ 139.697159, 35.650928 ] } },
{ "type": "Feature", "properties": { "name": "中野区弥生町4-20", "laeq_db": 64, "lon": 139.671631, "lat": 35.686672, "source": "自動車騒音 要請限度測定結果", "synthetic": false }, "geometry": { "type": "Point", "coordinates": [ 139.671631, 35.686672 ] } },
{ "type": "Feature", "properties": { "name": "中野区中野5-68-7", "laeq_db": 69, "lon": 139.665131, "lat": 35.709251, "source": "自動車騒音 要請限度測定結果", "synthetic": false }, "geometry": { "type": "Point", "coordinates": [ 139.665131, 35.709251 ] } },
{ "type": "Feature", "properties": { "name": "中野区中野5-4-7", "laeq_db": 70, "lon": 139.672073, "lat": 35.709259, "source": "自動車騒音 要請限度測定結果", "synthetic": false }, "geometry": { "type": "Point", "coordinates": [ 139.672073, 35.709259 ] } },
{ "type": "Feature", "properties": { "name": "中野区弥生町2-41-2", "laeq_db": 66, "lon": 139.672852, "lat": 35.691418, "source": "自動車騒音 要請限度測定結果", "synthetic": false }, "geometry": { "type": "Point", "coordinates": [ 139.672852, 35.691418 ] } },
{ "type": "Feature", "properties": { "name": "中野区弥生町4-20", "laeq_db": 64, "lon": 139.671631, "lat": 35.686672, "source": "自動車騒音 要請限度測定結果", "synthetic": false }, "geometry": { "type": "Point", "coordinates": [ 139.671631, 35.686672 ] } },
{ "type": "Feature", "properties": { "name": "中野区南台3-22", "laeq_db": 68, "lon": 139.667343, "lat": 35.685722, "source": "自動車騒音 要請限度測定結果", "synthetic": false }, "geometry": { "type": "Point", "coordinates": [ 139.667343, 35.685722 ] } },
{ "type": "Feature", "properties": { "name": "中野区本町5-28", "laeq_db": 63, "lon": 139.669846, "lat": 35.691853, "source": "自動車騒音 要請限度測定結果", "synthetic": false }, "geometry": { "type": "Point", "coordinates": [ 139.669846, 35.691853 ] } },
{ "type": "Feature", "properties": { "name": "中野区中野5-68", "laeq_db": 69, "lon": 139.665207, "lat": 35.709263, "source": "自動車騒音 要請限度測定結果", "synthetic": false }, "geometry": { "type": "Point", "coordinates": [ 139.665207, 35.709263 ] } },
{ "type": "Feature", "properties": { "name": "杉並区高円寺北2-1", "laeq_db": 67, "lon": 139.653915, "lat": 35.705902, "source": "自動車騒音 要請限度測定結果", "synthetic": false }, "geometry": { "type": "Point", "coordinates": [ 139.653915, 35.705902 ] } },
{ "type": "Feature", "properties": { "name": "杉並区和田2-7", "laeq_db": 69, "lon": 139.656174, "lat": 35.686996, "source": "自動車騒音 要請限度測定結果", "synthetic": false }, "geometry": { "type": "Point", "coordinates": [ 139.656174, 35.686996 ] } },
{ "type": "Feature", "properties": { "name": "杉並区和泉1-21", "laeq_db": 70, "lon": 139.659515, "lat": 35.674351, "source": "自動車騒音 要請限度測定結果", "synthetic": false }, "geometry": { "type": "Point", "coordinates": [ 139.659515, 35.674351 ] } },
{ "type": "Feature", "properties": { "name": "杉並区荻窪5-10", "laeq_db": 71, "lon": 139.617706, "lat": 35.701599, "source": "自動車騒音 要請限度測定結果", "synthetic": false }, "geometry": { "type": "Point", "coordinates": [ 139.617706, 35.701599 ] } },
{ "type": "Feature", "properties": { "name": "杉並区高井戸西1-5", "laeq_db": 68, "lon": 139.613739, "lat": 35.680756, "source": "自動車騒音 要請限度測定結果", "synthetic": false }, "geometry": { "type": "Point", "coordinates": [ 139.613739, 35.680756 ] } },
{ "type": "Feature", "properties": { "name": "杉並区下高井戸3-3", "laeq_db": 70, "lon": 139.631882, "lat": 35.670132, "source": "自動車騒音 要請限度測定結果", "synthetic": false }, "geometry": { "type": "Point", "coordinates": [ 139.631882, 35.670132 ] } },
{ "type": "Feature", "properties": { "name": "杉並区高井戸東2-3", "laeq_db": 69, "lon": 139.615311, "lat": 35.677635, "source": "自動車騒音 要請限度測定結果", "synthetic": false }, "geometry": { "type": "Point", "coordinates": [ 139.615311, 35.677635 ] } },
{ "type": "Feature", "properties": { "name": "杉並区上高井戸2-16", "laeq_db": 62, "lon": 139.606979, "lat": 35.679134, "source": "自動車騒音 要請限度測定結果", "synthetic": false }, "geometry": { "type": "Point", "coordinates": [ 139.606979, 35.679134 ] } },
{ "type": "Feature", "properties": { "name": "杉並区高円寺南2-11", "laeq_db": 70, "lon": 139.650757, "lat": 35.698475, "source": "自動車騒音 要請限度測定結果", "synthetic": false }, "geometry": { "type": "Point", "coordinates": [ 139.650757, 35.698475 ] } },
{ "type": "Feature", "properties": { "name": "杉並区成田東5-34", "laeq_db": 70, "lon": 139.631714, "lat": 35.700737, "source": "自動車騒音 要請限度測定結果", "synthetic": false }, "geometry": { "type": "Point", "coordinates": [ 139.631714, 35.700737 ] } },
{ "type": "Feature", "properties": { "name": "杉並区高井戸東4-3", "laeq_db": 68, "lon": 139.620407, "lat": 35.687462, "source": "自動車騒音 要請限度測定結果", "synthetic": false }, "geometry": { "type": "Point", "coordinates": [ 139.620407, 35.687462 ] } },
{ "type": "Feature", "properties": { "name": "杉並区宮前1-14", "laeq_db": 69, "lon": 139.60936, "lat": 35.689945, "source": "自動車騒音 要請限度測定結果", "synthetic": false }, "geometry": { "type": "Point", "coordinates": [ 139.60936, 35.689945 ] } },
{ "type": "Feature", "properties": { "name": "杉並区成田東3-7", "laeq_db": 65, "lon": 139.63765, "lat": 35.692486, "source": "自動車騒音 要請限度測定結果", "synthetic": false }, "geometry": { "type": "Point", "coordinates": [ 139.63765, 35.692486 ] } },
{ "type": "Feature", "properties": { "name": "杉並区宮前1-18", "laeq_db": 66, "lon": 139.613647, "lat": 35.69022, "source": "自動車騒音 要請限度測定結果", "synthetic": false }, "geometry": { "type": "Point", "coordinates": [ 139.613647, 35.69022 ] } },
{ "type": "Feature", "properties": { "name": "杉並区堀ノ内1-9", "laeq_db": 67, "lon": 139.650314, "lat": 35.68354, "source": "自動車騒音 要請限度測定結果", "synthetic": false }, "geometry": { "type": "Point", "coordinates": [ 139.650314, 35.68354 ] } },
{ "type": "Feature", "properties": { "name": "杉並区阿佐谷北1-31", "laeq_db": 64, "lon": 139.636154, "lat": 35.708443, "source": "自動車騒音 要請限度測定結果", "synthetic": false }, "geometry": { "type": "Point", "coordinates": [ 139.636154, 35.708443 ] } },
{ "type": "Feature", "properties": { "name": "杉並区宮前3-27", "laeq_db": 67, "lon": 139.609192, "lat": 35.696415, "source": "自動車騒音 要請限度測定結果", "synthetic": false }, "geometry": { "type": "Point", "coordinates": [ 139.609192, 35.696415 ] } },
{ "type": "Feature", "properties": { "name": "杉並区西荻北1-19", "laeq_db": 62, "lon": 139.606644, "lat": 35.707241, "source": "自動車騒音 要請限度測定結果", "synthetic": false }, "geometry": { "type": "Point", "coordinates": [ 139.606644, 35.707241 ] } },
{ "type": "Feature", "properties": { "name": "杉並区高井戸西1-17", "laeq_db": 63, "lon": 139.606659, "lat": 35.681786, "source": "自動車騒音 要請限度測定結果", "synthetic": false }, "geometry": { "type": "Point", "coordinates": [ 139.606659, 35.681786 ] } },
{ "type": "Feature", "properties": { "name": "杉並区下高井戸4-2", "laeq_db": 74, "lon": 139.629974, "lat": 35.670437, "source": "自動車騒音 要請限度測定結果", "synthetic": false }, "geometry": { "type": "Point", "coordinates": [ 139.629974, 35.670437 ] } },
{ "type": "Feature", "properties": { "name": "杉並区下高井戸5-10", "laeq_db": 65, "lon": 139.621597, "lat": 35.67355, "source": "自動車騒音 要請限度測定結果", "synthetic": false }, "geometry": { "type": "Point", "coordinates": [ 139.621597, 35.67355 ] } },
{ "type": "Feature", "properties": { "name": "杉並区梅里1-1", "laeq_db": 71, "lon": 139.652878, "lat": 35.695484, "source": "自動車騒音 要請限度測定結果", "synthetic": false }, "geometry": { "type": "Point", "coordinates": [ 139.652878, 35.695484 ] } },
{ "type": "Feature", "properties": { "name": "杉並区方南2-19", "laeq_db": 68, "lon": 139.658218, "lat": 35.683754, "source": "自動車騒音 要請限度測定結果", "synthetic": false }, "geometry": { "type": "Point", "coordinates": [ 139.658218, 35.683754 ] } },
{ "type": "Feature", "properties": { "name": "杉並区大宮2-1", "laeq_db": 66, "lon": 139.641861, "lat": 35.681683, "source": "自動車騒音 要請限度測定結果", "synthetic": false }, "geometry": { "type": "Point", "coordinates": [ 139.641861, 35.681683 ] } },
{ "type": "Feature", "properties": { "name": "杉並区方南1-2", "laeq_db": 61, "lon": 139.660461, "lat": 35.673565, "source": "自動車騒音 要請限度測定結果", "synthetic": false }, "geometry": { "type": "Point", "coordinates": [ 139.660461, 35.673565 ] } },
{ "type": "Feature", "properties": { "name": "杉並区高円寺南1-20", "laeq_db": 67, "lon": 139.65654, "lat": 35.700806, "source": "自動車騒音 要請限度測定結果", "synthetic": false }, "geometry": { "type": "Point", "coordinates": [ 139.65654, 35.700806 ] } },
{ "type": "Feature", "properties": { "name": "武蔵野市吉祥寺東町1-23", "laeq_db": 66, "lon": 139.58812, "lat": 35.708572, "source": "自動車騒音 要請限度測定結果", "synthetic": false }, "geometry": { "type": "Point", "coordinates": [ 139.58812, 35.708572 ] } },
{ "type": "Feature", "properties": { "name": "武蔵野市御殿山1-19", "laeq_db": 67, "lon": 139.572311, "lat": 35.69944, "source": "自動車騒音 要請限度測定結果", "synthetic": false }, "geometry": { "type": "Point", "coordinates": [ 139.572311, 35.69944 ] } },
{ "type": "Feature", "properties": { "name": "武蔵野市中町2-10", "laeq_db": 62, "lon": 139.563416, "lat": 35.706509, "source": "自動車騒音 要請限度測定結果", "synthetic": false }, "geometry": { "type": "Point", "coordinates": [ 139.563416, 35.706509 ] } },
{ "type": "Feature", "properties": { "name": "武蔵野市吉祥寺本町4-17", "laeq_db": 65, "lon": 139.573532, "lat": 35.708832, "source": "自動車騒音 要請限度測定結果", "synthetic": false }, "geometry": { "type": "Point", "coordinates": [ 139.573532, 35.708832 ] } },
{ "type": "Feature", "properties": { "name": "武蔵野市中町2-10", "laeq_db": 62, "lon": 139.563416, "lat": 35.706509, "source": "自動車騒音 要請限度測定結果", "synthetic": false }, "geometry": { "type": "Point", "coordinates": [ 139.563416, 35.706509 ] } },
{ "type": "Feature", "properties": { "name": "三鷹市下連雀1-13-1", "laeq_db": 71, "lon": 139.569916, "lat": 35.696217, "source": "自動車騒音 要請限度測定結果", "synthetic": false }, "geometry": { "type": "Point", "coordinates": [ 139.569916, 35.696217 ] } },
{ "type": "Feature", "properties": { "name": "三鷹市新川6-30-22", "laeq_db": 66, "lon": 139.564667, "lat": 35.681416, "source": "自動車騒音 要請限度測定結果", "synthetic": false }, "geometry": { "type": "Point", "coordinates": [ 139.564667, 35.681416 ] } },
{ "type": "Feature", "properties": { "name": "三鷹市下連雀2-26-9", "laeq_db": 67, "lon": 139.565842, "lat": 35.697021, "source": "自動車騒音 要請限度測定結果", "synthetic": false }, "geometry": { "type": "Point", "coordinates": [ 139.565842, 35.697021 ] } },
{ "type": "Feature", "properties": { "name": "三鷹市下連雀1-1", "laeq_db": 65, "lon": 139.571091, "lat": 35.695992, "source": "自動車騒音 要請限度測定結果", "synthetic": false }, "geometry": { "type": "Point", "coordinates": [ 139.571091, 35.695992 ] } },
{ "type": "Feature", "properties": { "name": "三鷹市中原2-12", "laeq_db": 64, "lon": 139.570404, "lat": 35.671413, "source": "自動車騒音 要請限度測定結果", "synthetic": false }, "geometry": { "type": "Point", "coordinates": [ 139.570404, 35.671413 ] } },
{ "type": "Feature", "properties": { "name": "三鷹市新川3-21", "laeq_db": 63, "lon": 139.568939, "lat": 35.677914, "source": "自動車騒音 要請限度測定結果", "synthetic": false }, "geometry": { "type": "Point", "coordinates": [ 139.568939, 35.677914 ] } },
{ "type": "Feature", "properties": { "name": "三鷹市北野4-10", "laeq_db": 68, "lon": 139.580048, "lat": 35.674267, "source": "自動車騒音 要請限度測定結果", "synthetic": false }, "geometry": { "type": "Point", "coordinates": [ 139.580048, 35.674267 ] } },
{ "type": "Feature", "properties": { "name": "調布市仙川町2-6", "laeq_db": 71, "lon": 139.579681, "lat": 35.662476, "source": "自動車騒音 要請限度測定結果", "synthetic": false }, "geometry": { "type": "Point", "coordinates": [ 139.579681, 35.662476 ] } },
{ "type": "Feature", "properties": { "name": "調布市西つつじヶ丘1-27-1", "laeq_db": 72, "lon": 139.571701, "lat": 35.658794, "source": "自動車騒音 要請限度測定結果", "synthetic": false }, "geometry": { "type": "Point", "coordinates": [ 139.571701, 35.658794 ] } },
{ "type": "Feature", "properties": { "name": "調布市西つつじケ丘1-27", "laeq_db": 72, "lon": 139.571701, "lat": 35.658794, "source": "自動車騒音 要請限度測定結果", "synthetic": false }, "geometry": { "type": "Point", "coordinates": [ 139.571701, 35.658794 ] } },
{ "type": "Feature", "properties": { "name": "調布市若葉町3-9-3", "laeq_db": 67, "lon": 139.582855, "lat": 35.651501, "source": "自動車騒音 要請限度測定結果", "synthetic": false }, "geometry": { "type": "Point", "coordinates": [ 139.582855, 35.651501 ] } },
{ "type": "Feature", "properties": { "name": "狛江市東和泉2-9-11", "laeq_db": 69, "lon": 139.580231, "lat": 35.630661, "source": "自動車騒音 要請限度測定結果", "synthetic": false }, "geometry": { "type": "Point", "coordinates": [ 139.580231, 35.630661 ] } },
{ "type": "Feature", "properties": { "name": "狛江市和泉本町1-1-5", "laeq_db": 66, "lon": 139.577927, "lat": 35.634491, "source": "自動車騒音 要請限度測定結果", "synthetic": false }, "geometry": { "type": "Point", "coordinates": [ 139.577927, 35.634491 ] } },
{ "type": "Feature", "properties": { "name": "狛江市中和泉2-3", "laeq_db": 67, "lon": 139.573608, "lat": 35.637108, "source": "自動車騒音 要請限度測定結果", "synthetic": false }, "geometry": { "type": "Point", "coordinates": [ 139.573608, 35.637108 ] } }
]
}
