{
"type": "FeatureCollection",
"name": "schools",
"crs": { "type": "name", "properties": { "name": "urn:ogc:def:crs:OGC:1.3:CRS84" } },
"features": [
{ "type": "Feature", "properties": { "name": "東京都立城南特別支援学校", "kind": "特別支援学校", "capacity": 150.0, "weight": 1.0, "demand_value": 150.0, "source": "国土数値情報 P29 学校（特別支援学校を含む）", "synthetic": false, "lon": 139.71664895897095, "lat": 35.547208321779962 }, "geometry": { "type": "Point", "coordinates": [ 139.71664895897095, 35.547208321779962 ] } },
{ "type": "Feature", "properties": { "name": "東京都立光明学園", "kind": "特別支援学校", "capacity": 150.0, "weight": 1.0, "demand_value": 150.0, "source": "国土数値情報 P29 学校（特別支援学校を含む）", "synthetic": false, "lon": 139.65152687653827, "lat": 35.657840870415058 }, "geometry": { "type": "Point", "coordinates": [ 139.65152687653827, 35.657840870415058 ] } },
{ "type": "Feature", "properties": { "name": "東京都立矢口特別支援学校", "kind": "特別支援学校", "capacity": 150.0, "weight": 1.0, "demand_value": 150.0, "source": "国土数値情報 P29 学校（特別支援学校を含む）", "synthetic": false, "lon": 139.69445354365871, "lat": 35.565052387361092 }, "geometry": { "type": "Point", "coordinates": [ 139.69445354365871, 35.565052387361092 ] } },
{ "type": "Feature", "properties": { "name": "東京都立調布特別支援学校", "kind": "特別支援学校", "capacity": 150.0, "weight": 1.0, "demand_value": 150.0, "source": "国土数値情報 P29 学校（特別支援学校を含む）", "synthetic": false, "lon": 139.54267167637701, "lat": 35.656281244361338 }, "geometry": { "type": "Point", "coordinates": [ 139.542671676377012, 35.656281244361338 ] } },
{ "type": "Feature", "properties": { "name": "東京都立田園調布特別支援学校", "kind": "特別支援学校", "capacity": 150.0, "weight": 1.0, "demand_value": 150.0, "source": "国土数値情報 P29 学校（特別支援学校を含む）", "synthetic": false, "lon": 139.65471846306025, "lat": 35.595268882133951 }, "geometry": { "type": "Point", "coordinates": [ 139.654718463060249, 35.595268882133951 ] } },
{ "type": "Feature", "properties": { "name": "東京都立品川特別支援学校", "kind": "特別支援学校", "capacity": 150.0, "weight": 1.0, "demand_value": 150.0, "source": "国土数値情報 P29 学校（特別支援学校を含む）", "synthetic": false, "lon": 139.73821493921548, "lat": 35.609732356240137 }, "geometry": { "type": "Point", "coordinates": [ 139.738214939215482, 35.609732356240137 ] } },
{ "type": "Feature", "properties": { "name": "愛育学園", "kind": "特別支援学校", "capacity": 150.0, "weight": 1.0, "demand_value": 150.0, "source": "国土数値情報 P29 学校（特別支援学校を含む）", "synthetic": false, "lon": 139.72728711213281, "lat": 35.653293446610945 }, "geometry": { "type": "Point", "coordinates": [ 139.727287112132814, 35.653293446610945 ] } },
{ "type": "Feature", "properties": { "name": "明晴学園", "kind": "特別支援学校", "capacity": 150.0, "weight": 1.0, "demand_value": 150.0, "source": "国土数値情報 P29 学校（特別支援学校を含む）", "synthetic": false, "lon": 139.75306639299851, "lat": 35.603887738795009 }, "geometry": { "type": "Point", "coordinates": [ 139.753066392998505, 35.603887738795009 ] } },
{ "type": "Feature", "properties": { "name": "東京都立江東特別支援学校", "kind": "特別支援学校", "capacity": 150.0, "weight": 1.0, "demand_value": 150.0, "source": "国土数値情報 P29 学校（特別支援学校を含む）", "synthetic": false, "lon": 139.81785888773021, "lat": 35.673718489264878 }, "geometry": { "type": "Point", "coordinates": [ 139.81785888773021, 35.673718489264878 ] } },
{ "type": "Feature", "properties": { "name": "東京都立中央ろう学校", "kind": "特別支援学校", "capacity": 150.0, "weight": 1.0, "demand_value": 150.0, "source": "国土数値情報 P29 学校（特別支援学校を含む）", "synthetic": false, "lon": 139.64022846149626, "lat": 35.669906380258091 }, "geometry": { "type": "Point", "coordinates": [ 139.640228461496264, 35.669906380258091 ] } },
{ "type": "Feature", "properties": { "name": "東京都立永福学園", "kind": "特別支援学校", "capacity": 150.0, "weight": 1.0, "demand_value": 150.0, "source": "国土数値情報 P29 学校（特別支援学校を含む）", "synthetic": false, "lon": 139.64559661399727, "lat": 35.670459551729266 }, "geometry": { "type": "Point", "coordinates": [ 139.64559661399727, 35.670459551729266 ] } },
{ "type": "Feature", "properties": { "name": "東京都立青山特別支援学校", "kind": "特別支援学校", "capacity": 150.0, "weight": 1.0, "demand_value": 150.0, "source": "国土数値情報 P29 学校（特別支援学校を含む）", "synthetic": false, "lon": 139.72256843196135, "lat": 35.669030967400523 }, "geometry": { "type": "Point", "coordinates": [ 139.722568431961349, 35.669030967400523 ] } },
{ "type": "Feature", "properties": { "name": "新宿区立新宿養護学校", "kind": "特別支援学校", "capacity": 150.0, "weight": 1.0, "demand_value": 150.0, "source": "国土数値情報 P29 学校（特別支援学校を含む）", "synthetic": false, "lon": 139.68618095317794, "lat": 35.688326770345689 }, "geometry": { "type": "Point", "coordinates": [ 139.686180953177939, 35.688326770345689 ] } },
{ "type": "Feature", "properties": { "name": "杉並区立済美養護学校", "kind": "特別支援学校", "capacity": 150.0, "weight": 1.0, "demand_value": 150.0, "source": "国土数値情報 P29 学校（特別支援学校を含む）", "synthetic": false, "lon": 139.65051731728323, "lat": 35.685498627301513 }, "geometry": { "type": "Point", "coordinates": [ 139.650517317283231, 35.685498627301513 ] } },
{ "type": "Feature", "properties": { "name": "東京都立中野特別支援学校", "kind": "特別支援学校", "capacity": 150.0, "weight": 1.0, "demand_value": 150.0, "source": "国土数値情報 P29 学校（特別支援学校を含む）", "synthetic": false, "lon": 139.66254749296237, "lat": 35.684373293806367 }, "geometry": { "type": "Point", "coordinates": [ 139.662547492962375, 35.684373293806367 ] } },
{ "type": "Feature", "properties": { "name": "東京都立久我山青光学園", "kind": "特別支援学校", "capacity": 150.0, "weight": 1.0, "demand_value": 150.0, "source": "国土数値情報 P29 学校（特別支援学校を含む）", "synthetic": false, "lon": 139.59630622365972, "lat": 35.681838246685977 }, "geometry": { "type": "Point", "coordinates": [ 139.596306223659724, 35.681838246685977 ] } },
{ "type": "Feature", "properties": { "name": "東京都立墨東特別支援学校", "kind": "特別支援学校", "capacity": 150.0, "weight": 1.0, "demand_value": 150.0, "source": "国土数値情報 P29 学校（特別支援学校を含む）", "synthetic": false, "lon": 139.81790504041015, "lat": 35.685904676521488 }, "geometry": { "type": "Point", "coordinates": [ 139.817905040410153, 35.685904676521488 ] } },
{ "type": "Feature", "properties": { "name": "東京都立白鷺特別支援学校", "kind": "特別支援学校", "capacity": 150.0, "weight": 1.0, "demand_value": 150.0, "source": "国土数値情報 P29 学校（特別支援学校を含む）", "synthetic": false, "lon": 139.86505364907646, "lat": 35.689383190032906 }, "geometry": { "type": "Point", "coordinates": [ 139.865053649076458, 35.689383190032906 ] } },
{ "type": "Feature", "properties": { "name": "都立城東特別支援学校", "kind": "特別支援学校", "capacity": 150.0, "weight": 1.0, "demand_value": 150.0, "source": "国土数値情報 P29 学校（特別支援学校を含む）", "synthetic": false, "lon": 139.83459539422577, "lat": 35.691798887680243 }, "geometry": { "type": "Point", "coordinates": [ 139.834595394225772, 35.691798887680243 ] } },
{ "type": "Feature", "properties": { "name": "筑波大学附属桐が丘特別支援学校", "kind": "特別支援学校", "capacity": 150.0, "weight": 1.0, "demand_value": 150.0, "source": "国土数値情報 P29 学校（特別支援学校を含む）", "synthetic": false, "lon": 139.6845317480911, "lat": 35.748943710798649 }, "geometry": { "type": "Point", "coordinates": [ 139.684531748091104, 35.748943710798649 ] } },
{ "type": "Feature", "properties": { "name": "筑波大学附属大塚特別支援学校", "kind": "特別支援学校", "capacity": 150.0, "weight": 1.0, "demand_value": 150.0, "source": "国土数値情報 P29 学校（特別支援学校を含む）", "synthetic": false, "lon": 139.74780382446212, "lat": 35.707844566214384 }, "geometry": { "type": "Point", "coordinates": [ 139.747803824462125, 35.707844566214384 ] } },
{ "type": "Feature", "properties": { "name": "東京都立文京盲学校", "kind": "特別支援学校", "capacity": 150.0, "weight": 1.0, "demand_value": 150.0, "source": "国土数値情報 P29 学校（特別支援学校を含む）", "synthetic": false, "lon": 139.74677560174629, "lat": 35.705697894823025 }, "geometry": { "type": "Point", "coordinates": [ 139.746775601746293, 35.705697894823025 ] } },
{ "type": "Feature", "properties": { "name": "東京都立葛飾盲学校", "kind": "特別支援学校", "capacity": 150.0, "weight": 1.0, "demand_value": 150.0, "source": "国土数値情報 P29 学校（特別支援学校を含む）", "synthetic": false, "lon": 139.8292711703138, "lat": 35.756092248472648 }, "geometry": { "type": "Point", "coordinates": [ 139.829271170313802, 35.756092248472648 ] } },
{ "type": "Feature", "properties": { "name": "東京都立大塚ろう学校", "kind": "特別支援学校", "capacity": 150.0, "weight": 1.0, "demand_value": 150.0, "source": "国土数値情報 P29 学校（特別支援学校を含む）", "synthetic": false, "lon": 139.73206687675437, "lat": 35.736315196404938 }, "geometry": { "type": "Point", "coordinates": [ 139.732066876754374, 35.736315196404938 ] } },
{ "type": "Feature", "properties": { "name": "東京都立葛飾ろう学校", "kind": "特別支援学校", "capacity": 150.0, "weight": 1.0, "demand_value": 150.0, "source": "国土数値情報 P29 学校（特別支援学校を含む）", "synthetic": false, "lon": 139.83222826427823, "lat": 35.763505524230382 }, "geometry": { "type": "Point", "coordinates": [ 139.832228264278228, 35.763505524230382 ] } },
{ "type": "Feature", "properties": { "name": "東京都立北特別支援学校", "kind": "特別支援学校", "capacity": 150.0, "weight": 1.0, "demand_value": 150.0, "source": "国土数値情報 P29 学校（特別支援学校を含む）", "synthetic": false, "lon": 139.72309512346828, "lat": 35.752599843937155 }, "geometry": { "type": "Point", "coordinates": [ 139.723095123468283, 35.752599843937155 ] } },
{ "type": "Feature", "properties": { "name": "東京都立大泉特別支援学校", "kind": "特別支援学校", "capacity": 150.0, "weight": 1.0, "demand_value": 150.0, "source": "国土数値情報 P29 学校（特別支援学校を含む）", "synthetic": false, "lon": 139.59263505182682, "lat": 35.776589216544913 }, "geometry": { "type": "Point", "coordinates": [ 139.592635051826818, 35.776589216544913 ] } },
{ "type": "Feature", "properties": { "name": "東京都立鹿本学園", "kind": "特別支援学校", "capacity": 150.0, "weight": 1.0, "demand_value": 150.0, "source": "国土数値情報 P29 学校（特別支援学校を含む）", "synthetic": false, "lon": 139.87583924616695, "lat": 35.718432695807294 }, "geometry": { "type": "Point", "coordinates": [ 139.875839246166947, 35.718432695807294 ] } },
{ "type": "Feature", "properties": { "name": "東京都立王子特別支援学校", "kind": "特別支援学校", "capacity": 150.0, "weight": 1.0, "demand_value": 150.0, "source": "国土数値情報 P29 学校（特別支援学校を含む）", "synthetic": false, "lon": 139.72286983381798, "lat": 35.755891925717634 }, "geometry": { "type": "Point", "coordinates": [ 139.722869833817981, 35.755891925717634 ] } },
{ "type": "Feature", "properties": { "name": "東京都立高島特別支援学校", "kind": "特別支援学校", "capacity": 150.0, "weight": 1.0, "demand_value": 150.0, "source": "国土数値情報 P29 学校（特別支援学校を含む）", "synthetic": false, "lon": 139.65433281067621, "lat": 35.786264583564183 }, "geometry": { "type": "Point", "coordinates": [ 139.654332810676209, 35.786264583564183 ] } },
{ "type": "Feature", "properties": { "name": "東京都立水元特別支援学校", "kind": "特別支援学校", "capacity": 150.0, "weight": 1.0, "demand_value": 150.0, "source": "国土数値情報 P29 学校（特別支援学校を含む）", "synthetic": false, "lon": 139.85397372305798, "lat": 35.7840990352014 }, "geometry": { "type": "Point", "coordinates": [ 139.853973723057976, 35.7840990352014 ] } },
{ "type": "Feature", "properties": { "name": "東京都立墨田特別支援学校", "kind": "特別支援学校", "capacity": 150.0, "weight": 1.0, "demand_value": 150.0, "source": "国土数値情報 P29 学校（特別支援学校を含む）", "synthetic": false, "lon": 139.82521659991966, "lat": 35.725145020535621 }, "geometry": { "type": "Point", "coordinates": [ 139.825216599919656, 35.725145020535621 ] } },
{ "type": "Feature", "properties": { "name": "東京都立足立特別支援学校", "kind": "特別支援学校", "capacity": 150.0, "weight": 1.0, "demand_value": 150.0, "source": "国土数値情報 P29 学校（特別支援学校を含む）", "synthetic": false, "lon": 139.81959168141978, "lat": 35.811272782452114 }, "geometry": { "type": "Point", "coordinates": [ 139.81959168141978, 35.811272782452114 ] } },
{ "type": "Feature", "properties": { "name": "東京都立葛飾特別支援学校", "kind": "特別支援学校", "capacity": 150.0, "weight": 1.0, "demand_value": 150.0, "source": "国土数値情報 P29 学校（特別支援学校を含む）", "synthetic": false, "lon": 139.87078284233672, "lat": 35.763818904009327 }, "geometry": { "type": "Point", "coordinates": [ 139.870782842336723, 35.763818904009327 ] } },
{ "type": "Feature", "properties": { "name": "東京都立石神井特別支援学校", "kind": "特別支援学校", "capacity": 150.0, "weight": 1.0, "demand_value": 150.0, "source": "国土数値情報 P29 学校（特別支援学校を含む）", "synthetic": false, "lon": 139.581192236546, "lat": 35.736866671551937 }, "geometry": { "type": "Point", "coordinates": [ 139.581192236546002, 35.736866671551937 ] } },
{ "type": "Feature", "properties": { "name": "東京都立板橋特別支援学校", "kind": "特別支援学校", "capacity": 150.0, "weight": 1.0, "demand_value": 150.0, "source": "国土数値情報 P29 学校（特別支援学校を含む）", "synthetic": false, "lon": 139.66512024473238, "lat": 35.790612601643005 }, "geometry": { "type": "Point", "coordinates": [ 139.665120244732378, 35.790612601643005 ] } },
{ "type": "Feature", "properties": { "name": "東京都立練馬特別支援学校", "kind": "特別支援学校", "capacity": 150.0, "weight": 1.0, "demand_value": 150.0, "source": "国土数値情報 P29 学校（特別支援学校を含む）", "synthetic": false, "lon": 139.61471972474806, "lat": 35.758730483600388 }, "geometry": { "type": "Point", "coordinates": [ 139.614719724748056, 35.758730483600388 ] } },
{ "type": "Feature", "properties": { "name": "東京都立志村学園", "kind": "特別支援学校", "capacity": 150.0, "weight": 1.0, "demand_value": 150.0, "source": "国土数値情報 P29 学校（特別支援学校を含む）", "synthetic": false, "lon": 139.67460909132009, "lat": 35.777168341203399 }, "geometry": { "type": "Point", "coordinates": [ 139.674609091320093, 35.777168341203399 ] } },
{ "type": "Feature", "properties": { "name": "都立水元小合学園", "kind": "特別支援学校", "capacity": 150.0, "weight": 1.0, "demand_value": 150.0, "source": "国土数値情報 P29 学校（特別支援学校を含む）", "synthetic": false, "lon": 139.85906287395076, "lat": 35.782882959635835 }, "geometry": { "type": "Point", "coordinates": [ 139.859062873950762, 35.782882959635835 ] } },
{ "type": "Feature", "properties": { "name": "筑波大学附属視覚特別支援学校", "kind": "特別支援学校", "capacity": 150.0, "weight": 1.0, "demand_value": 150.0, "source": "国土数値情報 P29 学校（特別支援学校を含む）", "synthetic": false, "lon": 139.72500025948918, "lat": 35.718612183389546 }, "geometry": { "type": "Point", "coordinates": [ 139.725000259489178, 35.718612183389546 ] } },
{ "type": "Feature", "properties": { "name": "東京都立花畑学園", "kind": "特別支援学校", "capacity": 150.0, "weight": 1.0, "demand_value": 150.0, "source": "国土数値情報 P29 学校（特別支援学校を含む）", "synthetic": false, "lon": 139.81513392060026, "lat": 35.797053291560246 }, "geometry": { "type": "Point", "coordinates": [ 139.81513392060026, 35.797053291560246 ] } },
{ "type": "Feature", "properties": { "name": "東京都立青鳥特別支援学校", "kind": "特別支援学校", "capacity": 150.0, "weight": 1.0, "demand_value": 150.0, "source": "国土数値情報 P29 学校（特別支援学校を含む）", "synthetic": false, "lon": 139.68413767319555, "lat": 35.642124222063714 }, "geometry": { "type": "Point", "coordinates": [ 139.684137673195551, 35.642124222063714 ] } },
{ "type": "Feature", "properties": { "name": "東京都立港特別支援学校", "kind": "特別支援学校", "capacity": 150.0, "weight": 1.0, "demand_value": 150.0, "source": "国土数値情報 P29 学校（特別支援学校を含む）", "synthetic": false, "lon": 139.75138202431623, "lat": 35.632532429847231 }, "geometry": { "type": "Point", "coordinates": [ 139.751382024316229, 35.632532429847231 ] } },
{ "type": "Feature", "properties": { "name": "東京都立臨海青海特別支援学校", "kind": "特別支援学校", "capacity": 150.0, "weight": 1.0, "demand_value": 150.0, "source": "国土数値情報 P29 学校（特別支援学校を含む）", "synthetic": false, "lon": 139.78045842423708, "lat": 35.6162938848354 }, "geometry": { "type": "Point", "coordinates": [ 139.780458424237082, 35.6162938848354 ] } },
{ "type": "Feature", "properties": { "name": "旭出学園", "kind": "特別支援学校", "capacity": 150.0, "weight": 1.0, "demand_value": 150.0, "source": "国土数値情報 P29 学校（特別支援学校を含む）", "synthetic": false, "lon": 139.57792366818339, "lat": 35.741188238831427 }, "geometry": { "type": "Point", "coordinates": [ 139.577923668183388, 35.741188238831427 ] } }
]
}
