{
"type": "FeatureCollection",
"name": "stations",
"crs": { "type": "name", "properties": { "name": "urn:ogc:def:crs:OGC:1.3:CRS84" } },
"features": [
{ "type": "Feature", "properties": { "name": "江戸川橋", "kind": "駅", "capacity": 49844.0, "weight": 1.0, "demand_value": 49844.0, "source": "国土数値情報 S12 駅別乗降客数", "synthetic": false, "lon": 139.73413000421513, "lat": 35.709295004006414 }, "geometry": { "type": "Point", "coordinates": [ 139.734130004215132, 35.709295004006414 ] } },
{ "type": "Feature", "properties": { "name": "西早稲田", "kind": "駅", "capacity": 37411.0, "weight": 1.0, "demand_value": 37411.0, "source": "国土数値情報 S12 駅別乗降客数", "synthetic": false, "lon": 139.70910902495538, "lat": 35.707805448186349 }, "geometry": { "type": "Point", "coordinates": [ 139.709109024955382, 35.707805448186349 ] } },
{ "type": "Feature", "properties": { "name": "東中野", "kind": "駅", "capacity": 92396.0, "weight": 1.0, "demand_value": 92396.0, "source": "国土数値情報 S12 駅別乗降客数", "synthetic": false, "lon": 139.68507999953709, "lat": 35.706250005783211 }, "geometry": { "type": "Point", "coordinates": [ 139.685079999537095, 35.706250005783211 ] } },
{ "type": "Feature", "properties": { "name": "中野", "kind": "駅", "capacity": 406312.0, "weight": 1.0, "demand_value": 406312.0, "source": "国土数値情報 S12 駅別乗降客数", "synthetic": false, "lon": 139.6656049991764, "lat": 35.70574000675105 }, "geometry": { "type": "Point", "coordinates": [ 139.665604999176395, 35.70574000675105 ] } },
{ "type": "Feature", "properties": { "name": "早稲田", "kind": "駅", "capacity": 79978.0, "weight": 1.0, "demand_value": 79978.0, "source": "国土数値情報 S12 駅別乗降客数", "synthetic": false, "lon": 139.72219000140927, "lat": 35.705680005402037 }, "geometry": { "type": "Point", "coordinates": [ 139.722190001409274, 35.705680005402037 ] } },
{ "type": "Feature", "properties": { "name": "高円寺", "kind": "駅", "capacity": 95432.0, "weight": 1.0, "demand_value": 95432.0, "source": "国土数値情報 S12 駅別乗降客数", "synthetic": false, "lon": 139.64970004849025, "lat": 35.705324055501983 }, "geometry": { "type": "Point", "coordinates": [ 139.649700048490246, 35.705324055501983 ] } },
{ "type": "Feature", "properties": { "name": "阿佐ヶ谷", "kind": "駅", "capacity": 84048.0, "weight": 1.0, "demand_value": 84048.0, "source": "国土数値情報 S12 駅別乗降客数", "synthetic": false, "lon": 139.63585506615129, "lat": 35.704878294733803 }, "geometry": { "type": "Point", "coordinates": [ 139.635855066151294, 35.704878294733803 ] } },
{ "type": "Feature", "properties": { "name": "荻窪", "kind": "駅", "capacity": 250115.0, "weight": 1.0, "demand_value": 250115.0, "source": "国土数値情報 S12 駅別乗降客数", "synthetic": false, "lon": 139.62024499949172, "lat": 35.704430006645858 }, "geometry": { "type": "Point", "coordinates": [ 139.620244999491717, 35.704430006645858 ] } },
{ "type": "Feature", "properties": { "name": "神楽坂", "kind": "駅", "capacity": 40020.0, "weight": 1.0, "demand_value": 40020.0, "source": "国土数値情報 S12 駅別乗降客数", "synthetic": false, "lon": 139.73452000276365, "lat": 35.703865005406129 }, "geometry": { "type": "Point", "coordinates": [ 139.734520002763645, 35.703865005406129 ] } },
{ "type": "Feature", "properties": { "name": "西荻窪", "kind": "駅", "capacity": 85340.0, "weight": 1.0, "demand_value": 85340.0, "source": "国土数値情報 S12 駅別乗降客数", "synthetic": false, "lon": 139.59945029107095, "lat": 35.703781706583229 }, "geometry": { "type": "Point", "coordinates": [ 139.599450291070951, 35.703781706583229 ] } },
{ "type": "Feature", "properties": { "name": "吉祥寺", "kind": "駅", "capacity": 383705.0, "weight": 1.0, "demand_value": 383705.0, "source": "国土数値情報 S12 駅別乗降客数", "synthetic": false, "lon": 139.57980985190306, "lat": 35.703144481201413 }, "geometry": { "type": "Point", "coordinates": [ 139.579809851903065, 35.703144481201413 ] } },
{ "type": "Feature", "properties": { "name": "三鷹", "kind": "駅", "capacity": 173686.0, "weight": 1.0, "demand_value": 173686.0, "source": "国土数値情報 S12 駅別乗降客数", "synthetic": false, "lon": 139.56064012764813, "lat": 35.702690000007465 }, "geometry": { "type": "Point", "coordinates": [ 139.560640127648128, 35.702690000007465 ] } },
{ "type": "Feature", "properties": { "name": "飯田橋", "kind": "駅", "capacity": 154985.0, "weight": 1.0, "demand_value": 154985.0, "source": "国土数値情報 S12 駅別乗降客数", "synthetic": false, "lon": 139.7436549864473, "lat": 35.700136924926028 }, "geometry": { "type": "Point", "coordinates": [ 139.743654986447297, 35.700136924926028 ] } },
{ "type": "Feature", "properties": { "name": "新大久保", "kind": "駅", "capacity": 98492.0, "weight": 1.0, "demand_value": 98492.0, "source": "国土数値情報 S12 駅別乗降客数", "synthetic": false, "lon": 139.70025499934798, "lat": 35.700930000072077 }, "geometry": { "type": "Point", "coordinates": [ 139.700254999347976, 35.700930000072077 ] } },
{ "type": "Feature", "properties": { "name": "牛込神楽坂", "kind": "駅", "capacity": 13686.0, "weight": 1.0, "demand_value": 13686.0, "source": "国土数値情報 S12 駅別乗降客数", "synthetic": false, "lon": 139.7360399973071, "lat": 35.700915002216611 }, "geometry": { "type": "Point", "coordinates": [ 139.736039997307103, 35.700915002216611 ] } },
{ "type": "Feature", "properties": { "name": "大久保", "kind": "駅", "capacity": 51544.0, "weight": 1.0, "demand_value": 51544.0, "source": "国土数値情報 S12 駅別乗降客数", "synthetic": false, "lon": 139.6974450060425, "lat": 35.700635001400087 }, "geometry": { "type": "Point", "coordinates": [ 139.6974450060425, 35.700635001400087 ] } },
{ "type": "Feature", "properties": { "name": "東新宿", "kind": "駅", "capacity": 68375.0, "weight": 1.0, "demand_value": 68375.0, "source": "国土数値情報 S12 駅別乗降客数", "synthetic": false, "lon": 139.70784785242364, "lat": 35.699829015066356 }, "geometry": { "type": "Point", "coordinates": [ 139.70784785242364, 35.699829015066356 ] } },
{ "type": "Feature", "properties": { "name": "牛込柳町", "kind": "駅", "capacity": 19954.0, "weight": 1.0, "demand_value": 19954.0, "source": "国土数値情報 S12 駅別乗降客数", "synthetic": false, "lon": 139.72519000059239, "lat": 35.699460002659762 }, "geometry": { "type": "Point", "coordinates": [ 139.725190000592391, 35.699460002659762 ] } },
{ "type": "Feature", "properties": { "name": "南阿佐ヶ谷", "kind": "駅", "capacity": 27693.0, "weight": 1.0, "demand_value": 27693.0, "source": "国土数値情報 S12 駅別乗降客数", "synthetic": false, "lon": 139.63557500227677, "lat": 35.699455001850495 }, "geometry": { "type": "Point", "coordinates": [ 139.635575002276767, 35.699455001850495 ] } },
{ "type": "Feature", "properties": { "name": "若松河田", "kind": "駅", "capacity": 28849.0, "weight": 1.0, "demand_value": 28849.0, "source": "国土数値情報 S12 駅別乗降客数", "synthetic": false, "lon": 139.7181849977791, "lat": 35.699165002368218 }, "geometry": { "type": "Point", "coordinates": [ 139.718184997779105, 35.699165002368218 ] } },
{ "type": "Feature", "properties": { "name": "東高円寺", "kind": "駅", "capacity": 33021.0, "weight": 1.0, "demand_value": 33021.0, "source": "国土数値情報 S12 駅別乗降客数", "synthetic": false, "lon": 139.65829500082765, "lat": 35.697965002067612 }, "geometry": { "type": "Point", "coordinates": [ 139.65829500082765, 35.697965002067612 ] } },
{ "type": "Feature", "properties": { "name": "新高円寺", "kind": "駅", "capacity": 35288.0, "weight": 1.0, "demand_value": 35288.0, "source": "国土数値情報 S12 駅別乗降客数", "synthetic": false, "lon": 139.64850999980226, "lat": 35.69786000233595 }, "geometry": { "type": "Point", "coordinates": [ 139.648509999802258, 35.69786000233595 ] } },
{ "type": "Feature", "properties": { "name": "新中野", "kind": "駅", "capacity": 33550.0, "weight": 1.0, "demand_value": 33550.0, "source": "国土数値情報 S12 駅別乗降客数", "synthetic": false, "lon": 139.66950999974651, "lat": 35.697475002526524 }, "geometry": { "type": "Point", "coordinates": [ 139.669509999746509, 35.697475002526524 ] } },
{ "type": "Feature", "properties": { "name": "井の頭公園", "kind": "駅", "capacity": 6657.0, "weight": 1.0, "demand_value": 6657.0, "source": "国土数値情報 S12 駅別乗降客数", "synthetic": false, "lon": 139.58312000095529, "lat": 35.697295000383107 }, "geometry": { "type": "Point", "coordinates": [ 139.58312000095529, 35.697295000383107 ] } },
{ "type": "Feature", "properties": { "name": "中野坂上", "kind": "駅", "capacity": 97406.0, "weight": 1.0, "demand_value": 97406.0, "source": "国土数値情報 S12 駅別乗降客数", "synthetic": false, "lon": 139.68220500058857, "lat": 35.697085001676797 }, "geometry": { "type": "Point", "coordinates": [ 139.682205000588567, 35.697085001676797 ] } },
{ "type": "Feature", "properties": { "name": "西武新宿", "kind": "駅", "capacity": 147390.0, "weight": 1.0, "demand_value": 147390.0, "source": "国土数値情報 S12 駅別乗降客数", "synthetic": false, "lon": 139.70004976249146, "lat": 35.696170812128074 }, "geometry": { "type": "Point", "coordinates": [ 139.70004976249146, 35.696170812128074 ] } },
{ "type": "Feature", "properties": { "name": "西新宿", "kind": "駅", "capacity": 85481.0, "weight": 1.0, "demand_value": 85481.0, "source": "国土数値情報 S12 駅別乗降客数", "synthetic": false, "lon": 139.69256000187289, "lat": 35.694515001710165 }, "geometry": { "type": "Point", "coordinates": [ 139.692560001872891, 35.694515001710165 ] } },
{ "type": "Feature", "properties": { "name": "新宿西口", "kind": "駅", "capacity": 36754.0, "weight": 1.0, "demand_value": 36754.0, "source": "国土数値情報 S12 駅別乗降客数", "synthetic": false, "lon": 139.69916000124437, "lat": 35.693160000132387 }, "geometry": { "type": "Point", "coordinates": [ 139.699160001244366, 35.693160000132387 ] } },
{ "type": "Feature", "properties": { "name": "市ヶ谷", "kind": "駅", "capacity": 279416.0, "weight": 1.0, "demand_value": 279416.0, "source": "国土数値情報 S12 駅別乗降客数", "synthetic": false, "lon": 139.73635230069209, "lat": 35.692888212393171 }, "geometry": { "type": "Point", "coordinates": [ 139.73635230069209, 35.692888212393171 ] } },
{ "type": "Feature", "properties": { "name": "曙橋", "kind": "駅", "capacity": 36403.0, "weight": 1.0, "demand_value": 36403.0, "source": "国土数値情報 S12 駅別乗降客数", "synthetic": false, "lon": 139.72258000035978, "lat": 35.692330004071522 }, "geometry": { "type": "Point", "coordinates": [ 139.722580000359784, 35.692330004071522 ] } },
{ "type": "Feature", "properties": { "name": "三鷹台", "kind": "駅", "capacity": 19570.0, "weight": 1.0, "demand_value": 19570.0, "source": "国土数値情報 S12 駅別乗降客数", "synthetic": false, "lon": 139.58929500103241, "lat": 35.692050001285345 }, "geometry": { "type": "Point", "coordinates": [ 139.589295001032411, 35.692050001285345 ] } },
{ "type": "Feature", "properties": { "name": "中野新橋", "kind": "駅", "capacity": 20570.0, "weight": 1.0, "demand_value": 20570.0, "source": "国土数値情報 S12 駅別乗降客数", "synthetic": false, "lon": 139.67402299448847, "lat": 35.691675150201618 }, "geometry": { "type": "Point", "coordinates": [ 139.674022994488467, 35.691675150201618 ] } },
{ "type": "Feature", "properties": { "name": "中野富士見町", "kind": "駅", "capacity": 19307.0, "weight": 1.0, "demand_value": 19307.0, "source": "国土数値情報 S12 駅別乗降客数", "synthetic": false, "lon": 139.66815499933995, "lat": 35.690820002303894 }, "geometry": { "type": "Point", "coordinates": [ 139.668154999339947, 35.690820002303894 ] } },
{ "type": "Feature", "properties": { "name": "新宿三丁目", "kind": "駅", "capacity": 199171.0, "weight": 1.0, "demand_value": 199171.0, "source": "国土数値情報 S12 駅別乗降客数", "synthetic": false, "lon": 139.70421000262706, "lat": 35.691180001934001 }, "geometry": { "type": "Point", "coordinates": [ 139.704210002627065, 35.691180001934001 ] } },
{ "type": "Feature", "properties": { "name": "都庁前", "kind": "駅", "capacity": 49779.0, "weight": 1.0, "demand_value": 49779.0, "source": "国土数値情報 S12 駅別乗降客数", "synthetic": false, "lon": 139.69262499854912, "lat": 35.690590002825232 }, "geometry": { "type": "Point", "coordinates": [ 139.692624998549121, 35.690590002825232 ] } },
{ "type": "Feature", "properties": { "name": "西新宿五丁目", "kind": "駅", "capacity": 32776.0, "weight": 1.0, "demand_value": 32776.0, "source": "国土数値情報 S12 駅別乗降客数", "synthetic": false, "lon": 139.68466499743008, "lat": 35.689900001950171 }, "geometry": { "type": "Point", "coordinates": [ 139.684664997430076, 35.689900001950171 ] } },
{ "type": "Feature", "properties": { "name": "新宿", "kind": "駅", "capacity": 2713386.0, "weight": 1.0, "demand_value": 2713386.0, "source": "国土数値情報 S12 駅別乗降客数", "synthetic": false, "lon": 139.70061713508537, "lat": 35.690189893792677 }, "geometry": { "type": "Point", "coordinates": [ 139.700617135085366, 35.690189893792677 ] } },
{ "type": "Feature", "properties": { "name": "新宿御苑前", "kind": "駅", "capacity": 48832.0, "weight": 1.0, "demand_value": 48832.0, "source": "国土数値情報 S12 駅別乗降客数", "synthetic": false, "lon": 139.71091500214871, "lat": 35.688525003637999 }, "geometry": { "type": "Point", "coordinates": [ 139.71091500214871, 35.688525003637999 ] } },
{ "type": "Feature", "properties": { "name": "久我山", "kind": "駅", "capacity": 38168.0, "weight": 1.0, "demand_value": 38168.0, "source": "国土数値情報 S12 駅別乗降客数", "synthetic": false, "lon": 139.59932500144174, "lat": 35.688140000833535 }, "geometry": { "type": "Point", "coordinates": [ 139.599325001441741, 35.688140000833535 ] } },
{ "type": "Feature", "properties": { "name": "四谷三丁目", "kind": "駅", "capacity": 42890.0, "weight": 1.0, "demand_value": 42890.0, "source": "国土数値情報 S12 駅別乗降客数", "synthetic": false, "lon": 139.71932499874862, "lat": 35.687835004533888 }, "geometry": { "type": "Point", "coordinates": [ 139.719324998748618, 35.687835004533888 ] } },
{ "type": "Feature", "properties": { "name": "四ツ谷", "kind": "駅", "capacity": 295458.0, "weight": 1.0, "demand_value": 295458.0, "source": "国土数値情報 S12 駅別乗降客数", "synthetic": false, "lon": 139.73052978614206, "lat": 35.68565229150245 }, "geometry": { "type": "Point", "coordinates": [ 139.730529786142057, 35.68565229150245 ] } },
{ "type": "Feature", "properties": { "name": "半蔵門", "kind": "駅", "capacity": 73487.0, "weight": 1.0, "demand_value": 73487.0, "source": "国土数値情報 S12 駅別乗降客数", "synthetic": false, "lon": 139.74169499867725, "lat": 35.68538000012493 }, "geometry": { "type": "Point", "coordinates": [ 139.741694998677247, 35.68538000012493 ] } },
{ "type": "Feature", "properties": { "name": "富士見ヶ丘", "kind": "駅", "capacity": 13091.0, "weight": 1.0, "demand_value": 13091.0, "source": "国土数値情報 S12 駅別乗降客数", "synthetic": false, "lon": 139.6071923919468, "lat": 35.684810190859771 }, "geometry": { "type": "Point", "coordinates": [ 139.607192391946796, 35.684810190859771 ] } },
{ "type": "Feature", "properties": { "name": "麹町", "kind": "駅", "capacity": 56238.0, "weight": 1.0, "demand_value": 56238.0, "source": "国土数値情報 S12 駅別乗降客数", "synthetic": false, "lon": 139.73735000366975, "lat": 35.684785000599199 }, "geometry": { "type": "Point", "coordinates": [ 139.737350003669746, 35.684785000599199 ] } },
{ "type": "Feature", "properties": { "name": "代々木", "kind": "駅", "capacity": 136902.0, "weight": 1.0, "demand_value": 136902.0, "source": "国土数値情報 S12 駅別乗降客数", "synthetic": false, "lon": 139.70221000159299, "lat": 35.683795000179266 }, "geometry": { "type": "Point", "coordinates": [ 139.702210001592988, 35.683795000179266 ] } },
{ "type": "Feature", "properties": { "name": "南新宿", "kind": "駅", "capacity": 3926.0, "weight": 1.0, "demand_value": 3926.0, "source": "国土数値情報 S12 駅別乗降客数", "synthetic": false, "lon": 139.69864981854619, "lat": 35.683555145900122 }, "geometry": { "type": "Point", "coordinates": [ 139.698649818546187, 35.683555145900122 ] } },
{ "type": "Feature", "properties": { "name": "方南町", "kind": "駅", "capacity": 40171.0, "weight": 1.0, "demand_value": 40171.0, "source": "国土数値情報 S12 駅別乗降客数", "synthetic": false, "lon": 139.65793499856946, "lat": 35.683515002241542 }, "geometry": { "type": "Point", "coordinates": [ 139.657934998569459, 35.683515002241542 ] } },
{ "type": "Feature", "properties": { "name": "高井戸", "kind": "駅", "capacity": 37789.0, "weight": 1.0, "demand_value": 37789.0, "source": "国土数値情報 S12 駅別乗降客数", "synthetic": false, "lon": 139.61523000020975, "lat": 35.683260001397919 }, "geometry": { "type": "Point", "coordinates": [ 139.615230000209749, 35.683260001397919 ] } },
{ "type": "Feature", "properties": { "name": "浜田山", "kind": "駅", "capacity": 27565.0, "weight": 1.0, "demand_value": 27565.0, "source": "国土数値情報 S12 駅別乗降客数", "synthetic": false, "lon": 139.62757500143991, "lat": 35.681575001334039 }, "geometry": { "type": "Point", "coordinates": [ 139.627575001439908, 35.681575001334039 ] } },
{ "type": "Feature", "properties": { "name": "初台", "kind": "駅", "capacity": 59407.0, "weight": 1.0, "demand_value": 59407.0, "source": "国土数値情報 S12 駅別乗降客数", "synthetic": false, "lon": 139.68826999877714, "lat": 35.681420000512389 }, "geometry": { "type": "Point", "coordinates": [ 139.688269998777145, 35.681420000512389 ] } },
{ "type": "Feature", "properties": { "name": "千駄ヶ谷", "kind": "駅", "capacity": 34572.0, "weight": 1.0, "demand_value": 34572.0, "source": "国土数値情報 S12 駅別乗降客数", "synthetic": false, "lon": 139.71153022360753, "lat": 35.681196008537007 }, "geometry": { "type": "Point", "coordinates": [ 139.711530223607525, 35.681196008537007 ] } },
{ "type": "Feature", "properties": { "name": "信濃町", "kind": "駅", "capacity": 43682.0, "weight": 1.0, "demand_value": 43682.0, "source": "国土数値情報 S12 駅別乗降客数", "synthetic": false, "lon": 139.72109799565388, "lat": 35.679941985477043 }, "geometry": { "type": "Point", "coordinates": [ 139.721097995653878, 35.679941985477043 ] } },
{ "type": "Feature", "properties": { "name": "国立競技場", "kind": "駅", "capacity": 13711.0, "weight": 1.0, "demand_value": 13711.0, "source": "国土数値情報 S12 駅別乗降客数", "synthetic": false, "lon": 139.7148761796299, "lat": 35.679858381693357 }, "geometry": { "type": "Point", "coordinates": [ 139.714876179629897, 35.679858381693357 ] } },
{ "type": "Feature", "properties": { "name": "西永福", "kind": "駅", "capacity": 17596.0, "weight": 1.0, "demand_value": 17596.0, "source": "国土数値情報 S12 駅別乗降客数", "synthetic": false, "lon": 139.63515500136933, "lat": 35.678875001333246 }, "geometry": { "type": "Point", "coordinates": [ 139.635155001369327, 35.678875001333246 ] } },
{ "type": "Feature", "properties": { "name": "参宮橋", "kind": "駅", "capacity": 13182.0, "weight": 1.0, "demand_value": 13182.0, "source": "国土数値情報 S12 駅別乗降客数", "synthetic": false, "lon": 139.69358499825535, "lat": 35.678605000376216 }, "geometry": { "type": "Point", "coordinates": [ 139.693584998255346, 35.678605000376216 ] } },
{ "type": "Feature", "properties": { "name": "北参道", "kind": "駅", "capacity": 23768.0, "weight": 1.0, "demand_value": 23768.0, "source": "国土数値情報 S12 駅別乗降客数", "synthetic": false, "lon": 139.70547599788523, "lat": 35.67849965294149 }, "geometry": { "type": "Point", "coordinates": [ 139.70547599788523, 35.67849965294149 ] } },
{ "type": "Feature", "properties": { "name": "永田町", "kind": "駅", "capacity": 75272.0, "weight": 1.0, "demand_value": 75272.0, "source": "国土数値情報 S12 駅別乗降客数", "synthetic": false, "lon": 139.73932439090237, "lat": 35.678370692474402 }, "geometry": { "type": "Point", "coordinates": [ 139.739324390902368, 35.678370692474402 ] } },
{ "type": "Feature", "properties": { "name": "赤坂見附", "kind": "駅", "capacity": 89214.0, "weight": 1.0, "demand_value": 89214.0, "source": "国土数値情報 S12 駅別乗降客数", "synthetic": false, "lon": 139.73732134570241, "lat": 35.676842803489599 }, "geometry": { "type": "Point", "coordinates": [ 139.737321345702412, 35.676842803489599 ] } },
{ "type": "Feature", "properties": { "name": "幡ヶ谷", "kind": "駅", "capacity": 29965.0, "weight": 1.0, "demand_value": 29965.0, "source": "国土数値情報 S12 駅別乗降客数", "synthetic": false, "lon": 139.67771999914089, "lat": 35.676760000996531 }, "geometry": { "type": "Point", "coordinates": [ 139.677719999140891, 35.676760000996531 ] } },
{ "type": "Feature", "properties": { "name": "永福町", "kind": "駅", "capacity": 30039.0, "weight": 1.0, "demand_value": 30039.0, "source": "国土数値情報 S12 駅別乗降客数", "synthetic": false, "lon": 139.64267000202994, "lat": 35.676225001712631 }, "geometry": { "type": "Point", "coordinates": [ 139.642670002029945, 35.676225001712631 ] } },
{ "type": "Feature", "properties": { "name": "国会議事堂前", "kind": "駅", "capacity": 40907.0, "weight": 1.0, "demand_value": 40907.0, "source": "国土数値情報 S12 駅別乗降客数", "synthetic": false, "lon": 139.74319154866149, "lat": 35.673557490902184 }, "geometry": { "type": "Point", "coordinates": [ 139.743191548661486, 35.673557490902184 ] } },
{ "type": "Feature", "properties": { "name": "笹塚", "kind": "駅", "capacity": 73199.0, "weight": 1.0, "demand_value": 73199.0, "source": "国土数値情報 S12 駅別乗降客数", "synthetic": false, "lon": 139.6671749980305, "lat": 35.673660002121636 }, "geometry": { "type": "Point", "coordinates": [ 139.667174998030504, 35.673660002121636 ] } },
{ "type": "Feature", "properties": { "name": "溜池山王", "kind": "駅", "capacity": 82631.0, "weight": 1.0, "demand_value": 82631.0, "source": "国土数値情報 S12 駅別乗降客数", "synthetic": false, "lon": 139.74194009596502, "lat": 35.671509940834554 }, "geometry": { "type": "Point", "coordinates": [ 139.74194009596502, 35.671509940834554 ] } },
{ "type": "Feature", "properties": { "name": "青山一丁目", "kind": "駅", "capacity": 124550.0, "weight": 1.0, "demand_value": 124550.0, "source": "国土数値情報 S12 駅別乗降客数", "synthetic": false, "lon": 139.72414570972737, "lat": 35.672788570367281 }, "geometry": { "type": "Point", "coordinates": [ 139.724145709727367, 35.672788570367281 ] } },
{ "type": "Feature", "properties": { "name": "赤坂", "kind": "駅", "capacity": 77718.0, "weight": 1.0, "demand_value": 77718.0, "source": "国土数値情報 S12 駅別乗降客数", "synthetic": false, "lon": 139.73638706265393, "lat": 35.672117063312378 }, "geometry": { "type": "Point", "coordinates": [ 139.736387062653932, 35.672117063312378 ] } },
{ "type": "Feature", "properties": { "name": "原宿", "kind": "駅", "capacity": 134814.0, "weight": 1.0, "demand_value": 134814.0, "source": "国土数値情報 S12 駅別乗降客数", "synthetic": false, "lon": 139.70269174393542, "lat": 35.671316384399766 }, "geometry": { "type": "Point", "coordinates": [ 139.702691743935418, 35.671316384399766 ] } },
{ "type": "Feature", "properties": { "name": "代田橋", "kind": "駅", "capacity": 17148.0, "weight": 1.0, "demand_value": 17148.0, "source": "国土数値情報 S12 駅別乗降客数", "synthetic": false, "lon": 139.65939499807408, "lat": 35.671075001780679 }, "geometry": { "type": "Point", "coordinates": [ 139.659394998074077, 35.671075001780679 ] } },
{ "type": "Feature", "properties": { "name": "芦花公園", "kind": "駅", "capacity": 14016.0, "weight": 1.0, "demand_value": 14016.0, "source": "国土数値情報 S12 駅別乗降客数", "synthetic": false, "lon": 139.60824765684072, "lat": 35.670534609552099 }, "geometry": { "type": "Point", "coordinates": [ 139.608247656840717, 35.670534609552099 ] } },
{ "type": "Feature", "properties": { "name": "外苑前", "kind": "駅", "capacity": 74637.0, "weight": 1.0, "demand_value": 74637.0, "source": "国土数値情報 S12 駅別乗降客数", "synthetic": false, "lon": 139.71782499845506, "lat": 35.670375001373841 }, "geometry": { "type": "Point", "coordinates": [ 139.717824998455058, 35.670375001373841 ] } },
{ "type": "Feature", "properties": { "name": "八幡山", "kind": "駅", "capacity": 37716.0, "weight": 1.0, "demand_value": 37716.0, "source": "国土数値情報 S12 駅別乗降客数", "synthetic": false, "lon": 139.6144800006077, "lat": 35.670075001399653 }, "geometry": { "type": "Point", "coordinates": [ 139.614480000607699, 35.670075001399653 ] } },
{ "type": "Feature", "properties": { "name": "代々木八幡", "kind": "駅", "capacity": 18567.0, "weight": 1.0, "demand_value": 18567.0, "source": "国土数値情報 S12 駅別乗降客数", "synthetic": false, "lon": 139.6890790849238, "lat": 35.669699524162105 }, "geometry": { "type": "Point", "coordinates": [ 139.689079084923804, 35.669699524162105 ] } },
{ "type": "Feature", "properties": { "name": "明治神宮前", "kind": "駅", "capacity": 105665.0, "weight": 1.0, "demand_value": 105665.0, "source": "国土数値情報 S12 駅別乗降客数", "synthetic": false, "lon": 139.70394642716263, "lat": 35.669125288852499 }, "geometry": { "type": "Point", "coordinates": [ 139.703946427162634, 35.669125288852499 ] } },
{ "type": "Feature", "properties": { "name": "代々木公園", "kind": "駅", "capacity": 28862.0, "weight": 1.0, "demand_value": 28862.0, "source": "国土数値情報 S12 駅別乗降客数", "synthetic": false, "lon": 139.68979140369922, "lat": 35.66910665380491 }, "geometry": { "type": "Point", "coordinates": [ 139.689791403699218, 35.66910665380491 ] } },
{ "type": "Feature", "properties": { "name": "明大前", "kind": "駅", "capacity": 91172.0, "weight": 1.0, "demand_value": 91172.0, "source": "国土数値情報 S12 駅別乗降客数", "synthetic": false, "lon": 139.65055557468386, "lat": 35.668358524955067 }, "geometry": { "type": "Point", "coordinates": [ 139.650555574683864, 35.668358524955067 ] } },
{ "type": "Feature", "properties": { "name": "代々木上原", "kind": "駅", "capacity": 269075.0, "weight": 1.0, "demand_value": 269075.0, "source": "国土数値情報 S12 駅別乗降客数", "synthetic": false, "lon": 139.67988191777062, "lat": 35.669019251997547 }, "geometry": { "type": "Point", "coordinates": [ 139.679881917770615, 35.669019251997547 ] } },
{ "type": "Feature", "properties": { "name": "上北沢", "kind": "駅", "capacity": 14678.0, "weight": 1.0, "demand_value": 14678.0, "source": "国土数値情報 S12 駅別乗降客数", "synthetic": false, "lon": 139.62341500121121, "lat": 35.668845002564225 }, "geometry": { "type": "Point", "coordinates": [ 139.623415001211214, 35.668845002564225 ] } },
{ "type": "Feature", "properties": { "name": "千歳烏山", "kind": "駅", "capacity": 79689.0, "weight": 1.0, "demand_value": 79689.0, "source": "国土数値情報 S12 駅別乗降客数", "synthetic": false, "lon": 139.60037499635729, "lat": 35.667835003321187 }, "geometry": { "type": "Point", "coordinates": [ 139.600374996357289, 35.667835003321187 ] } },
{ "type": "Feature", "properties": { "name": "桜上水", "kind": "駅", "capacity": 36224.0, "weight": 1.0, "demand_value": 36224.0, "source": "国土数値情報 S12 駅別乗降客数", "synthetic": false, "lon": 139.63146500135591, "lat": 35.667640002970707 }, "geometry": { "type": "Point", "coordinates": [ 139.631465001355906, 35.667640002970707 ] } },
{ "type": "Feature", "properties": { "name": "乃木坂", "kind": "駅", "capacity": 39194.0, "weight": 1.0, "demand_value": 39194.0, "source": "国土数値情報 S12 駅別乗降客数", "synthetic": false, "lon": 139.72624098975123, "lat": 35.666589242501161 }, "geometry": { "type": "Point", "coordinates": [ 139.726240989751233, 35.666589242501161 ] } },
{ "type": "Feature", "properties": { "name": "下高井戸", "kind": "駅", "capacity": 55782.0, "weight": 1.0, "demand_value": 55782.0, "source": "国土数値情報 S12 駅別乗降客数", "synthetic": false, "lon": 139.64202723235323, "lat": 35.666080307623133 }, "geometry": { "type": "Point", "coordinates": [ 139.642027232353229, 35.666080307623133 ] } },
{ "type": "Feature", "properties": { "name": "東北沢", "kind": "駅", "capacity": 8030.0, "weight": 1.0, "demand_value": 8030.0, "source": "国土数値情報 S12 駅別乗降客数", "synthetic": false, "lon": 139.6730399977545, "lat": 35.665440001042988 }, "geometry": { "type": "Point", "coordinates": [ 139.673039997754501, 35.665440001042988 ] } },
{ "type": "Feature", "properties": { "name": "表参道", "kind": "駅", "capacity": 176901.0, "weight": 1.0, "demand_value": 176901.0, "source": "国土数値情報 S12 駅別乗降客数", "synthetic": false, "lon": 139.71247588028857, "lat": 35.665041432781408 }, "geometry": { "type": "Point", "coordinates": [ 139.712475880288565, 35.665041432781408 ] } },
{ "type": "Feature", "properties": { "name": "六本木一丁目", "kind": "駅", "capacity": 74305.0, "weight": 1.0, "demand_value": 74305.0, "source": "国土数値情報 S12 駅別乗降客数", "synthetic": false, "lon": 139.73889999893728, "lat": 35.665075000100693 }, "geometry": { "type": "Point", "coordinates": [ 139.738899998937285, 35.665075000100693 ] } },
{ "type": "Feature", "properties": { "name": "六本木", "kind": "駅", "capacity": 183792.0, "weight": 1.0, "demand_value": 183792.0, "source": "国土数値情報 S12 駅別乗降客数", "synthetic": false, "lon": 139.73115499491675, "lat": 35.662800003409046 }, "geometry": { "type": "Point", "coordinates": [ 139.73115499491675, 35.662800003409046 ] } },
{ "type": "Feature", "properties": { "name": "東松原", "kind": "駅", "capacity": 15426.0, "weight": 1.0, "demand_value": 15426.0, "source": "国土数値情報 S12 駅別乗降客数", "synthetic": false, "lon": 139.65568326923918, "lat": 35.662634455188446 }, "geometry": { "type": "Point", "coordinates": [ 139.655683269239177, 35.662634455188446 ] } },
{ "type": "Feature", "properties": { "name": "神谷町", "kind": "駅", "capacity": 107982.0, "weight": 1.0, "demand_value": 107982.0, "source": "国土数値情報 S12 駅別乗降客数", "synthetic": false, "lon": 139.74472499623275, "lat": 35.662625001209555 }, "geometry": { "type": "Point", "coordinates": [ 139.744724996232748, 35.662625001209555 ] } },
{ "type": "Feature", "properties": { "name": "新代田", "kind": "駅", "capacity": 8765.0, "weight": 1.0, "demand_value": 8765.0, "source": "国土数値情報 S12 駅別乗降客数", "synthetic": false, "lon": 139.66139000052578, "lat": 35.662495001040078 }, "geometry": { "type": "Point", "coordinates": [ 139.661390000525785, 35.662495001040078 ] } },
{ "type": "Feature", "properties": { "name": "仙川", "kind": "駅", "capacity": 70712.0, "weight": 1.0, "demand_value": 70712.0, "source": "国土数値情報 S12 駅別乗降客数", "synthetic": false, "lon": 139.5852390178209, "lat": 35.662376875142321 }, "geometry": { "type": "Point", "coordinates": [ 139.585239017820896, 35.662376875142321 ] } },
{ "type": "Feature", "properties": { "name": "下北沢", "kind": "駅", "capacity": 229107.0, "weight": 1.0, "demand_value": 229107.0, "source": "国土数値情報 S12 駅別乗降客数", "synthetic": false, "lon": 139.66734499583259, "lat": 35.661445001900908 }, "geometry": { "type": "Point", "coordinates": [ 139.667344995832593, 35.661445001900908 ] } },
{ "type": "Feature", "properties": { "name": "池ノ上", "kind": "駅", "capacity": 9179.0, "weight": 1.0, "demand_value": 9179.0, "source": "国土数値情報 S12 駅別乗降客数", "synthetic": false, "lon": 139.6734550005406, "lat": 35.660370000978709 }, "geometry": { "type": "Point", "coordinates": [ 139.673455000540599, 35.660370000978709 ] } },
{ "type": "Feature", "properties": { "name": "松原", "kind": "駅", "capacity": 3113.0, "weight": 1.0, "demand_value": 3113.0, "source": "国土数値情報 S12 駅別乗降客数", "synthetic": false, "lon": 139.64189500002618, "lat": 35.660200000010938 }, "geometry": { "type": "Point", "coordinates": [ 139.641895000026182, 35.660200000010938 ] } },
{ "type": "Feature", "properties": { "name": "渋谷", "kind": "駅", "capacity": 2897703.0, "weight": 1.0, "demand_value": 2897703.0, "source": "国土数値情報 S12 駅別乗降客数", "synthetic": false, "lon": 139.70252192693255, "lat": 35.659086226699308 }, "geometry": { "type": "Point", "coordinates": [ 139.702521926932548, 35.659086226699308 ] } },
{ "type": "Feature", "properties": { "name": "駒場東大前", "kind": "駅", "capacity": 35206.0, "weight": 1.0, "demand_value": 35206.0, "source": "国土数値情報 S12 駅別乗降客数", "synthetic": false, "lon": 139.68407500213218, "lat": 35.658670003408631 }, "geometry": { "type": "Point", "coordinates": [ 139.684075002132175, 35.658670003408631 ] } },
{ "type": "Feature", "properties": { "name": "世田谷代田", "kind": "駅", "capacity": 9582.0, "weight": 1.0, "demand_value": 9582.0, "source": "国土数値情報 S12 駅別乗降客数", "synthetic": false, "lon": 139.66159999773745, "lat": 35.658355002927095 }, "geometry": { "type": "Point", "coordinates": [ 139.661599997737454, 35.658355002927095 ] } },
{ "type": "Feature", "properties": { "name": "つつじヶ丘", "kind": "駅", "capacity": 40628.0, "weight": 1.0, "demand_value": 40628.0, "source": "国土数値情報 S12 駅別乗降客数", "synthetic": false, "lon": 139.57518999596007, "lat": 35.658000002994854 }, "geometry": { "type": "Point", "coordinates": [ 139.575189995960073, 35.658000002994854 ] } },
{ "type": "Feature", "properties": { "name": "神泉", "kind": "駅", "capacity": 10963.0, "weight": 1.0, "demand_value": 10963.0, "source": "国土数値情報 S12 駅別乗降客数", "synthetic": false, "lon": 139.69313085052565, "lat": 35.657173565015427 }, "geometry": { "type": "Point", "coordinates": [ 139.693130850525648, 35.657173565015427 ] } },
{ "type": "Feature", "properties": { "name": "麻布十番", "kind": "駅", "capacity": 70951.0, "weight": 1.0, "demand_value": 70951.0, "source": "国土数値情報 S12 駅別乗降客数", "synthetic": false, "lon": 139.73704499905222, "lat": 35.654810000088602 }, "geometry": { "type": "Point", "coordinates": [ 139.737044999052216, 35.654810000088602 ] } },
{ "type": "Feature", "properties": { "name": "梅ヶ丘", "kind": "駅", "capacity": 32280.0, "weight": 1.0, "demand_value": 32280.0, "source": "国土数値情報 S12 駅別乗降客数", "synthetic": false, "lon": 139.65354999782343, "lat": 35.656020002588775 }, "geometry": { "type": "Point", "coordinates": [ 139.653549997823433, 35.656020002588775 ] } },
{ "type": "Feature", "properties": { "name": "赤羽橋", "kind": "駅", "capacity": 37465.0, "weight": 1.0, "demand_value": 37465.0, "source": "国土数値情報 S12 駅別乗降客数", "synthetic": false, "lon": 139.74419500076752, "lat": 35.654970002495226 }, "geometry": { "type": "Point", "coordinates": [ 139.744195000767519, 35.654970002495226 ] } },
{ "type": "Feature", "properties": { "name": "山下", "kind": "駅", "capacity": 7784.0, "weight": 1.0, "demand_value": 7784.0, "source": "国土数値情報 S12 駅別乗降客数", "synthetic": false, "lon": 139.64646154881183, "lat": 35.654192121442613 }, "geometry": { "type": "Point", "coordinates": [ 139.646461548811828, 35.654192121442613 ] } },
{ "type": "Feature", "properties": { "name": "柴崎", "kind": "駅", "capacity": 16316.0, "weight": 1.0, "demand_value": 16316.0, "source": "国土数値情報 S12 駅別乗降客数", "synthetic": false, "lon": 139.56662499687516, "lat": 35.653990002238956 }, "geometry": { "type": "Point", "coordinates": [ 139.566624996875163, 35.653990002238956 ] } },
{ "type": "Feature", "properties": { "name": "豪徳寺", "kind": "駅", "capacity": 27512.0, "weight": 1.0, "demand_value": 27512.0, "source": "国土数値情報 S12 駅別乗降客数", "synthetic": false, "lon": 139.64711367169045, "lat": 35.653717890672382 }, "geometry": { "type": "Point", "coordinates": [ 139.647113671690448, 35.653717890672382 ] } },
{ "type": "Feature", "properties": { "name": "広尾", "kind": "駅", "capacity": 58660.0, "weight": 1.0, "demand_value": 58660.0, "source": "国土数値情報 S12 駅別乗降客数", "synthetic": false, "lon": 139.7222085735373, "lat": 35.651499972932349 }, "geometry": { "type": "Point", "coordinates": [ 139.722208573537301, 35.651499972932349 ] } },
{ "type": "Feature", "properties": { "name": "経堂", "kind": "駅", "capacity": 82232.0, "weight": 1.0, "demand_value": 82232.0, "source": "国土数値情報 S12 駅別乗降客数", "synthetic": false, "lon": 139.63667488828301, "lat": 35.651190355585605 }, "geometry": { "type": "Point", "coordinates": [ 139.636674888283011, 35.651190355585605 ] } },
{ "type": "Feature", "properties": { "name": "池尻大橋", "kind": "駅", "capacity": 63191.0, "weight": 1.0, "demand_value": 63191.0, "source": "国土数値情報 S12 駅別乗降客数", "synthetic": false, "lon": 139.68475728886165, "lat": 35.650738346037024 }, "geometry": { "type": "Point", "coordinates": [ 139.684757288861647, 35.650738346037024 ] } },
{ "type": "Feature", "properties": { "name": "代官山", "kind": "駅", "capacity": 28772.0, "weight": 1.0, "demand_value": 28772.0, "source": "国土数値情報 S12 駅別乗降客数", "synthetic": false, "lon": 139.70348999917684, "lat": 35.648250000453672 }, "geometry": { "type": "Point", "coordinates": [ 139.703489999176838, 35.648250000453672 ] } },
{ "type": "Feature", "properties": { "name": "千歳船橋", "kind": "駅", "capacity": 55873.0, "weight": 1.0, "demand_value": 55873.0, "source": "国土数値情報 S12 駅別乗降客数", "synthetic": false, "lon": 139.62452999764542, "lat": 35.647675002653486 }, "geometry": { "type": "Point", "coordinates": [ 139.624529997645425, 35.647675002653486 ] } },
{ "type": "Feature", "properties": { "name": "宮の坂", "kind": "駅", "capacity": 4002.0, "weight": 1.0, "demand_value": 4002.0, "source": "国土数値情報 S12 駅別乗降客数", "synthetic": false, "lon": 139.64491999950997, "lat": 35.647550000059503 }, "geometry": { "type": "Point", "coordinates": [ 139.644919999509966, 35.647550000059503 ] } },
{ "type": "Feature", "properties": { "name": "恵比寿", "kind": "駅", "capacity": 356771.0, "weight": 1.0, "demand_value": 356771.0, "source": "国土数値情報 S12 駅別乗降客数", "synthetic": false, "lon": 139.71012500388699, "lat": 35.646680000769486 }, "geometry": { "type": "Point", "coordinates": [ 139.710125003886986, 35.646680000769486 ] } },
{ "type": "Feature", "properties": { "name": "若林", "kind": "駅", "capacity": 7606.0, "weight": 1.0, "demand_value": 7606.0, "source": "国土数値情報 S12 駅別乗降客数", "synthetic": false, "lon": 139.65990999963302, "lat": 35.645925000630839 }, "geometry": { "type": "Point", "coordinates": [ 139.659909999633015, 35.645925000630839 ] } },
{ "type": "Feature", "properties": { "name": "西太子堂", "kind": "駅", "capacity": 734.0, "weight": 1.0, "demand_value": 734.0, "source": "国土数値情報 S12 駅別乗降客数", "synthetic": false, "lon": 139.66635000064363, "lat": 35.644520000571674 }, "geometry": { "type": "Point", "coordinates": [ 139.666350000643632, 35.644520000571674 ] } },
{ "type": "Feature", "properties": { "name": "中目黒", "kind": "駅", "capacity": 381738.0, "weight": 1.0, "demand_value": 381738.0, "source": "国土数値情報 S12 駅別乗降客数", "synthetic": false, "lon": 139.69882706196771, "lat": 35.64411123751654 }, "geometry": { "type": "Point", "coordinates": [ 139.698827061967705, 35.64411123751654 ] } },
{ "type": "Feature", "properties": { "name": "三軒茶屋", "kind": "駅", "capacity": 167214.0, "weight": 1.0, "demand_value": 167214.0, "source": "国土数値情報 S12 駅別乗降客数", "synthetic": false, "lon": 139.6711234517951, "lat": 35.643398604389532 }, "geometry": { "type": "Point", "coordinates": [ 139.671123451795097, 35.643398604389532 ] } },
{ "type": "Feature", "properties": { "name": "松陰神社前", "kind": "駅", "capacity": 9531.0, "weight": 1.0, "demand_value": 9531.0, "source": "国土数値情報 S12 駅別乗降客数", "synthetic": false, "lon": 139.65498999970623, "lat": 35.643885000537487 }, "geometry": { "type": "Point", "coordinates": [ 139.654989999706231, 35.643885000537487 ] } },
{ "type": "Feature", "properties": { "name": "上町", "kind": "駅", "capacity": 8814.0, "weight": 1.0, "demand_value": 8814.0, "source": "国土数値情報 S12 駅別乗降客数", "synthetic": false, "lon": 139.64635578389394, "lat": 35.643574216174848 }, "geometry": { "type": "Point", "coordinates": [ 139.646355783893938, 35.643574216174848 ] } },
{ "type": "Feature", "properties": { "name": "世田谷", "kind": "駅", "capacity": 7592.0, "weight": 1.0, "demand_value": 7592.0, "source": "国土数値情報 S12 駅別乗降客数", "synthetic": false, "lon": 139.65083999981363, "lat": 35.643495000731811 }, "geometry": { "type": "Point", "coordinates": [ 139.650839999813627, 35.643495000731811 ] } },
{ "type": "Feature", "properties": { "name": "祖師ヶ谷大蔵", "kind": "駅", "capacity": 47616.0, "weight": 1.0, "demand_value": 47616.0, "source": "国土数値情報 S12 駅別乗降客数", "synthetic": false, "lon": 139.6097949974064, "lat": 35.643265002959623 }, "geometry": { "type": "Point", "coordinates": [ 139.609794997406397, 35.643265002959623 ] } },
{ "type": "Feature", "properties": { "name": "白金高輪", "kind": "駅", "capacity": 36926.0, "weight": 1.0, "demand_value": 36926.0, "source": "国土数値情報 S12 駅別乗降客数", "synthetic": false, "lon": 139.73428499644825, "lat": 35.643145000716508 }, "geometry": { "type": "Point", "coordinates": [ 139.734284996448253, 35.643145000716508 ] } },
{ "type": "Feature", "properties": { "name": "成城学園前", "kind": "駅", "capacity": 80513.0, "weight": 1.0, "demand_value": 80513.0, "source": "国土数値情報 S12 駅別乗降客数", "synthetic": false, "lon": 139.59907999543915, "lat": 35.640135005198488 }, "geometry": { "type": "Point", "coordinates": [ 139.599079995439155, 35.640135005198488 ] } },
{ "type": "Feature", "properties": { "name": "泉岳寺", "kind": "駅", "capacity": 33601.0, "weight": 1.0, "demand_value": 33601.0, "source": "国土数値情報 S12 駅別乗降客数", "synthetic": false, "lon": 139.73972999708394, "lat": 35.638130000541373 }, "geometry": { "type": "Point", "coordinates": [ 139.739729997083941, 35.638130000541373 ] } },
{ "type": "Feature", "properties": { "name": "白金台", "kind": "駅", "capacity": 16791.0, "weight": 1.0, "demand_value": 16791.0, "source": "国土数値情報 S12 駅別乗降客数", "synthetic": false, "lon": 139.72585999607657, "lat": 35.637770003003496 }, "geometry": { "type": "Point", "coordinates": [ 139.725859996076565, 35.637770003003496 ] } },
{ "type": "Feature", "properties": { "name": "祐天寺", "kind": "駅", "capacity": 29907.0, "weight": 1.0, "demand_value": 29907.0, "source": "国土数値情報 S12 駅別乗降客数", "synthetic": false, "lon": 139.69074999756131, "lat": 35.637170000678438 }, "geometry": { "type": "Point", "coordinates": [ 139.690749997561312, 35.637170000678438 ] } },
{ "type": "Feature", "properties": { "name": "喜多見", "kind": "駅", "capacity": 30793.0, "weight": 1.0, "demand_value": 30793.0, "source": "国土数値情報 S12 駅別乗降客数", "synthetic": false, "lon": 139.58677733813221, "lat": 35.636501009485919 }, "geometry": { "type": "Point", "coordinates": [ 139.586777338132208, 35.636501009485919 ] } },
{ "type": "Feature", "properties": { "name": "高輪ゲートウェイ", "kind": "駅", "capacity": 28418.0, "weight": 1.0, "demand_value": 28418.0, "source": "国土数値情報 S12 駅別乗降客数", "synthetic": false, "lon": 139.74064445019522, "lat": 35.635378720756819 }, "geometry": { "type": "Point", "coordinates": [ 139.740644450195219, 35.635378720756819 ] } },
{ "type": "Feature", "properties": { "name": "駒沢大学", "kind": "駅", "capacity": 74266.0, "weight": 1.0, "demand_value": 74266.0, "source": "国土数値情報 S12 駅別乗降客数", "synthetic": false, "lon": 139.66096499523206, "lat": 35.633035002695117 }, "geometry": { "type": "Point", "coordinates": [ 139.660964995232064, 35.633035002695117 ] } },
{ "type": "Feature", "properties": { "name": "目黒", "kind": "駅", "capacity": 565824.0, "weight": 1.0, "demand_value": 565824.0, "source": "国土数値情報 S12 駅別乗降客数", "synthetic": false, "lon": 139.71566000214571, "lat": 35.632485000285669 }, "geometry": { "type": "Point", "coordinates": [ 139.715660002145711, 35.632485000285669 ] } },
{ "type": "Feature", "properties": { "name": "狛江", "kind": "駅", "capacity": 44674.0, "weight": 1.0, "demand_value": 44674.0, "source": "国土数値情報 S12 駅別乗降客数", "synthetic": false, "lon": 139.57735565955281, "lat": 35.632243769738146 }, "geometry": { "type": "Point", "coordinates": [ 139.577355659552808, 35.632243769738146 ] } },
{ "type": "Feature", "properties": { "name": "桜新町", "kind": "駅", "capacity": 68296.0, "weight": 1.0, "demand_value": 68296.0, "source": "国土数値情報 S12 駅別乗降客数", "synthetic": false, "lon": 139.64546557869448, "lat": 35.631728609267199 }, "geometry": { "type": "Point", "coordinates": [ 139.645465578694484, 35.631728609267199 ] } },
{ "type": "Feature", "properties": { "name": "高輪台", "kind": "駅", "capacity": 13969.0, "weight": 1.0, "demand_value": 13969.0, "source": "国土数値情報 S12 駅別乗降客数", "synthetic": false, "lon": 139.73037139699551, "lat": 35.631674157132238 }, "geometry": { "type": "Point", "coordinates": [ 139.730371396995508, 35.631674157132238 ] } },
{ "type": "Feature", "properties": { "name": "学芸大学", "kind": "駅", "capacity": 72696.0, "weight": 1.0, "demand_value": 72696.0, "source": "国土数値情報 S12 駅別乗降客数", "synthetic": false, "lon": 139.68523999719562, "lat": 35.628770000592361 }, "geometry": { "type": "Point", "coordinates": [ 139.685239997195623, 35.628770000592361 ] } },
{ "type": "Feature", "properties": { "name": "品川", "kind": "駅", "capacity": 892969.0, "weight": 1.0, "demand_value": 892969.0, "source": "国土数値情報 S12 駅別乗降客数", "synthetic": false, "lon": 139.73853500136116, "lat": 35.628135000146649 }, "geometry": { "type": "Point", "coordinates": [ 139.738535001361157, 35.628135000146649 ] } },
{ "type": "Feature", "properties": { "name": "和泉多摩川", "kind": "駅", "capacity": 14474.0, "weight": 1.0, "demand_value": 14474.0, "source": "国土数値情報 S12 駅別乗降客数", "synthetic": false, "lon": 139.57371999687052, "lat": 35.627415000715857 }, "geometry": { "type": "Point", "coordinates": [ 139.573719996870523, 35.627415000715857 ] } },
{ "type": "Feature", "properties": { "name": "用賀", "kind": "駅", "capacity": 65061.0, "weight": 1.0, "demand_value": 65061.0, "source": "国土数値情報 S12 駅別乗降客数", "synthetic": false, "lon": 139.63413869902107, "lat": 35.626655470343159 }, "geometry": { "type": "Point", "coordinates": [ 139.634138699021065, 35.626655470343159 ] } },
{ "type": "Feature", "properties": { "name": "五反田", "kind": "駅", "capacity": 375542.0, "weight": 1.0, "demand_value": 375542.0, "source": "国土数値情報 S12 駅別乗降客数", "synthetic": false, "lon": 139.72354108082283, "lat": 35.626296528855526 }, "geometry": { "type": "Point", "coordinates": [ 139.723541080822827, 35.626296528855526 ] } },
{ "type": "Feature", "properties": { "name": "不動前", "kind": "駅", "capacity": 29015.0, "weight": 1.0, "demand_value": 29015.0, "source": "国土数値情報 S12 駅別乗降客数", "synthetic": false, "lon": 139.71320563969377, "lat": 35.625454243836714 }, "geometry": { "type": "Point", "coordinates": [ 139.713205639693768, 35.625454243836714 ] } },
{ "type": "Feature", "properties": { "name": "北品川", "kind": "駅", "capacity": 8977.0, "weight": 1.0, "demand_value": 8977.0, "source": "国土数値情報 S12 駅別乗降客数", "synthetic": false, "lon": 139.73928378213998, "lat": 35.622443525112324 }, "geometry": { "type": "Point", "coordinates": [ 139.739283782139978, 35.622443525112324 ] } },
{ "type": "Feature", "properties": { "name": "大崎広小路", "kind": "駅", "capacity": 7648.0, "weight": 1.0, "demand_value": 7648.0, "source": "国土数値情報 S12 駅別乗降客数", "synthetic": false, "lon": 139.72235499895362, "lat": 35.622305000366019 }, "geometry": { "type": "Point", "coordinates": [ 139.72235499895362, 35.622305000366019 ] } },
{ "type": "Feature", "properties": { "name": "登戸", "kind": "駅", "capacity": 316047.0, "weight": 1.0, "demand_value": 316047.0, "source": "国土数値情報 S12 駅別乗降客数", "synthetic": false, "lon": 139.5692696760062, "lat": 35.620712701643548 }, "geometry": { "type": "Point", "coordinates": [ 139.569269676006201, 35.620712701643548 ] } },
{ "type": "Feature", "properties": { "name": "武蔵小山", "kind": "駅", "capacity": 54004.0, "weight": 1.0, "demand_value": 54004.0, "source": "国土数値情報 S12 駅別乗降客数", "synthetic": false, "lon": 139.70446999787532, "lat": 35.620510001258914 }, "geometry": { "type": "Point", "coordinates": [ 139.704469997875321, 35.620510001258914 ] } },
{ "type": "Feature", "properties": { "name": "大崎", "kind": "駅", "capacity": 290388.0, "weight": 1.0, "demand_value": 290388.0, "source": "国土数値情報 S12 駅別乗降客数", "synthetic": false, "lon": 139.72824500652834, "lat": 35.61994500174108 }, "geometry": { "type": "Point", "coordinates": [ 139.72824500652834, 35.61994500174108 ] } },
{ "type": "Feature", "properties": { "name": "都立大学", "kind": "駅", "capacity": 46393.0, "weight": 1.0, "demand_value": 46393.0, "source": "国土数値情報 S12 駅別乗降客数", "synthetic": false, "lon": 139.67643999695522, "lat": 35.617850000969987 }, "geometry": { "type": "Point", "coordinates": [ 139.676439996955224, 35.617850000969987 ] } },
{ "type": "Feature", "properties": { "name": "向ヶ丘遊園", "kind": "駅", "capacity": 57254.0, "weight": 1.0, "demand_value": 57254.0, "source": "国土数値情報 S12 駅別乗降客数", "synthetic": false, "lon": 139.56460999404004, "lat": 35.617280004653679 }, "geometry": { "type": "Point", "coordinates": [ 139.56460999404004, 35.617280004653679 ] } },
{ "type": "Feature", "properties": { "name": "新馬場", "kind": "駅", "capacity": 15099.0, "weight": 1.0, "demand_value": 15099.0, "source": "国土数値情報 S12 駅別乗降客数", "synthetic": false, "lon": 139.74151499670219, "lat": 35.616580018717414 }, "geometry": { "type": "Point", "coordinates": [ 139.741514996702193, 35.616580018717414 ] } },
{ "type": "Feature", "properties": { "name": "戸越銀座", "kind": "駅", "capacity": 19370.0, "weight": 1.0, "demand_value": 19370.0, "source": "国土数値情報 S12 駅別乗降客数", "synthetic": false, "lon": 139.71499999940411, "lat": 35.616010000100736 }, "geometry": { "type": "Point", "coordinates": [ 139.714999999404114, 35.616010000100736 ] } },
{ "type": "Feature", "properties": { "name": "西小山", "kind": "駅", "capacity": 33007.0, "weight": 1.0, "demand_value": 33007.0, "source": "国土数値情報 S12 駅別乗降客数", "synthetic": false, "lon": 139.69870999901394, "lat": 35.615435000286105 }, "geometry": { "type": "Point", "coordinates": [ 139.698709999013943, 35.615435000286105 ] } },
{ "type": "Feature", "properties": { "name": "宿河原", "kind": "駅", "capacity": 16416.0, "weight": 1.0, "demand_value": 16416.0, "source": "国土数値情報 S12 駅別乗降客数", "synthetic": false, "lon": 139.57954500225961, "lat": 35.615420001906138 }, "geometry": { "type": "Point", "coordinates": [ 139.579545002259607, 35.615420001906138 ] } },
{ "type": "Feature", "properties": { "name": "戸越", "kind": "駅", "capacity": 21299.0, "weight": 1.0, "demand_value": 21299.0, "source": "国土数値情報 S12 駅別乗降客数", "synthetic": false, "lon": 139.71637499774812, "lat": 35.614425000326129 }, "geometry": { "type": "Point", "coordinates": [ 139.716374997748119, 35.614425000326129 ] } },
{ "type": "Feature", "properties": { "name": "上野毛", "kind": "駅", "capacity": 22230.0, "weight": 1.0, "demand_value": 22230.0, "source": "国土数値情報 S12 駅別乗降客数", "synthetic": false, "lon": 139.63893203334527, "lat": 35.611982614234591 }, "geometry": { "type": "Point", "coordinates": [ 139.63893203334527, 35.611982614234591 ] } },
{ "type": "Feature", "properties": { "name": "二子玉川", "kind": "駅", "capacity": 140353.0, "weight": 1.0, "demand_value": 140353.0, "source": "国土数値情報 S12 駅別乗降客数", "synthetic": false, "lon": 139.62632569413475, "lat": 35.611374650321423 }, "geometry": { "type": "Point", "coordinates": [ 139.626325694134749, 35.611374650321423 ] } },
{ "type": "Feature", "properties": { "name": "久地", "kind": "駅", "capacity": 26960.0, "weight": 1.0, "demand_value": 26960.0, "source": "国土数値情報 S12 駅別乗降客数", "synthetic": false, "lon": 139.59307500408022, "lat": 35.610105002396992 }, "geometry": { "type": "Point", "coordinates": [ 139.59307500408022, 35.610105002396992 ] } },
{ "type": "Feature", "properties": { "name": "洗足", "kind": "駅", "capacity": 14288.0, "weight": 1.0, "demand_value": 14288.0, "source": "国土数値情報 S12 駅別乗降客数", "synthetic": false, "lon": 139.69410499858341, "lat": 35.610090000472077 }, "geometry": { "type": "Point", "coordinates": [ 139.694104998583413, 35.610090000472077 ] } },
{ "type": "Feature", "properties": { "name": "荏原中延", "kind": "駅", "capacity": 12777.0, "weight": 1.0, "demand_value": 12777.0, "source": "国土数値情報 S12 駅別乗降客数", "synthetic": false, "lon": 139.71202999983578, "lat": 35.609900000060435 }, "geometry": { "type": "Point", "coordinates": [ 139.712029999835778, 35.609900000060435 ] } },
{ "type": "Feature", "properties": { "name": "青物横丁", "kind": "駅", "capacity": 35970.0, "weight": 1.0, "demand_value": 35970.0, "source": "国土数値情報 S12 駅別乗降客数", "synthetic": false, "lon": 139.74313500072267, "lat": 35.609190000071955 }, "geometry": { "type": "Point", "coordinates": [ 139.743135000722674, 35.609190000071955 ] } },
{ "type": "Feature", "properties": { "name": "戸越公園", "kind": "駅", "capacity": 13597.0, "weight": 1.0, "demand_value": 13597.0, "source": "国土数値情報 S12 駅別乗降客数", "synthetic": false, "lon": 139.71838999958999, "lat": 35.608930000697271 }, "geometry": { "type": "Point", "coordinates": [ 139.718389999589988, 35.608930000697271 ] } },
{ "type": "Feature", "properties": { "name": "下神明", "kind": "駅", "capacity": 9364.0, "weight": 1.0, "demand_value": 9364.0, "source": "国土数値情報 S12 駅別乗降客数", "synthetic": false, "lon": 139.72631000059732, "lat": 35.60871000057049 }, "geometry": { "type": "Point", "coordinates": [ 139.726310000597323, 35.60871000057049 ] } },
{ "type": "Feature", "properties": { "name": "等々力", "kind": "駅", "capacity": 27098.0, "weight": 1.0, "demand_value": 27098.0, "source": "国土数値情報 S12 駅別乗降客数", "synthetic": false, "lon": 139.64796000091863, "lat": 35.608370001169966 }, "geometry": { "type": "Point", "coordinates": [ 139.64796000091863, 35.608370001169966 ] } },
{ "type": "Feature", "properties": { "name": "自由が丘", "kind": "駅", "capacity": 136588.0, "weight": 1.0, "demand_value": 136588.0, "source": "国土数値情報 S12 駅別乗降客数", "synthetic": false, "lon": 139.66869724496888, "lat": 35.607270951153481 }, "geometry": { "type": "Point", "coordinates": [ 139.668697244968882, 35.607270951153481 ] } },
{ "type": "Feature", "properties": { "name": "大井町", "kind": "駅", "capacity": 366901.0, "weight": 1.0, "demand_value": 366901.0, "source": "国土数値情報 S12 駅別乗降客数", "synthetic": false, "lon": 139.73499076470443, "lat": 35.60680995779753 }, "geometry": { "type": "Point", "coordinates": [ 139.734990764704435, 35.60680995779753 ] } },
{ "type": "Feature", "properties": { "name": "二子新地", "kind": "駅", "capacity": 20845.0, "weight": 1.0, "demand_value": 20845.0, "source": "国土数値情報 S12 駅別乗降客数", "synthetic": false, "lon": 139.62270708241243, "lat": 35.607323880202344 }, "geometry": { "type": "Point", "coordinates": [ 139.622707082412433, 35.607323880202344 ] } },
{ "type": "Feature", "properties": { "name": "大岡山", "kind": "駅", "capacity": 47370.0, "weight": 1.0, "demand_value": 47370.0, "source": "国土数値情報 S12 駅別乗降客数", "synthetic": false, "lon": 139.68473453620391, "lat": 35.607176165308481 }, "geometry": { "type": "Point", "coordinates": [ 139.684734536203905, 35.607176165308481 ] } },
{ "type": "Feature", "properties": { "name": "尾山台", "kind": "駅", "capacity": 30971.0, "weight": 1.0, "demand_value": 30971.0, "source": "国土数値情報 S12 駅別乗降客数", "synthetic": false, "lon": 139.65412000134185, "lat": 35.60693500203908 }, "geometry": { "type": "Point", "coordinates": [ 139.654120001341852, 35.60693500203908 ] } },
{ "type": "Feature", "properties": { "name": "緑が丘", "kind": "駅", "capacity": 10090.0, "weight": 1.0, "demand_value": 10090.0, "source": "国土数値情報 S12 駅別乗降客数", "synthetic": false, "lon": 139.67915000052037, "lat": 35.606475000666101 }, "geometry": { "type": "Point", "coordinates": [ 139.679150000520366, 35.606475000666101 ] } },
{ "type": "Feature", "properties": { "name": "北千束", "kind": "駅", "capacity": 7266.0, "weight": 1.0, "demand_value": 7266.0, "source": "国土数値情報 S12 駅別乗降客数", "synthetic": false, "lon": 139.69327000062904, "lat": 35.606280000633944 }, "geometry": { "type": "Point", "coordinates": [ 139.693270000629042, 35.606280000633944 ] } },
{ "type": "Feature", "properties": { "name": "中延", "kind": "駅", "capacity": 49338.0, "weight": 1.0, "demand_value": 49338.0, "source": "国土数値情報 S12 駅別乗降客数", "synthetic": false, "lon": 139.71358999860101, "lat": 35.605175000137997 }, "geometry": { "type": "Point", "coordinates": [ 139.713589998601009, 35.605175000137997 ] } },
{ "type": "Feature", "properties": { "name": "九品仏", "kind": "駅", "capacity": 12729.0, "weight": 1.0, "demand_value": 12729.0, "source": "国土数値情報 S12 駅別乗降客数", "synthetic": false, "lon": 139.66101000034465, "lat": 35.605375000768525 }, "geometry": { "type": "Point", "coordinates": [ 139.661010000344646, 35.605375000768525 ] } },
{ "type": "Feature", "properties": { "name": "旗の台", "kind": "駅", "capacity": 39338.0, "weight": 1.0, "demand_value": 39338.0, "source": "国土数値情報 S12 駅別乗降客数", "synthetic": false, "lon": 139.70331499925118, "lat": 35.605135000439525 }, "geometry": { "type": "Point", "coordinates": [ 139.703314999251177, 35.605135000439525 ] } },
{ "type": "Feature", "properties": { "name": "鮫洲", "kind": "駅", "capacity": 9677.0, "weight": 1.0, "demand_value": 9677.0, "source": "国土数値情報 S12 駅別乗降客数", "synthetic": false, "lon": 139.74244499855905, "lat": 35.605070000395855 }, "geometry": { "type": "Point", "coordinates": [ 139.742444998559051, 35.605070000395855 ] } },
{ "type": "Feature", "properties": { "name": "奥沢", "kind": "駅", "capacity": 12146.0, "weight": 1.0, "demand_value": 12146.0, "source": "国土数値情報 S12 駅別乗降客数", "synthetic": false, "lon": 139.67240999936763, "lat": 35.603945000802732 }, "geometry": { "type": "Point", "coordinates": [ 139.67240999936763, 35.603945000802732 ] } },
{ "type": "Feature", "properties": { "name": "荏原町", "kind": "駅", "capacity": 15179.0, "weight": 1.0, "demand_value": 15179.0, "source": "国土数値情報 S12 駅別乗降客数", "synthetic": false, "lon": 139.70754500004946, "lat": 35.603810000714702 }, "geometry": { "type": "Point", "coordinates": [ 139.707545000049464, 35.603810000714702 ] } },
{ "type": "Feature", "properties": { "name": "津田山", "kind": "駅", "capacity": 7826.0, "weight": 1.0, "demand_value": 7826.0, "source": "国土数値情報 S12 駅別乗降客数", "synthetic": false, "lon": 139.60072000294139, "lat": 35.603650001722016 }, "geometry": { "type": "Point", "coordinates": [ 139.600720002941387, 35.603650001722016 ] } },
{ "type": "Feature", "properties": { "name": "高津", "kind": "駅", "capacity": 28557.0, "weight": 1.0, "demand_value": 28557.0, "source": "国土数値情報 S12 駅別乗降客数", "synthetic": false, "lon": 139.61766499541596, "lat": 35.603460003032453 }, "geometry": { "type": "Point", "coordinates": [ 139.617664995415964, 35.603460003032453 ] } },
{ "type": "Feature", "properties": { "name": "長原", "kind": "駅", "capacity": 14880.0, "weight": 1.0, "demand_value": 14880.0, "source": "国土数値情報 S12 駅別乗降客数", "synthetic": false, "lon": 139.6979699992377, "lat": 35.602230000480652 }, "geometry": { "type": "Point", "coordinates": [ 139.697969999237699, 35.602230000480652 ] } },
{ "type": "Feature", "properties": { "name": "西大井", "kind": "駅", "capacity": 39232.0, "weight": 1.0, "demand_value": 39232.0, "source": "国土数値情報 S12 駅別乗降客数", "synthetic": false, "lon": 139.72160695584824, "lat": 35.601699446977427 }, "geometry": { "type": "Point", "coordinates": [ 139.721606955848245, 35.601699446977427 ] } },
{ "type": "Feature", "properties": { "name": "溝の口", "kind": "駅", "capacity": 195762.0, "weight": 1.0, "demand_value": 195762.0, "source": "国土数値情報 S12 駅別乗降客数", "synthetic": false, "lon": 139.6105255616813, "lat": 35.599799642154871 }, "geometry": { "type": "Point", "coordinates": [ 139.6105255616813, 35.599799642154871 ] } },
{ "type": "Feature", "properties": { "name": "洗足池", "kind": "駅", "capacity": 17037.0, "weight": 1.0, "demand_value": 17037.0, "source": "国土数値情報 S12 駅別乗降客数", "synthetic": false, "lon": 139.69092499935255, "lat": 35.599675000714356 }, "geometry": { "type": "Point", "coordinates": [ 139.690924999352546, 35.599675000714356 ] } },
{ "type": "Feature", "properties": { "name": "武蔵溝ノ口", "kind": "駅", "capacity": 155920.0, "weight": 1.0, "demand_value": 155920.0, "source": "国土数値情報 S12 駅別乗降客数", "synthetic": false, "lon": 139.61137500651503, "lat": 35.598815002880883 }, "geometry": { "type": "Point", "coordinates": [ 139.611375006515033, 35.598815002880883 ] } },
{ "type": "Feature", "properties": { "name": "立会川", "kind": "駅", "capacity": 17669.0, "weight": 1.0, "demand_value": 17669.0, "source": "国土数値情報 S12 駅別乗降客数", "synthetic": false, "lon": 139.73894499935548, "lat": 35.598505000108013 }, "geometry": { "type": "Point", "coordinates": [ 139.738944999355482, 35.598505000108013 ] } },
{ "type": "Feature", "properties": { "name": "田園調布", "kind": "駅", "capacity": 30210.0, "weight": 1.0, "demand_value": 30210.0, "source": "国土数値情報 S12 駅別乗降客数", "synthetic": false, "lon": 139.6672850002162, "lat": 35.597290000039344 }, "geometry": { "type": "Point", "coordinates": [ 139.667285000216197, 35.597290000039344 ] } },
{ "type": "Feature", "properties": { "name": "石川台", "kind": "駅", "capacity": 14877.0, "weight": 1.0, "demand_value": 14877.0, "source": "国土数値情報 S12 駅別乗降客数", "synthetic": false, "lon": 139.68508999906896, "lat": 35.596860000481385 }, "geometry": { "type": "Point", "coordinates": [ 139.685089999068964, 35.596860000481385 ] } },
{ "type": "Feature", "properties": { "name": "馬込", "kind": "駅", "capacity": 26346.0, "weight": 1.0, "demand_value": 26346.0, "source": "国土数値情報 S12 駅別乗降客数", "synthetic": false, "lon": 139.71185534176433, "lat": 35.59644426783256 }, "geometry": { "type": "Point", "coordinates": [ 139.711855341764334, 35.59644426783256 ] } },
{ "type": "Feature", "properties": { "name": "梶が谷", "kind": "駅", "capacity": 36095.0, "weight": 1.0, "demand_value": 36095.0, "source": "国土数値情報 S12 駅別乗降客数", "synthetic": false, "lon": 139.60567640694259, "lat": 35.593728742689152 }, "geometry": { "type": "Point", "coordinates": [ 139.605676406942592, 35.593728742689152 ] } },
{ "type": "Feature", "properties": { "name": "雪が谷大塚", "kind": "駅", "capacity": 22365.0, "weight": 1.0, "demand_value": 22365.0, "source": "国土数値情報 S12 駅別乗降客数", "synthetic": false, "lon": 139.6811249990366, "lat": 35.59196500021752 }, "geometry": { "type": "Point", "coordinates": [ 139.681124999036598, 35.59196500021752 ] } },
{ "type": "Feature", "properties": { "name": "多摩川", "kind": "駅", "capacity": 21510.0, "weight": 1.0, "demand_value": 21510.0, "source": "国土数値情報 S12 駅別乗降客数", "synthetic": false, "lon": 139.66869766376337, "lat": 35.589645239472922 }, "geometry": { "type": "Point", "coordinates": [ 139.668697663763368, 35.589645239472922 ] } },
{ "type": "Feature", "properties": { "name": "大森", "kind": "駅", "capacity": 165460.0, "weight": 1.0, "demand_value": 165460.0, "source": "国土数値情報 S12 駅別乗降客数", "synthetic": false, "lon": 139.72814885211983, "lat": 35.588915501680155 }, "geometry": { "type": "Point", "coordinates": [ 139.72814885211983, 35.588915501680155 ] } },
{ "type": "Feature", "properties": { "name": "大森海岸", "kind": "駅", "capacity": 13644.0, "weight": 1.0, "demand_value": 13644.0, "source": "国土数値情報 S12 駅別乗降客数", "synthetic": false, "lon": 139.73533680892649, "lat": 35.587579529131268 }, "geometry": { "type": "Point", "coordinates": [ 139.73533680892649, 35.587579529131268 ] } },
{ "type": "Feature", "properties": { "name": "武蔵新城", "kind": "駅", "capacity": 69142.0, "weight": 1.0, "demand_value": 69142.0, "source": "国土数値情報 S12 駅別乗降客数", "synthetic": false, "lon": 139.62909000835796, "lat": 35.587415006637571 }, "geometry": { "type": "Point", "coordinates": [ 139.629090008357963, 35.587415006637571 ] } },
{ "type": "Feature", "properties": { "name": "西馬込", "kind": "駅", "capacity": 43636.0, "weight": 1.0, "demand_value": 43636.0, "source": "国土数値情報 S12 駅別乗降客数", "synthetic": false, "lon": 139.70631999635216, "lat": 35.587305000941278 }, "geometry": { "type": "Point", "coordinates": [ 139.706319996352164, 35.587305000941278 ] } },
{ "type": "Feature", "properties": { "name": "宮崎台", "kind": "駅", "capacity": 47972.0, "weight": 1.0, "demand_value": 47972.0, "source": "国土数値情報 S12 駅別乗降客数", "synthetic": false, "lon": 139.59092924934833, "lat": 35.587126120242061 }, "geometry": { "type": "Point", "coordinates": [ 139.590929249348335, 35.587126120242061 ] } },
{ "type": "Feature", "properties": { "name": "御嶽山", "kind": "駅", "capacity": 23587.0, "weight": 1.0, "demand_value": 23587.0, "source": "国土数値情報 S12 駅別乗降客数", "synthetic": false, "lon": 139.68238118988594, "lat": 35.585223591146111 }, "geometry": { "type": "Point", "coordinates": [ 139.682381189885945, 35.585223591146111 ] } },
{ "type": "Feature", "properties": { "name": "宮前平", "kind": "駅", "capacity": 46121.0, "weight": 1.0, "demand_value": 46121.0, "source": "国土数値情報 S12 駅別乗降客数", "synthetic": false, "lon": 139.58249074112743, "lat": 35.585015498664973 }, "geometry": { "type": "Point", "coordinates": [ 139.58249074112743, 35.585015498664973 ] } },
{ "type": "Feature", "properties": { "name": "沼部", "kind": "駅", "capacity": 10289.0, "weight": 1.0, "demand_value": 10289.0, "source": "国土数値情報 S12 駅別乗降客数", "synthetic": false, "lon": 139.67317000087317, "lat": 35.582490000310294 }, "geometry": { "type": "Point", "coordinates": [ 139.673170000873171, 35.582490000310294 ] } },
{ "type": "Feature", "properties": { "name": "武蔵中原", "kind": "駅", "capacity": 55204.0, "weight": 1.0, "demand_value": 55204.0, "source": "国土数値情報 S12 駅別乗降客数", "synthetic": false, "lon": 139.64214000330136, "lat": 35.580560002054824 }, "geometry": { "type": "Point", "coordinates": [ 139.642140003301364, 35.580560002054824 ] } },
{ "type": "Feature", "properties": { "name": "新丸子", "kind": "駅", "capacity": 26424.0, "weight": 1.0, "demand_value": 26424.0, "source": "国土数値情報 S12 駅別乗降客数", "synthetic": false, "lon": 139.66193999826109, "lat": 35.580460000299759 }, "geometry": { "type": "Point", "coordinates": [ 139.66193999826109, 35.580460000299759 ] } },
{ "type": "Feature", "properties": { "name": "鷺沼", "kind": "駅", "capacity": 59568.0, "weight": 1.0, "demand_value": 59568.0, "source": "国土数値情報 S12 駅別乗降客数", "synthetic": false, "lon": 139.57315640157091, "lat": 35.579723880295163 }, "geometry": { "type": "Point", "coordinates": [ 139.573156401570913, 35.579723880295163 ] } },
{ "type": "Feature", "properties": { "name": "久が原", "kind": "駅", "capacity": 15640.0, "weight": 1.0, "demand_value": 15640.0, "source": "国土数値情報 S12 駅別乗降客数", "synthetic": false, "lon": 139.68567000083547, "lat": 35.579455000210494 }, "geometry": { "type": "Point", "coordinates": [ 139.685670000835472, 35.579455000210494 ] } },
{ "type": "Feature", "properties": { "name": "平和島", "kind": "駅", "capacity": 44102.0, "weight": 1.0, "demand_value": 44102.0, "source": "国土数値情報 S12 駅別乗降客数", "synthetic": false, "lon": 139.73497148172029, "lat": 35.578686832202372 }, "geometry": { "type": "Point", "coordinates": [ 139.734971481720294, 35.578686832202372 ] } },
{ "type": "Feature", "properties": { "name": "武蔵小杉", "kind": "駅", "capacity": 431702.0, "weight": 1.0, "demand_value": 431702.0, "source": "国土数値情報 S12 駅別乗降客数", "synthetic": false, "lon": 139.65969531228865, "lat": 35.576568582355669 }, "geometry": { "type": "Point", "coordinates": [ 139.659695312288648, 35.576568582355669 ] } },
{ "type": "Feature", "properties": { "name": "鵜の木", "kind": "駅", "capacity": 19463.0, "weight": 1.0, "demand_value": 19463.0, "source": "国土数値情報 S12 駅別乗降客数", "synthetic": false, "lon": 139.6805500007313, "lat": 35.575385000245717 }, "geometry": { "type": "Point", "coordinates": [ 139.680550000731301, 35.575385000245717 ] } },
{ "type": "Feature", "properties": { "name": "千鳥町", "kind": "駅", "capacity": 15216.0, "weight": 1.0, "demand_value": 15216.0, "source": "国土数値情報 S12 駅別乗降客数", "synthetic": false, "lon": 139.69142000087012, "lat": 35.573000000332371 }, "geometry": { "type": "Point", "coordinates": [ 139.691420000870124, 35.573000000332371 ] } },
{ "type": "Feature", "properties": { "name": "大森町", "kind": "駅", "capacity": 21817.0, "weight": 1.0, "demand_value": 21817.0, "source": "国土数値情報 S12 駅別乗降客数", "synthetic": false, "lon": 139.73200999935224, "lat": 35.572500000140295 }, "geometry": { "type": "Point", "coordinates": [ 139.732009999352243, 35.572500000140295 ] } },
{ "type": "Feature", "properties": { "name": "向河原", "kind": "駅", "capacity": 14604.0, "weight": 1.0, "demand_value": 14604.0, "source": "国土数値情報 S12 駅別乗降客数", "synthetic": false, "lon": 139.66729500103733, "lat": 35.572175000126215 }, "geometry": { "type": "Point", "coordinates": [ 139.667295001037331, 35.572175000126215 ] } }
]
}
