{"type":"FeatureCollection","features":[{"type":"Feature","geometry":{"type":"Point","coordinates":[139.675769,35.617408]},"properties":{"name":"目黒障害者相談センター","kind":"計画相談支援","capacity":5.0,"layer":"welfare","source":"国土数値情報 P14 福祉施設（定員つき）"}},{"type":"Feature","geometry":{"type":"Point","coordinates":[139.606922,35.673376]},"properties":{"name":"相談支援センターちぐさ","kind":"計画相談支援","capacity":5.0,"layer":"welfare","source":"国土数値情報 P14 福祉施設（定員つき）"}},{"type":"Feature","geometry":{"type":"Point","coordinates":[139.668505,35.688172]},"properties":{"name":"南部すこやか障害者相談支援事業所","kind":"計画相談支援","capacity":5.0,"layer":"welfare","source":"国土数値情報 P14 福祉施設（定員つき）"}},{"type":"Feature","geometry":{"type":"Point","coordinates":[139.701304,35.682943]},"properties":{"name":"相談支援センター樹音","kind":"計画相談支援","capacity":5.0,"layer":"welfare","source":"国土数値情報 P14 福祉施設（定員つき）"}},{"type":"Feature","geometry":{"type":"Point","coordinates":[139.642526,35.667412]},"properties":{"name":"地域生活支援センターＭＯＴＡ","kind":"地域活動支援センター","capacity":20.0,"layer":"welfare","source":"国土数値情報 P14 福祉施設（定員つき）"}},{"type":"Feature","geometry":{"type":"Point","coordinates":[139.608621,35.622776]},"properties":{"name":"相談支援アンジュ","kind":"計画相談支援","capacity":5.0,"layer":"welfare","source":"国土数値情報 P14 福祉施設（定員つき）"}},{"type":"Feature","geometry":{"type":"Point","coordinates":[139.688789,35.631478]},"properties":{"name":"地域生活相談支援センターセサミ","kind":"計画相談支援","capacity":5.0,"layer":"welfare","source":"国土数値情報 P14 福祉施設（定員つき）"}},{"type":"Feature","geometry":{"type":"Point","coordinates":[139.606371,35.643161]},"properties":{"name":"地域生活支援センターサポートセンターきぬた","kind":"地域活動支援センター","capacity":20.0,"layer":"welfare","source":"国土数値情報 P14 福祉施設（定員つき）"}},{"type":"Feature","geometry":{"type":"Point","coordinates":[139.608243,35.642818]},"properties":{"name":"まつばらけやき相談支援センター","kind":"計画相談支援","capacity":5.0,"layer":"welfare","source":"国土数値情報 P14 福祉施設（定員つき）"}},{"type":"Feature","geometry":{"type":"Point","coordinates":[139.669532,35.679721]},"properties":{"name":"地域活動支援センターふれあい","kind":"地域活動支援センター","capacity":20.0,"layer":"welfare","source":"国土数値情報 P14 福祉施設（定員つき）"}},{"type":"Feature","geometry":{"type":"Point","coordinates":[139.645774,35.694379]},"properties":{"name":"障害者ケアマネジメント　友愛","kind":"障害福祉サービス事業所","capacity":15.0,"layer":"welfare","source":"国土数値情報 P14 福祉施設（定員つき）"}},{"type":"Feature","geometry":{"type":"Point","coordinates":[139.718323,35.579263]},"properties":{"name":"大田区立障がい者総合サポートセンター相談支援事業所","kind":"計画相談支援","capacity":5.0,"layer":"welfare","source":"国土数値情報 P14 福祉施設（定員つき）"}},{"type":"Feature","geometry":{"type":"Point","coordinates":[139.735091,35.643006]},"properties":{"name":"港区立精神障害者地域活動支援センター","kind":"地域活動支援センター","capacity":20.0,"layer":"welfare","source":"国土数値情報 P14 福祉施設（定員つき）"}},{"type":"Feature","geometry":{"type":"Point","coordinates":[139.619795,35.68262]},"properties":{"name":"杉並区立こども発達センター","kind":"児童発達支援","capacity":10.0,"layer":"welfare","source":"国土数値情報 P14 福祉施設（定員つき）"}},{"type":"Feature","geometry":{"type":"Point","coordinates":[139.653904,35.658748]},"properties":{"name":"相談支援センター　かりんとう","kind":"計画相談支援","capacity":5.0,"layer":"welfare","source":"国土数値情報 P14 福祉施設（定員つき）"}},{"type":"Feature","geometry":{"type":"Point","coordinates":[139.602464,35.673892]},"properties":{"name":"相談支援　ここから","kind":"計画相談支援","capacity":5.0,"layer":"welfare","source":"国土数値情報 P14 福祉施設（定員つき）"}},{"type":"Feature","geometry":{"type":"Point","coordinates":[139.68131,35.629708]},"properties":{"name":"たんぽぽの会　相談支援","kind":"計画相談支援","capacity":5.0,"layer":"welfare","source":"国土数値情報 P14 福祉施設（定員つき）"}},{"type":"Feature","geometry":{"type":"Point","coordinates":[139.584334,35.6912]},"properties":{"name":"相談支援事業所　結い","kind":"計画相談支援","capacity":5.0,"layer":"welfare","source":"国土数値情報 P14 福祉施設（定員つき）"}},{"type":"Feature","geometry":{"type":"Point","coordinates":[139.706405,35.709909]},"properties":{"name":"地域活動支援センターまど","kind":"地域活動支援センター","capacity":20.0,"layer":"welfare","source":"国土数値情報 P14 福祉施設（定員つき）"}},{"type":"Feature","geometry":{"type":"Point","coordinates":[139.567836,35.633308]},"properties":{"name":"地域生活支援センターリヒト","kind":"地域活動支援センター","capacity":20.0,"layer":"welfare","source":"国土数値情報 P14 福祉施設（定員つき）"}},{"type":"Feature","geometry":{"type":"Point","coordinates":[139.666237,35.634563]},"properties":{"name":"相談支援センター架け橋","kind":"計画相談支援","capacity":5.0,"layer":"welfare","source":"国土数値情報 P14 福祉施設（定員つき）"}},{"type":"Feature","geometry":{"type":"Point","coordinates":[139.698145,35.685713]},"properties":{"name":"相談支援事業所ＡＨＩソーシャルサポートオフィス","kind":"計画相談支援","capacity":5.0,"layer":"welfare","source":"国土数値情報 P14 福祉施設（定員つき）"}},{"type":"Feature","geometry":{"type":"Point","coordinates":[139.576032,35.63043]},"properties":{"name":"相談支援センターみずき","kind":"計画相談支援","capacity":5.0,"layer":"welfare","source":"国土数値情報 P14 福祉施設（定員つき）"}},{"type":"Feature","geometry":{"type":"Point","coordinates":[139.712834,35.689045]},"properties":{"name":"相談支援事業所　Serecosu新宿","kind":"計画相談支援","capacity":5.0,"layer":"welfare","source":"国土数値情報 P14 福祉施設（定員つき）"}},{"type":"Feature","geometry":{"type":"Point","coordinates":[139.702568,35.680208]},"properties":{"name":"渋谷区精神障害者地域生活支援センター","kind":"地域活動支援センター","capacity":20.0,"layer":"welfare","source":"国土数値情報 P14 福祉施設（定員つき）"}},{"type":"Feature","geometry":{"type":"Point","coordinates":[139.665312,35.709161]},"properties":{"name":"中野区精神障害者地域生活支援センター　通称「せせらぎ」","kind":"地域活動支援センター","capacity":20.0,"layer":"welfare","source":"国土数値情報 P14 福祉施設（定員つき）"}},{"type":"Feature","geometry":{"type":"Point","coordinates":[139.719348,35.625988]},"properties":{"name":"品川区精神障害者地域生活支援センター","kind":"地域活動支援センター","capacity":20.0,"layer":"welfare","source":"国土数値情報 P14 福祉施設（定員つき）"}},{"type":"Feature","geometry":{"type":"Point","coordinates":[139.650726,35.657153]},"properties":{"name":"相談支援事業所　梅ヶ丘","kind":"計画相談支援","capacity":5.0,"layer":"welfare","source":"国土数値情報 P14 福祉施設（定員つき）"}},{"type":"Feature","geometry":{"type":"Point","coordinates":[139.57709,35.656435]},"properties":{"name":"地域生活支援センター希望ヶ丘","kind":"地域活動支援センター","capacity":20.0,"layer":"welfare","source":"国土数値情報 P14 福祉施設（定員つき）"}},{"type":"Feature","geometry":{"type":"Point","coordinates":[139.722938,35.65892]},"properties":{"name":"麻布メンタルヘルス指定相談支援事業所","kind":"計画相談支援","capacity":5.0,"layer":"welfare","source":"国土数値情報 P14 福祉施設（定員つき）"}},{"type":"Feature","geometry":{"type":"Point","coordinates":[139.736124,35.664876]},"properties":{"name":"相談支援Ｋ-スタジオ","kind":"計画相談支援","capacity":5.0,"layer":"welfare","source":"国土数値情報 P14 福祉施設（定員つき）"}},{"type":"Feature","geometry":{"type":"Point","coordinates":[139.72754,35.650422]},"properties":{"name":"港区立障害者支援ホーム南麻布","kind":"障害福祉サービス事業所","capacity":15.0,"layer":"welfare","source":"国土数値情報 P14 福祉施設（定員つき）"}},{"type":"Feature","geometry":{"type":"Point","coordinates":[139.67303,35.621317]},"properties":{"name":"目黒区心身障害者センターあいアイ館","kind":"地域活動支援センター","capacity":20.0,"layer":"welfare","source":"国土数値情報 P14 福祉施設（定員つき）"}},{"type":"Feature","geometry":{"type":"Point","coordinates":[139.628848,35.702131]},"properties":{"name":"相談支援事業所　ゆい企画","kind":"計画相談支援","capacity":5.0,"layer":"welfare","source":"国土数値情報 P14 福祉施設（定員つき）"}},{"type":"Feature","geometry":{"type":"Point","coordinates":[139.569492,35.678271]},"properties":{"name":"障がい者相談センター　つなぐ手","kind":"計画相談支援","capacity":5.0,"layer":"welfare","source":"国土数値情報 P14 福祉施設（定員つき）"}},{"type":"Feature","geometry":{"type":"Point","coordinates":[139.561781,35.694819]},"properties":{"name":"障がい者計画相談センターくも","kind":"計画相談支援","capacity":5.0,"layer":"welfare","source":"国土数値情報 P14 福祉施設（定員つき）"}},{"type":"Feature","geometry":{"type":"Point","coordinates":[139.682771,35.624006]},"properties":{"name":"いきいき福祉相談支援センター","kind":"計画相談支援","capacity":5.0,"layer":"welfare","source":"国土数値情報 P14 福祉施設（定員つき）"}},{"type":"Feature","geometry":{"type":"Point","coordinates":[139.631216,35.669261]},"properties":{"name":"ホープ相談支援センター","kind":"計画相談支援","capacity":5.0,"layer":"welfare","source":"国土数値情報 P14 福祉施設（定員つき）"}},{"type":"Feature","geometry":{"type":"Point","coordinates":[139.693003,35.587376]},"properties":{"name":"障害者相談支援事業所久が原","kind":"計画相談支援","capacity":5.0,"layer":"welfare","source":"国土数値情報 P14 福祉施設（定員つき）"}},{"type":"Feature","geometry":{"type":"Point","coordinates":[139.613738,35.635711]},"properties":{"name":"コーポ友愛","kind":"障害福祉サービス事業所","capacity":15.0,"layer":"welfare","source":"国土数値情報 P14 福祉施設（定員つき）"}},{"type":"Feature","geometry":{"type":"Point","coordinates":[139.667871,35.627513]},"properties":{"name":"目黒区東が丘障害福祉施設(東が丘あじさいホーム)","kind":"障害福祉サービス事業所","capacity":15.0,"layer":"welfare","source":"国土数値情報 P14 福祉施設（定員つき）"}},{"type":"Feature","geometry":{"type":"Point","coordinates":[139.697572,35.697081]},"properties":{"name":"相談支援事業所　Ｋａｉｅｎ新宿","kind":"計画相談支援","capacity":5.0,"layer":"welfare","source":"国土数値情報 P14 福祉施設（定員つき）"}},{"type":"Feature","geometry":{"type":"Point","coordinates":[139.703649,35.661844]},"properties":{"name":"渋谷区子ども発達相談センター","kind":"児童発達支援","capacity":10.0,"layer":"welfare","source":"国土数値情報 P14 福祉施設（定員つき）"}},{"type":"Feature","geometry":{"type":"Point","coordinates":[139.678049,35.702]},"properties":{"name":"相談支援センターあいいく","kind":"計画相談支援","capacity":5.0,"layer":"welfare","source":"国土数値情報 P14 福祉施設（定員つき）"}},{"type":"Feature","geometry":{"type":"Point","coordinates":[139.705181,35.573202]},"properties":{"name":"あかしろきいろ子ども発達相談るーむ","kind":"児童発達支援","capacity":10.0,"layer":"welfare","source":"国土数値情報 P14 福祉施設（定員つき）"}},{"type":"Feature","geometry":{"type":"Point","coordinates":[139.628104,35.610302]},"properties":{"name":"相談支援センター　フォルテ","kind":"計画相談支援","capacity":5.0,"layer":"welfare","source":"国土数値情報 P14 福祉施設（定員つき）"}},{"type":"Feature","geometry":{"type":"Point","coordinates":[139.735921,35.607035]},"properties":{"name":"相談支援事業所パルレ","kind":"計画相談支援","capacity":5.0,"layer":"welfare","source":"国土数値情報 P14 福祉施設（定員つき）"}},{"type":"Feature","geometry":{"type":"Point","coordinates":[139.626098,35.630299]},"properties":{"name":"発達障害者就労支援センターゆに(ＵＮＩ)相談支援事業所","kind":"就労継続支援B型","capacity":20.0,"layer":"welfare","source":"国土数値情報 P14 福祉施設（定員つき）"}},{"type":"Feature","geometry":{"type":"Point","coordinates":[139.712305,35.709522]},"properties":{"name":"特定相談支援事業所　どまーに","kind":"計画相談支援","capacity":5.0,"layer":"welfare","source":"国土数値情報 P14 福祉施設（定員つき）"}},{"type":"Feature","geometry":{"type":"Point","coordinates":[139.61713,35.623635]},"properties":{"name":"相談支援センターおかもと","kind":"計画相談支援","capacity":5.0,"layer":"welfare","source":"国土数値情報 P14 福祉施設（定員つき）"}},{"type":"Feature","geometry":{"type":"Point","coordinates":[139.702042,35.709037]},"properties":{"name":"新宿区立障害者生活支援センター","kind":"障害福祉サービス事業所","capacity":15.0,"layer":"welfare","source":"国土数値情報 P14 福祉施設（定員つき）"}},{"type":"Feature","geometry":{"type":"Point","coordinates":[139.650301,35.703576]},"properties":{"name":"相談支援　にこっと","kind":"計画相談支援","capacity":5.0,"layer":"welfare","source":"国土数値情報 P14 福祉施設（定員つき）"}},{"type":"Feature","geometry":{"type":"Point","coordinates":[139.679569,35.576153]},"properties":{"name":"特定相談支援事業所　ワークスタッフ鵜の木","kind":"就労継続支援B型","capacity":20.0,"layer":"welfare","source":"国土数値情報 P14 福祉施設（定員つき）"}},{"type":"Feature","geometry":{"type":"Point","coordinates":[139.651342,35.666833]},"properties":{"name":"相棒相談支援センター","kind":"計画相談支援","capacity":5.0,"layer":"welfare","source":"国土数値情報 P14 福祉施設（定員つき）"}},{"type":"Feature","geometry":{"type":"Point","coordinates":[139.688483,35.631852]},"properties":{"name":"特定相談支援事業所　ＳＵＮ","kind":"計画相談支援","capacity":5.0,"layer":"welfare","source":"国土数値情報 P14 福祉施設（定員つき）"}},{"type":"Feature","geometry":{"type":"Point","coordinates":[139.678254,35.64271]},"properties":{"name":"相談支援事業所　わいわい","kind":"計画相談支援","capacity":5.0,"layer":"welfare","source":"国土数値情報 P14 福祉施設（定員つき）"}},{"type":"Feature","geometry":{"type":"Point","coordinates":[139.647744,35.677818]},"properties":{"name":"相談支援事業所かすみ草","kind":"計画相談支援","capacity":5.0,"layer":"welfare","source":"国土数値情報 P14 福祉施設（定員つき）"}},{"type":"Feature","geometry":{"type":"Point","coordinates":[139.670969,35.689944]},"properties":{"name":"弥生福祉作業所障害者相談支援事業所","kind":"就労継続支援B型","capacity":20.0,"layer":"welfare","source":"国土数値情報 P14 福祉施設（定員つき）"}},{"type":"Feature","geometry":{"type":"Point","coordinates":[139.684824,35.589042]},"properties":{"name":"リトルコールケア相談支援事業所","kind":"計画相談支援","capacity":5.0,"layer":"welfare","source":"国土数値情報 P14 福祉施設（定員つき）"}},{"type":"Feature","geometry":{"type":"Point","coordinates":[139.664047,35.607319]},"properties":{"name":"相談支援事業所青い鳥","kind":"計画相談支援","capacity":5.0,"layer":"welfare","source":"国土数値情報 P14 福祉施設（定員つき）"}},{"type":"Feature","geometry":{"type":"Point","coordinates":[139.646588,35.654685]},"properties":{"name":"ソレイユ相談支援センター","kind":"計画相談支援","capacity":5.0,"layer":"welfare","source":"国土数値情報 P14 福祉施設（定員つき）"}},{"type":"Feature","geometry":{"type":"Point","coordinates":[139.674275,35.695384]},"properties":{"name":"相談支援事業所あいだっく","kind":"計画相談支援","capacity":5.0,"layer":"welfare","source":"国土数値情報 P14 福祉施設（定員つき）"}},{"type":"Feature","geometry":{"type":"Point","coordinates":[139.681415,35.70926]},"properties":{"name":"指定特定相談支援事業所メノウ中野","kind":"計画相談支援","capacity":5.0,"layer":"welfare","source":"国土数値情報 P14 福祉施設（定員つき）"}},{"type":"Feature","geometry":{"type":"Point","coordinates":[139.602649,35.704084]},"properties":{"name":"相談支援事業所うぃる","kind":"計画相談支援","capacity":5.0,"layer":"welfare","source":"国土数値情報 P14 福祉施設（定員つき）"}},{"type":"Feature","geometry":{"type":"Point","coordinates":[139.722309,35.655158]},"properties":{"name":"宮代学園相談支援センター","kind":"計画相談支援","capacity":5.0,"layer":"welfare","source":"国土数値情報 P14 福祉施設（定員つき）"}},{"type":"Feature","geometry":{"type":"Point","coordinates":[139.561758,35.681539]},"properties":{"name":"三鷹市子ども発達支援センター","kind":"児童発達支援","capacity":10.0,"layer":"welfare","source":"国土数値情報 P14 福祉施設（定員つき）"}},{"type":"Feature","geometry":{"type":"Point","coordinates":[139.699072,35.643519]},"properties":{"name":"LITALICO相談支援センター中目黒","kind":"計画相談支援","capacity":5.0,"layer":"welfare","source":"国土数値情報 P14 福祉施設（定員つき）"}},{"type":"Feature","geometry":{"type":"Point","coordinates":[139.705027,35.701005]},"properties":{"name":"相談支援事業所　えくぼケア","kind":"計画相談支援","capacity":5.0,"layer":"welfare","source":"国土数値情報 P14 福祉施設（定員つき）"}},{"type":"Feature","geometry":{"type":"Point","coordinates":[139.684427,35.610675]},"properties":{"name":"ナイスケア目黒相談支援センター","kind":"計画相談支援","capacity":5.0,"layer":"welfare","source":"国土数値情報 P14 福祉施設（定員つき）"}},{"type":"Feature","geometry":{"type":"Point","coordinates":[139.575093,35.702868]},"properties":{"name":"相談支援事業所　ハローワールド","kind":"計画相談支援","capacity":5.0,"layer":"welfare","source":"国土数値情報 P14 福祉施設（定員つき）"}},{"type":"Feature","geometry":{"type":"Point","coordinates":[139.643355,35.669249]},"properties":{"name":"永福南社会福祉ガーデン　相談支援事業所","kind":"計画相談支援","capacity":5.0,"layer":"welfare","source":"国土数値情報 P14 福祉施設（定員つき）"}},{"type":"Feature","geometry":{"type":"Point","coordinates":[139.697932,35.684525]},"properties":{"name":"渋谷区障害者福祉センター代々木の杜","kind":"地域活動支援センター","capacity":20.0,"layer":"welfare","source":"国土数値情報 P14 福祉施設（定員つき）"}},{"type":"Feature","geometry":{"type":"Point","coordinates":[139.672175,35.708072]},"properties":{"name":"もみじやま障害者計画相談室","kind":"計画相談支援","capacity":5.0,"layer":"welfare","source":"国土数値情報 P14 福祉施設（定員つき）"}},{"type":"Feature","geometry":{"type":"Point","coordinates":[139.724225,35.58099]},"properties":{"name":"相談支援事業所ここん","kind":"計画相談支援","capacity":5.0,"layer":"welfare","source":"国土数値情報 P14 福祉施設（定員つき）"}},{"type":"Feature","geometry":{"type":"Point","coordinates":[139.633945,35.619255]},"properties":{"name":"相談支援　ツナカン","kind":"計画相談支援","capacity":5.0,"layer":"welfare","source":"国土数値情報 P14 福祉施設（定員つき）"}},{"type":"Feature","geometry":{"type":"Point","coordinates":[139.654007,35.698298]},"properties":{"name":"特定相談支援事業所エンカレッジ","kind":"計画相談支援","capacity":5.0,"layer":"welfare","source":"国土数値情報 P14 福祉施設（定員つき）"}},{"type":"Feature","geometry":{"type":"Point","coordinates":[139.715092,35.644583]},"properties":{"name":"インクルード相談支援センター　恵比寿","kind":"計画相談支援","capacity":5.0,"layer":"welfare","source":"国土数値情報 P14 福祉施設（定員つき）"}},{"type":"Feature","geometry":{"type":"Point","coordinates":[139.615569,35.644602]},"properties":{"name":"ＴＡＫＵＭＩ相談支援センター世田谷","kind":"計画相談支援","capacity":5.0,"layer":"welfare","source":"国土数値情報 P14 福祉施設（定員つき）"}},{"type":"Feature","geometry":{"type":"Point","coordinates":[139.698511,35.664101]},"properties":{"name":"渋谷区障がい者基幹相談支援センター","kind":"計画相談支援","capacity":5.0,"layer":"welfare","source":"国土数値情報 P14 福祉施設（定員つき）"}},{"type":"Feature","geometry":{"type":"Point","coordinates":[139.649257,35.697428]},"properties":{"name":"相談支援事業所あおぞら","kind":"計画相談支援","capacity":5.0,"layer":"welfare","source":"国土数値情報 P14 福祉施設（定員つき）"}},{"type":"Feature","geometry":{"type":"Point","coordinates":[139.718323,35.579263]},"properties":{"name":"大田区立障がい者総合サポートセンターＢ棟　障害児相談支援事業所","kind":"計画相談支援","capacity":5.0,"layer":"welfare","source":"国土数値情報 P14 福祉施設（定員つき）"}},{"type":"Feature","geometry":{"type":"Point","coordinates":[139.637154,35.652199]},"properties":{"name":"相談支援ウイング","kind":"計画相談支援","capacity":5.0,"layer":"welfare","source":"国土数値情報 P14 福祉施設（定員つき）"}},{"type":"Feature","geometry":{"type":"Point","coordinates":[139.70754,35.655232]},"properties":{"name":"東京聴覚障害者支援事業所ＲＯＮＡプラン","kind":"障害福祉サービス事業所","capacity":15.0,"layer":"welfare","source":"国土数値情報 P14 福祉施設（定員つき）"}},{"type":"Feature","geometry":{"type":"Point","coordinates":[139.569833,35.69329]},"properties":{"name":"障がい者相談センターともに","kind":"計画相談支援","capacity":5.0,"layer":"welfare","source":"国土数値情報 P14 福祉施設（定員つき）"}},{"type":"Feature","geometry":{"type":"Point","coordinates":[139.741458,35.61812]},"properties":{"name":"相談支援事業所アプリ北品川","kind":"計画相談支援","capacity":5.0,"layer":"welfare","source":"国土数値情報 P14 福祉施設（定員つき）"}},{"type":"Feature","geometry":{"type":"Point","coordinates":[139.72207,35.633126]},"properties":{"name":"品川区発達障害者相談支援センター","kind":"計画相談支援","capacity":5.0,"layer":"welfare","source":"国土数値情報 P14 福祉施設（定員つき）"}},{"type":"Feature","geometry":{"type":"Point","coordinates":[139.70853,35.615388]},"properties":{"name":"相談支援事業所えがお","kind":"計画相談支援","capacity":5.0,"layer":"welfare","source":"国土数値情報 P14 福祉施設（定員つき）"}},{"type":"Feature","geometry":{"type":"Point","coordinates":[139.737142,35.612953]},"properties":{"name":"インクル南品川　障害者相談支援センター","kind":"計画相談支援","capacity":5.0,"layer":"welfare","source":"国土数値情報 P14 福祉施設（定員つき）"}},{"type":"Feature","geometry":{"type":"Point","coordinates":[139.744806,35.607294]},"properties":{"name":"品川区南品川障害児者相談支援センター","kind":"計画相談支援","capacity":5.0,"layer":"welfare","source":"国土数値情報 P14 福祉施設（定員つき）"}},{"type":"Feature","geometry":{"type":"Point","coordinates":[139.674166,35.677426]},"properties":{"name":"たんぽぽの会はたがや相談支援","kind":"計画相談支援","capacity":5.0,"layer":"welfare","source":"国土数値情報 P14 福祉施設（定員つき）"}},{"type":"Feature","geometry":{"type":"Point","coordinates":[139.711567,35.601795]},"properties":{"name":"品川区中延障害者計画相談支援事業所","kind":"計画相談支援","capacity":5.0,"layer":"welfare","source":"国土数値情報 P14 福祉施設（定員つき）"}},{"type":"Feature","geometry":{"type":"Point","coordinates":[139.700444,35.605015]},"properties":{"name":"品川区旗の台障害児者相談支援センター","kind":"計画相談支援","capacity":5.0,"layer":"welfare","source":"国土数値情報 P14 福祉施設（定員つき）"}},{"type":"Feature","geometry":{"type":"Point","coordinates":[139.658099,35.709946]},"properties":{"name":"なごみ相談支援事業所","kind":"計画相談支援","capacity":5.0,"layer":"welfare","source":"国土数値情報 P14 福祉施設（定員つき）"}},{"type":"Feature","geometry":{"type":"Point","coordinates":[139.600472,35.706345]},"properties":{"name":"蒼い風　相談支援事業所","kind":"計画相談支援","capacity":5.0,"layer":"welfare","source":"国土数値情報 P14 福祉施設（定員つき）"}},{"type":"Feature","geometry":{"type":"Point","coordinates":[139.645347,35.697234]},"properties":{"name":"相談支援事業所　庵(いおり)","kind":"計画相談支援","capacity":5.0,"layer":"welfare","source":"国土数値情報 P14 福祉施設（定員つき）"}},{"type":"Feature","geometry":{"type":"Point","coordinates":[139.72754,35.650422]},"properties":{"name":"港区立児童発達支援センター","kind":"児童発達支援","capacity":10.0,"layer":"welfare","source":"国土数値情報 P14 福祉施設（定員つき）"}},{"type":"Feature","geometry":{"type":"Point","coordinates":[139.698255,35.642788]},"properties":{"name":"相談支援ガブリエル","kind":"計画相談支援","capacity":5.0,"layer":"welfare","source":"国土数値情報 P14 福祉施設（定員つき）"}},{"type":"Feature","geometry":{"type":"Point","coordinates":[139.670731,35.699938]},"properties":{"name":"日本リック相談支援りんく中野事業所","kind":"計画相談支援","capacity":5.0,"layer":"welfare","source":"国土数値情報 P14 福祉施設（定員つき）"}},{"type":"Feature","geometry":{"type":"Point","coordinates":[139.708648,35.660451]},"properties":{"name":"相談支援事業所クローバー渋谷","kind":"計画相談支援","capacity":5.0,"layer":"welfare","source":"国土数値情報 P14 福祉施設（定員つき）"}},{"type":"Feature","geometry":{"type":"Point","coordinates":[139.694498,35.696293]},"properties":{"name":"ベビーのための相談支援　ベビーノ","kind":"計画相談支援","capacity":5.0,"layer":"welfare","source":"国土数値情報 P14 福祉施設（定員つき）"}},{"type":"Feature","geometry":{"type":"Point","coordinates":[139.729483,35.602407]},"properties":{"name":"品川区大井第二障害者計画相談支援事業所","kind":"計画相談支援","capacity":5.0,"layer":"welfare","source":"国土数値情報 P14 福祉施設（定員つき）"}},{"type":"Feature","geometry":{"type":"Point","coordinates":[139.715504,35.639254]},"properties":{"name":"相談支援事業所スタンドアウト","kind":"計画相談支援","capacity":5.0,"layer":"welfare","source":"国土数値情報 P14 福祉施設（定員つき）"}},{"type":"Feature","geometry":{"type":"Point","coordinates":[139.649328,35.656215]},"properties":{"name":"相談支援事業所しらうめ","kind":"計画相談支援","capacity":5.0,"layer":"welfare","source":"国土数値情報 P14 福祉施設（定員つき）"}},{"type":"Feature","geometry":{"type":"Point","coordinates":[139.71691,35.627739]},"properties":{"name":"品川区西五反田障害者計画相談支援事業所","kind":"計画相談支援","capacity":5.0,"layer":"welfare","source":"国土数値情報 P14 福祉施設（定員つき）"}},{"type":"Feature","geometry":{"type":"Point","coordinates":[139.652846,35.677166]},"properties":{"name":"相談支援　ファースト","kind":"計画相談支援","capacity":5.0,"layer":"welfare","source":"国土数値情報 P14 福祉施設（定員つき）"}},{"type":"Feature","geometry":{"type":"Point","coordinates":[139.672976,35.641889]},"properties":{"name":"亀右衛門相談支援事業所","kind":"計画相談支援","capacity":5.0,"layer":"welfare","source":"国土数値情報 P14 福祉施設（定員つき）"}},{"type":"Feature","geometry":{"type":"Point","coordinates":[139.719901,35.609]},"properties":{"name":"相談支援事業所　このこのリーフ戸越公園","kind":"計画相談支援","capacity":5.0,"layer":"welfare","source":"国土数値情報 P14 福祉施設（定員つき）"}},{"type":"Feature","geometry":{"type":"Point","coordinates":[139.655629,35.594408]},"properties":{"name":"相談支援ぴっと東京","kind":"計画相談支援","capacity":5.0,"layer":"welfare","source":"国土数値情報 P14 福祉施設（定員つき）"}},{"type":"Feature","geometry":{"type":"Point","coordinates":[139.608399,35.675526]},"properties":{"name":"相談支援　クロスロード","kind":"計画相談支援","capacity":5.0,"layer":"welfare","source":"国土数値情報 P14 福祉施設（定員つき）"}},{"type":"Feature","geometry":{"type":"Point","coordinates":[139.606259,35.646483]},"properties":{"name":"世田谷区相談支援　ポミエ","kind":"計画相談支援","capacity":5.0,"layer":"welfare","source":"国土数値情報 P14 福祉施設（定員つき）"}},{"type":"Feature","geometry":{"type":"Point","coordinates":[139.683825,35.706643]},"properties":{"name":"相談支援事業所虹の木","kind":"計画相談支援","capacity":5.0,"layer":"welfare","source":"国土数値情報 P14 福祉施設（定員つき）"}},{"type":"Feature","geometry":{"type":"Point","coordinates":[139.676703,35.619828]},"properties":{"name":"指定相談支援アットコレット都立大","kind":"計画相談支援","capacity":5.0,"layer":"welfare","source":"国土数値情報 P14 福祉施設（定員つき）"}},{"type":"Feature","geometry":{"type":"Point","coordinates":[139.730167,35.609181]},"properties":{"name":"品川区障害者福祉課","kind":"障害福祉サービス事業所","capacity":15.0,"layer":"welfare","source":"国土数値情報 P14 福祉施設（定員つき）"}},{"type":"Feature","geometry":{"type":"Point","coordinates":[139.700651,35.631059]},"properties":{"name":"相談支援ガブリエル","kind":"計画相談支援","capacity":5.0,"layer":"welfare","source":"国土数値情報 P14 福祉施設（定員つき）"}},{"type":"Feature","geometry":{"type":"Point","coordinates":[139.575932,35.631384]},"properties":{"name":"狛江市児童発達支援センター","kind":"児童発達支援","capacity":10.0,"layer":"welfare","source":"国土数値情報 P14 福祉施設（定員つき）"}},{"type":"Feature","geometry":{"type":"Point","coordinates":[139.611004,35.703307]},"properties":{"name":"杉並区立杉並視覚障害者会館","kind":"障害福祉サービス事業所","capacity":15.0,"layer":"welfare","source":"国土数値情報 P14 福祉施設（定員つき）"}},{"type":"Feature","geometry":{"type":"Point","coordinates":[139.683782,35.687954]},"properties":{"name":"ひまわりホーム","kind":"障害福祉サービス事業所","capacity":15.0,"layer":"welfare","source":"国土数値情報 P14 福祉施設（定員つき）"}},{"type":"Feature","geometry":{"type":"Point","coordinates":[139.706405,35.709909]},"properties":{"name":"諏訪ハウス","kind":"障害福祉サービス事業所","capacity":15.0,"layer":"welfare","source":"国土数値情報 P14 福祉施設（定員つき）"}},{"type":"Feature","geometry":{"type":"Point","coordinates":[139.667871,35.627513]},"properties":{"name":"目黒区東が丘障害福祉施設(東が丘あじさいホーム)","kind":"障害福祉サービス事業所","capacity":15.0,"layer":"welfare","source":"国土数値情報 P14 福祉施設（定員つき）"}},{"type":"Feature","geometry":{"type":"Point","coordinates":[139.744806,35.607294]},"properties":{"name":"品川区立障害児者総合支援施設(訪問系サービス)","kind":"障害福祉サービス事業所","capacity":15.0,"layer":"welfare","source":"国土数値情報 P14 福祉施設（定員つき）"}},{"type":"Feature","geometry":{"type":"Point","coordinates":[139.698273,35.64149]},"properties":{"name":"社会福祉法人目黒区社会福祉協議会　障害福祉サービスセンター","kind":"障害福祉サービス事業所","capacity":15.0,"layer":"welfare","source":"国土数値情報 P14 福祉施設（定員つき）"}},{"type":"Feature","geometry":{"type":"Point","coordinates":[139.604221,35.656696]},"properties":{"name":"障害福祉ケアなかよく","kind":"障害福祉サービス事業所","capacity":15.0,"layer":"welfare","source":"国土数値情報 P14 福祉施設（定員つき）"}},{"type":"Feature","geometry":{"type":"Point","coordinates":[139.677474,35.629705]},"properties":{"name":"はじめたろう","kind":"障害福祉サービス事業所","capacity":15.0,"layer":"welfare","source":"国土数値情報 P14 福祉施設（定員つき）"}},{"type":"Feature","geometry":{"type":"Point","coordinates":[139.705782,35.683354]},"properties":{"name":"障害児移動支援事業所のぶ","kind":"障害福祉サービス事業所","capacity":15.0,"layer":"welfare","source":"国土数値情報 P14 福祉施設（定員つき）"}},{"type":"Feature","geometry":{"type":"Point","coordinates":[139.665831,35.703693]},"properties":{"name":"中盲ナビックス居宅介護事業所","kind":"居宅介護","capacity":5.0,"layer":"welfare","source":"国土数値情報 P14 福祉施設（定員つき）"}},{"type":"Feature","geometry":{"type":"Point","coordinates":[139.645774,35.694379]},"properties":{"name":"障害者ヘルプ友愛","kind":"障害福祉サービス事業所","capacity":15.0,"layer":"welfare","source":"国土数値情報 P14 福祉施設（定員つき）"}},{"type":"Feature","geometry":{"type":"Point","coordinates":[139.597276,35.706277]},"properties":{"name":"居宅・同行援護事業所アンサンブル","kind":"同行援護","capacity":5.0,"layer":"welfare","source":"国土数値情報 P14 福祉施設（定員つき）"}},{"type":"Feature","geometry":{"type":"Point","coordinates":[139.561781,35.694819]},"properties":{"name":"特定非営利活動法人障害者生活支援センターインみたか","kind":"障害福祉サービス事業所","capacity":15.0,"layer":"welfare","source":"国土数値情報 P14 福祉施設（定員つき）"}},{"type":"Feature","geometry":{"type":"Point","coordinates":[139.697555,35.702172]},"properties":{"name":"ＪＢＦＡ同行援護サービス","kind":"同行援護","capacity":5.0,"layer":"welfare","source":"国土数値情報 P14 福祉施設（定員つき）"}},{"type":"Feature","geometry":{"type":"Point","coordinates":[139.734934,35.670352]},"properties":{"name":"家庭授産奨励会","kind":"就労継続支援B型","capacity":20.0,"layer":"welfare","source":"国土数値情報 P14 福祉施設（定員つき）"}},{"type":"Feature","geometry":{"type":"Point","coordinates":[139.737907,35.572635]},"properties":{"name":"城南地域生活支援センター","kind":"地域活動支援センター","capacity":20.0,"layer":"welfare","source":"国土数値情報 P14 福祉施設（定員つき）"}},{"type":"Feature","geometry":{"type":"Point","coordinates":[139.562541,35.649332]},"properties":{"name":"調布市知的障害者グループホームすてっぷ","kind":"共同生活援助","capacity":10.0,"layer":"welfare","source":"国土数値情報 P14 福祉施設（定員つき）"}},{"type":"Feature","geometry":{"type":"Point","coordinates":[139.69658,35.577842]},"properties":{"name":"障害者グループホームいずみ","kind":"共同生活援助","capacity":10.0,"layer":"welfare","source":"国土数値情報 P14 福祉施設（定員つき）"}},{"type":"Feature","geometry":{"type":"Point","coordinates":[139.744806,35.607294]},"properties":{"name":"品川区立障害児者総合支援施設　短期入所","kind":"短期入所","capacity":8.0,"layer":"welfare","source":"国土数値情報 P14 福祉施設（定員つき）"}},{"type":"Feature","geometry":{"type":"Point","coordinates":[139.718323,35.579263]},"properties":{"name":"大田区立障がい者総合サポートセンター　短期入所","kind":"短期入所","capacity":8.0,"layer":"welfare","source":"国土数値情報 P14 福祉施設（定員つき）"}},{"type":"Feature","geometry":{"type":"Point","coordinates":[139.644839,35.611035]},"properties":{"name":"世田谷区立身体障害者自立体験ホームなかまっち","kind":"障害福祉サービス事業所","capacity":15.0,"layer":"welfare","source":"国土数値情報 P14 福祉施設（定員つき）"}},{"type":"Feature","geometry":{"type":"Point","coordinates":[139.722938,35.65892]},"properties":{"name":"就労継続支援Ｂ型　MUSE935","kind":"就労継続支援B型","capacity":20.0,"layer":"welfare","source":"国土数値情報 P14 福祉施設（定員つき）"}},{"type":"Feature","geometry":{"type":"Point","coordinates":[139.735091,35.643006]},"properties":{"name":"港区立精神障害者支援センター就労継続支援事業","kind":"就労継続支援B型","capacity":20.0,"layer":"welfare","source":"国土数値情報 P14 福祉施設（定員つき）"}},{"type":"Feature","geometry":{"type":"Point","coordinates":[139.717403,35.703728]},"properties":{"name":"新宿あした作業所","kind":"就労継続支援B型","capacity":20.0,"layer":"welfare","source":"国土数値情報 P14 福祉施設（定員つき）"}},{"type":"Feature","geometry":{"type":"Point","coordinates":[139.724742,35.690341]},"properties":{"name":"就労移行支援事業所ルーツ","kind":"就労移行支援","capacity":20.0,"layer":"welfare","source":"国土数値情報 P14 福祉施設（定員つき）"}},{"type":"Feature","geometry":{"type":"Point","coordinates":[139.700444,35.605015]},"properties":{"name":"品川区立心身障害者福祉会館","kind":"障害福祉サービス事業所","capacity":15.0,"layer":"welfare","source":"国土数値情報 P14 福祉施設（定員つき）"}},{"type":"Feature","geometry":{"type":"Point","coordinates":[139.719399,35.62349]},"properties":{"name":"就労移行支援事業所　サンライト","kind":"就労移行支援","capacity":20.0,"layer":"welfare","source":"国土数値情報 P14 福祉施設（定員つき）"}},{"type":"Feature","geometry":{"type":"Point","coordinates":[139.738883,35.615225]},"properties":{"name":"就労継続支援B型事業所　TODAY南品川","kind":"就労継続支援B型","capacity":20.0,"layer":"welfare","source":"国土数値情報 P14 福祉施設（定員つき）"}},{"type":"Feature","geometry":{"type":"Point","coordinates":[139.744806,35.607294]},"properties":{"name":"品川区立障害児者総合支援施設","kind":"障害福祉サービス事業所","capacity":15.0,"layer":"welfare","source":"国土数値情報 P14 福祉施設（定員つき）"}},{"type":"Feature","geometry":{"type":"Point","coordinates":[139.719978,35.628212]},"properties":{"name":"リファイン就労支援センター五反田","kind":"就労継続支援B型","capacity":20.0,"layer":"welfare","source":"国土数値情報 P14 福祉施設（定員つき）"}},{"type":"Feature","geometry":{"type":"Point","coordinates":[139.667871,35.627513]},"properties":{"name":"目黒区東が丘障害福祉施設","kind":"障害福祉サービス事業所","capacity":15.0,"layer":"welfare","source":"国土数値情報 P14 福祉施設（定員つき）"}},{"type":"Feature","geometry":{"type":"Point","coordinates":[139.689004,35.630959]},"properties":{"name":"あかねの会目黒就労支援室","kind":"就労継続支援B型","capacity":20.0,"layer":"welfare","source":"国土数値情報 P14 福祉施設（定員つき）"}},{"type":"Feature","geometry":{"type":"Point","coordinates":[139.701598,35.595567]},"properties":{"name":"大田区立上池台障害者福祉会館　生活介護室","kind":"生活介護","capacity":20.0,"layer":"welfare","source":"国土数値情報 P14 福祉施設（定員つき）"}},{"type":"Feature","geometry":{"type":"Point","coordinates":[139.613738,35.635711]},"properties":{"name":"友愛デイサービスセンター　身体障害者生活介護事業","kind":"生活介護","capacity":20.0,"layer":"welfare","source":"国土数値情報 P14 福祉施設（定員つき）"}},{"type":"Feature","geometry":{"type":"Point","coordinates":[139.587392,35.63756]},"properties":{"name":"就労継続支援B型事業所　TODAY喜多見","kind":"就労継続支援B型","capacity":20.0,"layer":"welfare","source":"国土数値情報 P14 福祉施設（定員つき）"}},{"type":"Feature","geometry":{"type":"Point","coordinates":[139.659307,35.632371]},"properties":{"name":"就労移行支援事業所　グディ","kind":"就労移行支援","capacity":20.0,"layer":"welfare","source":"国土数値情報 P14 福祉施設（定員つき）"}},{"type":"Feature","geometry":{"type":"Point","coordinates":[139.650726,35.657153]},"properties":{"name":"障害者支援施設　梅ヶ丘","kind":"障害福祉サービス事業所","capacity":15.0,"layer":"welfare","source":"国土数値情報 P14 福祉施設（定員つき）"}},{"type":"Feature","geometry":{"type":"Point","coordinates":[139.659307,35.632371]},"properties":{"name":"就労移行支援事業所　グティ","kind":"就労移行支援","capacity":20.0,"layer":"welfare","source":"国土数値情報 P14 福祉施設（定員つき）"}},{"type":"Feature","geometry":{"type":"Point","coordinates":[139.716369,35.647604]},"properties":{"name":"渋谷区立新橋作業所","kind":"就労継続支援B型","capacity":20.0,"layer":"welfare","source":"国土数値情報 P14 福祉施設（定員つき）"}},{"type":"Feature","geometry":{"type":"Point","coordinates":[139.710951,35.652269]},"properties":{"name":"福祉作業所おかし屋ぱれっと","kind":"就労継続支援B型","capacity":20.0,"layer":"welfare","source":"国土数値情報 P14 福祉施設（定員つき）"}},{"type":"Feature","geometry":{"type":"Point","coordinates":[139.66627,35.67445]},"properties":{"name":"ホープ就労支援センター渋谷","kind":"就労継続支援B型","capacity":20.0,"layer":"welfare","source":"国土数値情報 P14 福祉施設（定員つき）"}},{"type":"Feature","geometry":{"type":"Point","coordinates":[139.702743,35.65766]},"properties":{"name":"就労移行支援事業所　マナビト","kind":"就労移行支援","capacity":20.0,"layer":"welfare","source":"国土数値情報 P14 福祉施設（定員つき）"}},{"type":"Feature","geometry":{"type":"Point","coordinates":[139.70754,35.655232]},"properties":{"name":"東京聴覚障害者支援事業所ＲＯＮＡスクール","kind":"障害福祉サービス事業所","capacity":15.0,"layer":"welfare","source":"国土数値情報 P14 福祉施設（定員つき）"}},{"type":"Feature","geometry":{"type":"Point","coordinates":[139.67412,35.68184]},"properties":{"name":"渋谷区立幡ヶ谷のぞみ作業所","kind":"就労継続支援B型","capacity":20.0,"layer":"welfare","source":"国土数値情報 P14 福祉施設（定員つき）"}},{"type":"Feature","geometry":{"type":"Point","coordinates":[139.707025,35.655452]},"properties":{"name":"就労移行支援　るりはり渋谷","kind":"就労移行支援","capacity":20.0,"layer":"welfare","source":"国土数値情報 P14 福祉施設（定員つき）"}},{"type":"Feature","geometry":{"type":"Point","coordinates":[139.702407,35.663264]},"properties":{"name":"就労移行支援事業所ワークフォー渋谷","kind":"就労移行支援","capacity":20.0,"layer":"welfare","source":"国土数値情報 P14 福祉施設（定員つき）"}},{"type":"Feature","geometry":{"type":"Point","coordinates":[139.70754,35.655232]},"properties":{"name":"東京聴覚障害者支援事業所ＲＯＮＡサポート","kind":"障害福祉サービス事業所","capacity":15.0,"layer":"welfare","source":"国土数値情報 P14 福祉施設（定員つき）"}},{"type":"Feature","geometry":{"type":"Point","coordinates":[139.670969,35.689944]},"properties":{"name":"中野区立弥生福祉作業所","kind":"就労継続支援B型","capacity":20.0,"layer":"welfare","source":"国土数値情報 P14 福祉施設（定員つき）"}},{"type":"Feature","geometry":{"type":"Point","coordinates":[139.683562,35.697278]},"properties":{"name":"翔和学園　大学部(自立訓練)","kind":"自立訓練（生活訓練）","capacity":20.0,"layer":"welfare","source":"国土数値情報 P14 福祉施設（定員つき）"}},{"type":"Feature","geometry":{"type":"Point","coordinates":[139.663502,35.70968]},"properties":{"name":"就労支援センター　ステッツ中野","kind":"就労継続支援B型","capacity":20.0,"layer":"welfare","source":"国土数値情報 P14 福祉施設（定員つき）"}},{"type":"Feature","geometry":{"type":"Point","coordinates":[139.647417,35.699053]},"properties":{"name":"障害者就労支援センター　どんまい福祉工房","kind":"就労継続支援B型","capacity":20.0,"layer":"welfare","source":"国土数値情報 P14 福祉施設（定員つき）"}},{"type":"Feature","geometry":{"type":"Point","coordinates":[139.629134,35.702471]},"properties":{"name":"杉並・あしたの会福祉作業所","kind":"就労継続支援B型","capacity":20.0,"layer":"welfare","source":"国土数値情報 P14 福祉施設（定員つき）"}},{"type":"Feature","geometry":{"type":"Point","coordinates":[139.59291,35.709024]},"properties":{"name":"作業所にしおぎ館","kind":"就労継続支援B型","capacity":20.0,"layer":"welfare","source":"国土数値情報 P14 福祉施設（定員つき）"}},{"type":"Feature","geometry":{"type":"Point","coordinates":[139.561715,35.704866]},"properties":{"name":"就労支援センターＭＥＷ","kind":"就労継続支援B型","capacity":20.0,"layer":"welfare","source":"国土数値情報 P14 福祉施設（定員つき）"}},{"type":"Feature","geometry":{"type":"Point","coordinates":[139.569446,35.705086]},"properties":{"name":"就労移行支援事業所　ＴＯＤＡＹ吉祥寺","kind":"就労移行支援","capacity":20.0,"layer":"welfare","source":"国土数値情報 P14 福祉施設（定員つき）"}},{"type":"Feature","geometry":{"type":"Point","coordinates":[139.561426,35.69648]},"properties":{"name":"就労移行支援事業所　ＴＯＤＡＹ三鷹","kind":"就労移行支援","capacity":20.0,"layer":"welfare","source":"国土数値情報 P14 福祉施設（定員つき）"}},{"type":"Feature","geometry":{"type":"Point","coordinates":[139.560401,35.651037]},"properties":{"name":"調布市知的障害者援護施設すまいる分室","kind":"障害福祉サービス事業所","capacity":15.0,"layer":"welfare","source":"国土数値情報 P14 福祉施設（定員つき）"}},{"type":"Feature","geometry":{"type":"Point","coordinates":[139.567836,35.633308]},"properties":{"name":"就労支援事業所メイ","kind":"就労継続支援B型","capacity":20.0,"layer":"welfare","source":"国土数値情報 P14 福祉施設（定員つき）"}},{"type":"Feature","geometry":{"type":"Point","coordinates":[139.567836,35.633308]},"properties":{"name":"生活介護事業所　ポンテ","kind":"生活介護","capacity":20.0,"layer":"welfare","source":"国土数値情報 P14 福祉施設（定員つき）"}},{"type":"Feature","geometry":{"type":"Point","coordinates":[139.698834,35.684492]},"properties":{"name":"相談支援センター樹音","kind":"計画相談支援","capacity":5.0,"layer":"welfare","source":"国土数値情報 P14 福祉施設（定員つき）"}},{"type":"Feature","geometry":{"type":"Point","coordinates":[139.712834,35.689045]},"properties":{"name":"相談支援事業所Ｓｅｒｅｃｕｓｕ新宿","kind":"計画相談支援","capacity":5.0,"layer":"welfare","source":"国土数値情報 P14 福祉施設（定員つき）"}},{"type":"Feature","geometry":{"type":"Point","coordinates":[139.561758,35.681539]},"properties":{"name":"三鷹市子ども発達支援センター","kind":"児童発達支援","capacity":10.0,"layer":"welfare","source":"国土数値情報 P14 福祉施設（定員つき）"}},{"type":"Feature","geometry":{"type":"Point","coordinates":[139.72754,35.650422]},"properties":{"name":"港区立児童発達支援センター","kind":"児童発達支援","capacity":10.0,"layer":"welfare","source":"国土数値情報 P14 福祉施設（定員つき）"}},{"type":"Feature","geometry":{"type":"Point","coordinates":[139.575932,35.631384]},"properties":{"name":"狛江市児童発達支援センター","kind":"児童発達支援","capacity":10.0,"layer":"welfare","source":"国土数値情報 P14 福祉施設（定員つき）"}},{"type":"Feature","geometry":{"type":"Point","coordinates":[139.618241,35.708582]},"properties":{"name":"杉並区立重症心身障害児通所施設わかば","kind":"障害福祉サービス事業所","capacity":15.0,"layer":"welfare","source":"国土数値情報 P14 福祉施設（定員つき）"}},{"type":"Feature","geometry":{"type":"Point","coordinates":[139.637349,35.653949]},"properties":{"name":"障害児保育園ヘレン経堂","kind":"障害福祉サービス事業所","capacity":15.0,"layer":"welfare","source":"国土数値情報 P14 福祉施設（定員つき）"}},{"type":"Feature","geometry":{"type":"Point","coordinates":[139.68918,35.680849]},"properties":{"name":"障害児保育園ヘレン初台","kind":"障害福祉サービス事業所","capacity":15.0,"layer":"welfare","source":"国土数値情報 P14 福祉施設（定員つき）"}},{"type":"Feature","geometry":{"type":"Point","coordinates":[139.732197,35.633999]},"properties":{"name":"児童発達支援・放課後等デイサービス　キッズプレイスたかなわだい","kind":"放課後等デイサービス","capacity":10.0,"layer":"welfare","source":"国土数値情報 P14 福祉施設（定員つき）"}},{"type":"Feature","geometry":{"type":"Point","coordinates":[139.589605,35.656989]},"properties":{"name":"放課後等デイサービス　わかば","kind":"放課後等デイサービス","capacity":10.0,"layer":"welfare","source":"国土数値情報 P14 福祉施設（定員つき）"}},{"type":"Feature","geometry":{"type":"Point","coordinates":[139.584855,35.703717]},"properties":{"name":"児童発達支援・放課後等デイサービス　ささえ","kind":"放課後等デイサービス","capacity":10.0,"layer":"welfare","source":"国土数値情報 P14 福祉施設（定員つき）"}},{"type":"Feature","geometry":{"type":"Point","coordinates":[139.648243,35.660869]},"properties":{"name":"放課後等デイサービス　らしさ","kind":"放課後等デイサービス","capacity":10.0,"layer":"welfare","source":"国土数値情報 P14 福祉施設（定員つき）"}},{"type":"Feature","geometry":{"type":"Point","coordinates":[139.730479,35.709479]},"properties":{"name":"放課後等デイサービス　あんプラス江戸川橋","kind":"放課後等デイサービス","capacity":10.0,"layer":"welfare","source":"国土数値情報 P14 福祉施設（定員つき）"}},{"type":"Feature","geometry":{"type":"Point","coordinates":[139.676821,35.664236]},"properties":{"name":"放課後等デイサービス　あいだっく","kind":"放課後等デイサービス","capacity":10.0,"layer":"welfare","source":"国土数値情報 P14 福祉施設（定員つき）"}},{"type":"Feature","geometry":{"type":"Point","coordinates":[139.562663,35.704967]},"properties":{"name":"子ども発達支援ルームおれんじ学園ｎｉｃｏ","kind":"児童発達支援","capacity":10.0,"layer":"welfare","source":"国土数値情報 P14 福祉施設（定員つき）"}},{"type":"Feature","geometry":{"type":"Point","coordinates":[139.6942,35.707336]},"properties":{"name":"放課後等デイサービス　アトリエたいよう","kind":"放課後等デイサービス","capacity":10.0,"layer":"welfare","source":"国土数値情報 P14 福祉施設（定員つき）"}},{"type":"Feature","geometry":{"type":"Point","coordinates":[139.707989,35.626585]},"properties":{"name":"放課後等デイサービス　いろのわ","kind":"放課後等デイサービス","capacity":10.0,"layer":"welfare","source":"国土数値情報 P14 福祉施設（定員つき）"}},{"type":"Feature","geometry":{"type":"Point","coordinates":[139.68463,35.595865]},"properties":{"name":"放課後等デイサービス　こどもラボ","kind":"放課後等デイサービス","capacity":10.0,"layer":"welfare","source":"国土数値情報 P14 福祉施設（定員つき）"}},{"type":"Feature","geometry":{"type":"Point","coordinates":[139.718323,35.579263]},"properties":{"name":"大田区立障がい者総合サポートセンター　放課後等デイサービス","kind":"放課後等デイサービス","capacity":10.0,"layer":"welfare","source":"国土数値情報 P14 福祉施設（定員つき）"}},{"type":"Feature","geometry":{"type":"Point","coordinates":[139.577227,35.663754]},"properties":{"name":"放課後等デイサービス　Ｍａｎａ(マナ)","kind":"放課後等デイサービス","capacity":10.0,"layer":"welfare","source":"国土数値情報 P14 福祉施設（定員つき）"}},{"type":"Feature","geometry":{"type":"Point","coordinates":[139.710356,35.616225]},"properties":{"name":"放課後等デイサービスえがお","kind":"放課後等デイサービス","capacity":10.0,"layer":"welfare","source":"国土数値情報 P14 福祉施設（定員つき）"}},{"type":"Feature","geometry":{"type":"Point","coordinates":[139.67303,35.621317]},"properties":{"name":"目黒区重症心身障害児通所支援事業所　あいりぃず","kind":"障害福祉サービス事業所","capacity":15.0,"layer":"welfare","source":"国土数値情報 P14 福祉施設（定員つき）"}},{"type":"Feature","geometry":{"type":"Point","coordinates":[139.561758,35.681539]},"properties":{"name":"三鷹市子ども発達支援センター","kind":"児童発達支援","capacity":10.0,"layer":"welfare","source":"国土数値情報 P14 福祉施設（定員つき）"}},{"type":"Feature","geometry":{"type":"Point","coordinates":[139.683526,35.683956]},"properties":{"name":"児童発達支援・放課後等デイサービス　マリリン　スポーツ塾　初台","kind":"放課後等デイサービス","capacity":10.0,"layer":"welfare","source":"国土数値情報 P14 福祉施設（定員つき）"}},{"type":"Feature","geometry":{"type":"Point","coordinates":[139.647744,35.677818]},"properties":{"name":"放課後等デイサービスくじら","kind":"放課後等デイサービス","capacity":10.0,"layer":"welfare","source":"国土数値情報 P14 福祉施設（定員つき）"}},{"type":"Feature","geometry":{"type":"Point","coordinates":[139.665831,35.703693]},"properties":{"name":"盲人自立センター陽光園","kind":"障害福祉サービス事業所","capacity":15.0,"layer":"welfare","source":"国土数値情報 P14 福祉施設（定員つき）"}},{"type":"Feature","geometry":{"type":"Point","coordinates":[139.697932,35.684525]},"properties":{"name":"渋谷区障害者福祉センター代々木の杜","kind":"地域活動支援センター","capacity":20.0,"layer":"welfare","source":"国土数値情報 P14 福祉施設（定員つき）"}},{"type":"Feature","geometry":{"type":"Point","coordinates":[139.72754,35.650422]},"properties":{"name":"港区立児童発達支援センター","kind":"児童発達支援","capacity":10.0,"layer":"welfare","source":"国土数値情報 P14 福祉施設（定員つき）"}},{"type":"Feature","geometry":{"type":"Point","coordinates":[139.649797,35.704127]},"properties":{"name":"ＮＰＯ法人　すぎなみ障害者生活支援コーディネイトセンター","kind":"障害福祉サービス事業所","capacity":15.0,"layer":"welfare","source":"国土数値情報 P14 福祉施設（定員つき）"}},{"type":"Feature","geometry":{"type":"Point","coordinates":[139.703456,35.693913]},"properties":{"name":"新宿区基幹相談支援センター","kind":"計画相談支援","capacity":5.0,"layer":"welfare","source":"国土数値情報 P14 福祉施設（定員つき）"}},{"type":"Feature","geometry":{"type":"Point","coordinates":[139.717276,35.69814]},"properties":{"name":"東京視覚障害者生活支援センター","kind":"障害福祉サービス事業所","capacity":15.0,"layer":"welfare","source":"国土数値情報 P14 福祉施設（定員つき）"}},{"type":"Feature","geometry":{"type":"Point","coordinates":[139.717403,35.703728]},"properties":{"name":"新宿区立障害者福祉センター","kind":"地域活動支援センター","capacity":20.0,"layer":"welfare","source":"国土数値情報 P14 福祉施設（定員つき）"}},{"type":"Feature","geometry":{"type":"Point","coordinates":[139.717403,35.703728]},"properties":{"name":"新宿区立新宿福祉作業所","kind":"就労継続支援B型","capacity":20.0,"layer":"welfare","source":"国土数値情報 P14 福祉施設（定員つき）"}},{"type":"Feature","geometry":{"type":"Point","coordinates":[139.725714,35.659616]},"properties":{"name":"社会福祉法人　家庭授産奨励会　西麻布作業所","kind":"就労継続支援B型","capacity":20.0,"layer":"welfare","source":"国土数値情報 P14 福祉施設（定員つき）"}},{"type":"Feature","geometry":{"type":"Point","coordinates":[139.725714,35.659616]},"properties":{"name":"西麻布作業所","kind":"就労継続支援B型","capacity":20.0,"layer":"welfare","source":"国土数値情報 P14 福祉施設（定員つき）"}},{"type":"Feature","geometry":{"type":"Point","coordinates":[139.591768,35.630056]},"properties":{"name":"ひかり作業所","kind":"就労継続支援B型","capacity":20.0,"layer":"welfare","source":"国土数値情報 P14 福祉施設（定員つき）"}},{"type":"Feature","geometry":{"type":"Point","coordinates":[139.567836,35.633308]},"properties":{"name":"あいとぴあ子ども発達教室”ぱる”","kind":"児童発達支援","capacity":10.0,"layer":"welfare","source":"国土数値情報 P14 福祉施設（定員つき）"}},{"type":"Feature","geometry":{"type":"Point","coordinates":[139.567836,35.633308]},"properties":{"name":"狛江市特定相談支援事業所サポート","kind":"計画相談支援","capacity":5.0,"layer":"welfare","source":"国土数値情報 P14 福祉施設（定員つき）"}},{"type":"Feature","geometry":{"type":"Point","coordinates":[139.563013,35.697503]},"properties":{"name":"三鷹ひまわり第三共同作業所","kind":"就労継続支援B型","capacity":20.0,"layer":"welfare","source":"国土数値情報 P14 福祉施設（定員つき）"}},{"type":"Feature","geometry":{"type":"Point","coordinates":[139.563108,35.692732]},"properties":{"name":"三鷹ひまわり第一共同作業所","kind":"就労継続支援B型","capacity":20.0,"layer":"welfare","source":"国土数値情報 P14 福祉施設（定員つき）"}},{"type":"Feature","geometry":{"type":"Point","coordinates":[139.571352,35.673192]},"properties":{"name":"相談支援事業所にじアート","kind":"計画相談支援","capacity":5.0,"layer":"welfare","source":"国土数値情報 P14 福祉施設（定員つき）"}},{"type":"Feature","geometry":{"type":"Point","coordinates":[139.719014,35.654525]},"properties":{"name":"日本赤十字社総合福祉センター　障害者支援施設　レクロス広尾","kind":"障害福祉サービス事業所","capacity":15.0,"layer":"welfare","source":"国土数値情報 P14 福祉施設（定員つき）"}},{"type":"Feature","geometry":{"type":"Point","coordinates":[139.721991,35.654731]},"properties":{"name":"宮代学園","kind":"障害福祉サービス事業所","capacity":15.0,"layer":"welfare","source":"国土数値情報 P14 福祉施設（定員つき）"}},{"type":"Feature","geometry":{"type":"Point","coordinates":[139.663928,35.675035]},"properties":{"name":"福祉作業所ふれんど","kind":"就労継続支援B型","capacity":20.0,"layer":"welfare","source":"国土数値情報 P14 福祉施設（定員つき）"}},{"type":"Feature","geometry":{"type":"Point","coordinates":[139.709487,35.671428]},"properties":{"name":"渋谷区障害者福祉センターはぁとぴあ原宿","kind":"地域活動支援センター","capacity":20.0,"layer":"welfare","source":"国土数値情報 P14 福祉施設（定員つき）"}},{"type":"Feature","geometry":{"type":"Point","coordinates":[139.709487,35.671428]},"properties":{"name":"渋谷区障害者福祉センターはぁとぴあ原宿","kind":"地域活動支援センター","capacity":20.0,"layer":"welfare","source":"国土数値情報 P14 福祉施設（定員つき）"}},{"type":"Feature","geometry":{"type":"Point","coordinates":[139.67412,35.68184]},"properties":{"name":"渋谷区立幡ケ谷授産場","kind":"就労継続支援B型","capacity":20.0,"layer":"welfare","source":"国土数値情報 P14 福祉施設（定員つき）"}},{"type":"Feature","geometry":{"type":"Point","coordinates":[139.712305,35.709522]},"properties":{"name":"西早稲田あした作業所","kind":"就労継続支援B型","capacity":20.0,"layer":"welfare","source":"国土数値情報 P14 福祉施設（定員つき）"}},{"type":"Feature","geometry":{"type":"Point","coordinates":[139.698156,35.708166]},"properties":{"name":"障害者支援施設　新宿けやき園","kind":"障害福祉サービス事業所","capacity":15.0,"layer":"welfare","source":"国土数値情報 P14 福祉施設（定員つき）"}},{"type":"Feature","geometry":{"type":"Point","coordinates":[139.637146,35.699754]},"properties":{"name":"杉並区児童発達相談係","kind":"障害福祉サービス事業所","capacity":15.0,"layer":"welfare","source":"国土数値情報 P14 福祉施設（定員つき）"}},{"type":"Feature","geometry":{"type":"Point","coordinates":[139.63571,35.704565]},"properties":{"name":"相談支援事業所　リリーフ","kind":"計画相談支援","capacity":5.0,"layer":"welfare","source":"国土数値情報 P14 福祉施設（定員つき）"}},{"type":"Feature","geometry":{"type":"Point","coordinates":[139.636391,35.707398]},"properties":{"name":"指定児童発達支援事業所　ぽるか","kind":"児童発達支援","capacity":10.0,"layer":"welfare","source":"国土数値情報 P14 福祉施設（定員つき）"}},{"type":"Feature","geometry":{"type":"Point","coordinates":[139.619795,35.68262]},"properties":{"name":"杉並区立こども発達センター","kind":"児童発達支援","capacity":10.0,"layer":"welfare","source":"国土数値情報 P14 福祉施設（定員つき）"}},{"type":"Feature","geometry":{"type":"Point","coordinates":[139.619795,35.68262]},"properties":{"name":"杉並区立こども発達センター","kind":"児童発達支援","capacity":10.0,"layer":"welfare","source":"国土数値情報 P14 福祉施設（定員つき）"}},{"type":"Feature","geometry":{"type":"Point","coordinates":[139.617842,35.689676]},"properties":{"name":"杉並区障害者雇用支援センター","kind":"障害福祉サービス事業所","capacity":15.0,"layer":"welfare","source":"国土数値情報 P14 福祉施設（定員つき）"}},{"type":"Feature","geometry":{"type":"Point","coordinates":[139.654427,35.701318]},"properties":{"name":"朝焼け相談支援事業所","kind":"計画相談支援","capacity":5.0,"layer":"welfare","source":"国土数値情報 P14 福祉施設（定員つき）"}},{"type":"Feature","geometry":{"type":"Point","coordinates":[139.649797,35.704127]},"properties":{"name":"ＮＰＯ法人　すぎなみ障害者生活支援コーディネートセンター","kind":"障害福祉サービス事業所","capacity":15.0,"layer":"welfare","source":"国土数値情報 P14 福祉施設（定員つき）"}},{"type":"Feature","geometry":{"type":"Point","coordinates":[139.650493,35.704936]},"properties":{"name":"相談支援事業所　ＨＵＧ　はぐ","kind":"計画相談支援","capacity":5.0,"layer":"welfare","source":"国土数値情報 P14 福祉施設（定員つき）"}},{"type":"Feature","geometry":{"type":"Point","coordinates":[139.657779,35.708957]},"properties":{"name":"障害者支援施設　マイルドハート高円寺","kind":"障害福祉サービス事業所","capacity":15.0,"layer":"welfare","source":"国土数値情報 P14 福祉施設（定員つき）"}},{"type":"Feature","geometry":{"type":"Point","coordinates":[139.657779,35.708957]},"properties":{"name":"相談支援事業所　なでしこ","kind":"計画相談支援","capacity":5.0,"layer":"welfare","source":"国土数値情報 P14 福祉施設（定員つき）"}},{"type":"Feature","geometry":{"type":"Point","coordinates":[139.592721,35.698276]},"properties":{"name":"ひまわり作業所","kind":"就労継続支援B型","capacity":20.0,"layer":"welfare","source":"国土数値情報 P14 福祉施設（定員つき）"}},{"type":"Feature","geometry":{"type":"Point","coordinates":[139.628848,35.702131]},"properties":{"name":"ゆい企画(就労移行)","kind":"就労移行支援","capacity":20.0,"layer":"welfare","source":"国土数値情報 P14 福祉施設（定員つき）"}},{"type":"Feature","geometry":{"type":"Point","coordinates":[139.616593,35.708353]},"properties":{"name":"障害児保育園ヘレン","kind":"障害福祉サービス事業所","capacity":15.0,"layer":"welfare","source":"国土数値情報 P14 福祉施設（定員つき）"}},{"type":"Feature","geometry":{"type":"Point","coordinates":[139.660192,35.674044]},"properties":{"name":"あすなろ作業所","kind":"就労継続支援B型","capacity":20.0,"layer":"welfare","source":"国土数値情報 P14 福祉施設（定員つき）"}},{"type":"Feature","geometry":{"type":"Point","coordinates":[139.701598,35.595567]},"properties":{"name":"大田区立上池台障害者福祉会館","kind":"障害福祉サービス事業所","capacity":15.0,"layer":"welfare","source":"国土数値情報 P14 福祉施設（定員つき）"}},{"type":"Feature","geometry":{"type":"Point","coordinates":[139.701598,35.595567]},"properties":{"name":"大田区立上池台障害者福祉会館　身体障害者作業室","kind":"障害福祉サービス事業所","capacity":15.0,"layer":"welfare","source":"国土数値情報 P14 福祉施設（定員つき）"}},{"type":"Feature","geometry":{"type":"Point","coordinates":[139.690364,35.573027]},"properties":{"name":"大田区立こども発達センターわかばの家","kind":"児童発達支援","capacity":10.0,"layer":"welfare","source":"国土数値情報 P14 福祉施設（定員つき）"}},{"type":"Feature","geometry":{"type":"Point","coordinates":[139.690364,35.573027]},"properties":{"name":"大田区立こども発達センターわかばの家　児童発達支援事業所","kind":"児童発達支援","capacity":10.0,"layer":"welfare","source":"国土数値情報 P14 福祉施設（定員つき）"}},{"type":"Feature","geometry":{"type":"Point","coordinates":[139.690364,35.573027]},"properties":{"name":"大田区立こども発達センターわかばの家　相談支援事業所","kind":"児童発達支援","capacity":10.0,"layer":"welfare","source":"国土数値情報 P14 福祉施設（定員つき）"}},{"type":"Feature","geometry":{"type":"Point","coordinates":[139.730575,35.574969]},"properties":{"name":"大田区立大田福祉作業所","kind":"就労継続支援B型","capacity":20.0,"layer":"welfare","source":"国土数値情報 P14 福祉施設（定員つき）"}},{"type":"Feature","geometry":{"type":"Point","coordinates":[139.711934,35.573483]},"properties":{"name":"はすの実作業所","kind":"就労継続支援B型","capacity":20.0,"layer":"welfare","source":"国土数値情報 P14 福祉施設（定員つき）"}},{"type":"Feature","geometry":{"type":"Point","coordinates":[139.718323,35.579263]},"properties":{"name":"大田区立障がい者総合サポートセンター","kind":"障害福祉サービス事業所","capacity":15.0,"layer":"welfare","source":"国土数値情報 P14 福祉施設（定員つき）"}},{"type":"Feature","geometry":{"type":"Point","coordinates":[139.674228,35.700354]},"properties":{"name":"社会福祉法人中野あいいく会　中部すこやか障害者相談支援事業所","kind":"計画相談支援","capacity":5.0,"layer":"welfare","source":"国土数値情報 P14 福祉施設（定員つき）"}},{"type":"Feature","geometry":{"type":"Point","coordinates":[139.674228,35.700354]},"properties":{"name":"中野区仲町就労支援事業所","kind":"就労継続支援B型","capacity":20.0,"layer":"welfare","source":"国土数値情報 P14 福祉施設（定員つき）"}},{"type":"Feature","geometry":{"type":"Point","coordinates":[139.744806,35.607294]},"properties":{"name":"品川区立品川児童学園","kind":"障害福祉サービス事業所","capacity":15.0,"layer":"welfare","source":"国土数値情報 P14 福祉施設（定員つき）"}},{"type":"Feature","geometry":{"type":"Point","coordinates":[139.690934,35.630807]},"properties":{"name":"目黒区すくすくのびのび園","kind":"障害福祉サービス事業所","capacity":15.0,"layer":"welfare","source":"国土数値情報 P14 福祉施設（定員つき）"}},{"type":"Feature","geometry":{"type":"Point","coordinates":[139.690934,35.630807]},"properties":{"name":"目黒区児童発達支援センター　相談支援ひまわり","kind":"児童発達支援","capacity":10.0,"layer":"welfare","source":"国土数値情報 P14 福祉施設（定員つき）"}},{"type":"Feature","geometry":{"type":"Point","coordinates":[139.72207,35.633126]},"properties":{"name":"就労継続支援B型　ガーデン","kind":"就労継続支援B型","capacity":20.0,"layer":"welfare","source":"国土数値情報 P14 福祉施設（定員つき）"}},{"type":"Feature","geometry":{"type":"Point","coordinates":[139.720288,35.596206]},"properties":{"name":"ふれあい作業所西大井","kind":"就労継続支援B型","capacity":20.0,"layer":"welfare","source":"国土数値情報 P14 福祉施設（定員つき）"}},{"type":"Feature","geometry":{"type":"Point","coordinates":[139.727675,35.609271]},"properties":{"name":"ふれあい作業所西品川","kind":"就労継続支援B型","capacity":20.0,"layer":"welfare","source":"国土数値情報 P14 福祉施設（定員つき）"}},{"type":"Feature","geometry":{"type":"Point","coordinates":[139.682771,35.624006]},"properties":{"name":"目黒区高次脳機能障害者支援センターいきいき＊せかんど","kind":"障害福祉サービス事業所","capacity":15.0,"layer":"welfare","source":"国土数値情報 P14 福祉施設（定員つき）"}},{"type":"Feature","geometry":{"type":"Point","coordinates":[139.678838,35.643055]},"properties":{"name":"世田谷区立世田谷福祉作業所","kind":"就労継続支援B型","capacity":20.0,"layer":"welfare","source":"国土数値情報 P14 福祉施設（定員つき）"}},{"type":"Feature","geometry":{"type":"Point","coordinates":[139.628104,35.610302]},"properties":{"name":"世田谷区立玉川福祉作業所","kind":"就労継続支援B型","capacity":20.0,"layer":"welfare","source":"国土数値情報 P14 福祉施設（定員つき）"}},{"type":"Feature","geometry":{"type":"Point","coordinates":[139.659141,35.633523]},"properties":{"name":"ナイスケア世田谷相談支援センター","kind":"計画相談支援","capacity":5.0,"layer":"welfare","source":"国土数値情報 P14 福祉施設（定員つき）"}},{"type":"Feature","geometry":{"type":"Point","coordinates":[139.672942,35.650916]},"properties":{"name":"あけぼの学園","kind":"障害福祉サービス事業所","capacity":15.0,"layer":"welfare","source":"国土数値情報 P14 福祉施設（定員つき）"}},{"type":"Feature","geometry":{"type":"Point","coordinates":[139.672942,35.650916]},"properties":{"name":"重症心身障害児療育相談センター","kind":"計画相談支援","capacity":5.0,"layer":"welfare","source":"国土数値情報 P14 福祉施設（定員つき）"}},{"type":"Feature","geometry":{"type":"Point","coordinates":[139.662023,35.650314]},"properties":{"name":"相談支援センターわんぱく","kind":"計画相談支援","capacity":5.0,"layer":"welfare","source":"国土数値情報 P14 福祉施設（定員つき）"}},{"type":"Feature","geometry":{"type":"Point","coordinates":[139.649328,35.656215]},"properties":{"name":"白梅福祉作業所","kind":"就労継続支援B型","capacity":20.0,"layer":"welfare","source":"国土数値情報 P14 福祉施設（定員つき）"}},{"type":"Feature","geometry":{"type":"Point","coordinates":[139.619757,35.666932]},"properties":{"name":"喫茶室パイン作業所Ⅰ","kind":"就労継続支援B型","capacity":20.0,"layer":"welfare","source":"国土数値情報 P14 福祉施設（定員つき）"}},{"type":"Feature","geometry":{"type":"Point","coordinates":[139.626098,35.630299]},"properties":{"name":"就労支援施設ゆに(ＵＮＩ)","kind":"就労継続支援B型","capacity":20.0,"layer":"welfare","source":"国土数値情報 P14 福祉施設（定員つき）"}},{"type":"Feature","geometry":{"type":"Point","coordinates":[139.66022,35.618589]},"properties":{"name":"エムツー・サポート指定特定相談支援事業所","kind":"計画相談支援","capacity":5.0,"layer":"welfare","source":"国土数値情報 P14 福祉施設（定員つき）"}},{"type":"Feature","geometry":{"type":"Point","coordinates":[139.620977,35.648043]},"properties":{"name":"子どもの生活研究所　めばえ学園","kind":"障害福祉サービス事業所","capacity":15.0,"layer":"welfare","source":"国土数値情報 P14 福祉施設（定員つき）"}},{"type":"Feature","geometry":{"type":"Point","coordinates":[139.625382,35.657376]},"properties":{"name":"世田谷区立障害者就労支援センターすきっぷ","kind":"就労継続支援B型","capacity":20.0,"layer":"welfare","source":"国土数値情報 P14 福祉施設（定員つき）"}},{"type":"Feature","geometry":{"type":"Point","coordinates":[139.604691,35.642814]},"properties":{"name":"相談支援センターあい","kind":"計画相談支援","capacity":5.0,"layer":"welfare","source":"国土数値情報 P14 福祉施設（定員つき）"}},{"type":"Feature","geometry":{"type":"Point","coordinates":[139.613019,35.634681]},"properties":{"name":"世田谷区発達障害相談・療育センター","kind":"障害福祉サービス事業所","capacity":15.0,"layer":"welfare","source":"国土数値情報 P14 福祉施設（定員つき）"}},{"type":"Feature","geometry":{"type":"Point","coordinates":[139.613019,35.634681]},"properties":{"name":"世田谷区発達障害相談・療育センター相談支援事業所","kind":"計画相談支援","capacity":5.0,"layer":"welfare","source":"国土数値情報 P14 福祉施設（定員つき）"}},{"type":"Feature","geometry":{"type":"Point","coordinates":[139.608399,35.675526]},"properties":{"name":"世田谷区立烏山福祉作業所","kind":"就労継続支援B型","capacity":20.0,"layer":"welfare","source":"国土数値情報 P14 福祉施設（定員つき）"}},{"type":"Feature","geometry":{"type":"Point","coordinates":[139.630513,35.626922]},"properties":{"name":"用賀福祉作業所","kind":"就労継続支援B型","capacity":20.0,"layer":"welfare","source":"国土数値情報 P14 福祉施設（定員つき）"}},{"type":"Feature","geometry":{"type":"Point","coordinates":[139.703456,35.693913]},"properties":{"name":"新宿区基幹相談支援センター","kind":"計画相談支援","capacity":5.0,"layer":"welfare","source":"国土数値情報 P14 福祉施設（定員つき）"}},{"type":"Feature","geometry":{"type":"Point","coordinates":[139.613019,35.634681]},"properties":{"name":"世田谷区発達障害相談・療育センター相談支援事業所","kind":"計画相談支援","capacity":5.0,"layer":"welfare","source":"国土数値情報 P14 福祉施設（定員つき）"}},{"type":"Feature","geometry":{"type":"Point","coordinates":[139.576032,35.63043]},"properties":{"name":"相談支援センターみずき","kind":"計画相談支援","capacity":5.0,"layer":"welfare","source":"国土数値情報 P14 福祉施設（定員つき）"}},{"type":"Feature","geometry":{"type":"Point","coordinates":[139.657779,35.708957]},"properties":{"name":"相談支援事業所　なでしこ","kind":"計画相談支援","capacity":5.0,"layer":"welfare","source":"国土数値情報 P14 福祉施設（定員つき）"}},{"type":"Feature","geometry":{"type":"Point","coordinates":[139.735921,35.607035]},"properties":{"name":"相談支援事業所パルレ","kind":"計画相談支援","capacity":5.0,"layer":"welfare","source":"国土数値情報 P14 福祉施設（定員つき）"}},{"type":"Feature","geometry":{"type":"Point","coordinates":[139.654427,35.701318]},"properties":{"name":"朝焼け相談支援事業所","kind":"計画相談支援","capacity":5.0,"layer":"welfare","source":"国土数値情報 P14 福祉施設（定員つき）"}},{"type":"Feature","geometry":{"type":"Point","coordinates":[139.567836,35.633308]},"properties":{"name":"狛江市特定相談支援事業所サポート","kind":"計画相談支援","capacity":5.0,"layer":"welfare","source":"国土数値情報 P14 福祉施設（定員つき）"}},{"type":"Feature","geometry":{"type":"Point","coordinates":[139.662023,35.650314]},"properties":{"name":"相談支援センターわんぱく","kind":"計画相談支援","capacity":5.0,"layer":"welfare","source":"国土数値情報 P14 福祉施設（定員つき）"}},{"type":"Feature","geometry":{"type":"Point","coordinates":[139.659141,35.633523]},"properties":{"name":"ナイスケア世田谷相談支援センター","kind":"計画相談支援","capacity":5.0,"layer":"welfare","source":"国土数値情報 P14 福祉施設（定員つき）"}},{"type":"Feature","geometry":{"type":"Point","coordinates":[139.666237,35.634563]},"properties":{"name":"相談支援センター架け橋","kind":"計画相談支援","capacity":5.0,"layer":"welfare","source":"国土数値情報 P14 福祉施設（定員つき）"}},{"type":"Feature","geometry":{"type":"Point","coordinates":[139.674228,35.700354]},"properties":{"name":"社会福祉法人中野あいいく会　中部すこやか障害者相談支援事業所","kind":"計画相談支援","capacity":5.0,"layer":"welfare","source":"国土数値情報 P14 福祉施設（定員つき）"}},{"type":"Feature","geometry":{"type":"Point","coordinates":[139.575093,35.702868]},"properties":{"name":"相談支援事業所ハローワールド","kind":"計画相談支援","capacity":5.0,"layer":"welfare","source":"国土数値情報 P14 福祉施設（定員つき）"}},{"type":"Feature","geometry":{"type":"Point","coordinates":[139.724225,35.58099]},"properties":{"name":"相談支援事業所ここん","kind":"計画相談支援","capacity":5.0,"layer":"welfare","source":"国土数値情報 P14 福祉施設（定員つき）"}},{"type":"Feature","geometry":{"type":"Point","coordinates":[139.633778,35.619055]},"properties":{"name":"相談支援　ツナカン","kind":"計画相談支援","capacity":5.0,"layer":"welfare","source":"国土数値情報 P14 福祉施設（定員つき）"}},{"type":"Feature","geometry":{"type":"Point","coordinates":[139.654007,35.698298]},"properties":{"name":"特定相談支援事業所エンカレッジ","kind":"計画相談支援","capacity":5.0,"layer":"welfare","source":"国土数値情報 P14 福祉施設（定員つき）"}},{"type":"Feature","geometry":{"type":"Point","coordinates":[139.608621,35.622776]},"properties":{"name":"相談支援アンジュ","kind":"計画相談支援","capacity":5.0,"layer":"welfare","source":"国土数値情報 P14 福祉施設（定員つき）"}},{"type":"Feature","geometry":{"type":"Point","coordinates":[139.615569,35.644602]},"properties":{"name":"ＴＡＫＵＭＩ　相談支援センター世田谷","kind":"計画相談支援","capacity":5.0,"layer":"welfare","source":"国土数値情報 P14 福祉施設（定員つき）"}},{"type":"Feature","geometry":{"type":"Point","coordinates":[139.698145,35.685713]},"properties":{"name":"相談支援事業所　ＡＨＩ　ソーシャルサポートオフィス","kind":"計画相談支援","capacity":5.0,"layer":"welfare","source":"国土数値情報 P14 福祉施設（定員つき）"}},{"type":"Feature","geometry":{"type":"Point","coordinates":[139.698511,35.664101]},"properties":{"name":"渋谷区障がい者基幹相談支援センター","kind":"計画相談支援","capacity":5.0,"layer":"welfare","source":"国土数値情報 P14 福祉施設（定員つき）"}},{"type":"Feature","geometry":{"type":"Point","coordinates":[139.649257,35.697428]},"properties":{"name":"相談支援事業所　あおぞら","kind":"計画相談支援","capacity":5.0,"layer":"welfare","source":"国土数値情報 P14 福祉施設（定員つき）"}},{"type":"Feature","geometry":{"type":"Point","coordinates":[139.718323,35.579263]},"properties":{"name":"大田区立障がい者総合サポートセンターＢ棟　障害児相談支援事業所","kind":"計画相談支援","capacity":5.0,"layer":"welfare","source":"国土数値情報 P14 福祉施設（定員つき）"}},{"type":"Feature","geometry":{"type":"Point","coordinates":[139.637154,35.652199]},"properties":{"name":"相談支援ウイング","kind":"計画相談支援","capacity":5.0,"layer":"welfare","source":"国土数値情報 P14 福祉施設（定員つき）"}},{"type":"Feature","geometry":{"type":"Point","coordinates":[139.604691,35.642814]},"properties":{"name":"相談支援センターあい","kind":"計画相談支援","capacity":5.0,"layer":"welfare","source":"国土数値情報 P14 福祉施設（定員つき）"}},{"type":"Feature","geometry":{"type":"Point","coordinates":[139.608243,35.642818]},"properties":{"name":"まつばらけやき相談支援センター","kind":"計画相談支援","capacity":5.0,"layer":"welfare","source":"国土数値情報 P14 福祉施設（定員つき）"}},{"type":"Feature","geometry":{"type":"Point","coordinates":[139.672942,35.650916]},"properties":{"name":"重症心身障害児療育相談センター","kind":"計画相談支援","capacity":5.0,"layer":"welfare","source":"国土数値情報 P14 福祉施設（定員つき）"}},{"type":"Feature","geometry":{"type":"Point","coordinates":[139.650493,35.704936]},"properties":{"name":"相談支援事業所　ＨＵＧ　はぐ","kind":"計画相談支援","capacity":5.0,"layer":"welfare","source":"国土数値情報 P14 福祉施設（定員つき）"}},{"type":"Feature","geometry":{"type":"Point","coordinates":[139.602464,35.673892]},"properties":{"name":"相談支援　ここから","kind":"計画相談支援","capacity":5.0,"layer":"welfare","source":"国土数値情報 P14 福祉施設（定員つき）"}},{"type":"Feature","geometry":{"type":"Point","coordinates":[139.68131,35.629708]},"properties":{"name":"たんぽぽの会　相談支援","kind":"計画相談支援","capacity":5.0,"layer":"welfare","source":"国土数値情報 P14 福祉施設（定員つき）"}},{"type":"Feature","geometry":{"type":"Point","coordinates":[139.584334,35.6912]},"properties":{"name":"相談支援事業所　結い","kind":"計画相談支援","capacity":5.0,"layer":"welfare","source":"国土数値情報 P14 福祉施設（定員つき）"}},{"type":"Feature","geometry":{"type":"Point","coordinates":[139.569492,35.678271]},"properties":{"name":"障がい者相談センター　つなぐ手","kind":"計画相談支援","capacity":5.0,"layer":"welfare","source":"国土数値情報 P14 福祉施設（定員つき）"}},{"type":"Feature","geometry":{"type":"Point","coordinates":[139.571352,35.673192]},"properties":{"name":"相談支援事業所にじアート","kind":"計画相談支援","capacity":5.0,"layer":"welfare","source":"国土数値情報 P14 福祉施設（定員つき）"}},{"type":"Feature","geometry":{"type":"Point","coordinates":[139.690364,35.573027]},"properties":{"name":"大田区立こども発達センターわかばの家　相談支援事業所","kind":"児童発達支援","capacity":10.0,"layer":"welfare","source":"国土数値情報 P14 福祉施設（定員つき）"}},{"type":"Feature","geometry":{"type":"Point","coordinates":[139.66022,35.618589]},"properties":{"name":"エムツー・サポート指定特定相談支援事業所","kind":"計画相談支援","capacity":5.0,"layer":"welfare","source":"国土数値情報 P14 福祉施設（定員つき）"}},{"type":"Feature","geometry":{"type":"Point","coordinates":[139.650726,35.657153]},"properties":{"name":"相談支援事業所　梅ヶ丘","kind":"計画相談支援","capacity":5.0,"layer":"welfare","source":"国土数値情報 P14 福祉施設（定員つき）"}},{"type":"Feature","geometry":{"type":"Point","coordinates":[139.697572,35.697081]},"properties":{"name":"相談支援事業所　Ｋａｉｅｎ新宿","kind":"計画相談支援","capacity":5.0,"layer":"welfare","source":"国土数値情報 P14 福祉施設（定員つき）"}},{"type":"Feature","geometry":{"type":"Point","coordinates":[139.637146,35.699754]},"properties":{"name":"杉並区児童発達相談係","kind":"障害福祉サービス事業所","capacity":15.0,"layer":"welfare","source":"国土数値情報 P14 福祉施設（定員つき）"}},{"type":"Feature","geometry":{"type":"Point","coordinates":[139.703649,35.661844]},"properties":{"name":"渋谷区子ども発達相談センター","kind":"児童発達支援","capacity":10.0,"layer":"welfare","source":"国土数値情報 P14 福祉施設（定員つき）"}},{"type":"Feature","geometry":{"type":"Point","coordinates":[139.690933,35.630804]},"properties":{"name":"目黒区児童発達支援センター　相談支援ひまわり","kind":"児童発達支援","capacity":10.0,"layer":"welfare","source":"国土数値情報 P14 福祉施設（定員つき）"}},{"type":"Feature","geometry":{"type":"Point","coordinates":[139.705181,35.573202]},"properties":{"name":"あかしろきいろ子ども発達相談るーむ","kind":"児童発達支援","capacity":10.0,"layer":"welfare","source":"国土数値情報 P14 福祉施設（定員つき）"}},{"type":"Feature","geometry":{"type":"Point","coordinates":[139.722938,35.65892]},"properties":{"name":"麻布メンタルヘルス指定相談支援事業所","kind":"計画相談支援","capacity":5.0,"layer":"welfare","source":"国土数値情報 P14 福祉施設（定員つき）"}},{"type":"Feature","geometry":{"type":"Point","coordinates":[139.650301,35.703576]},"properties":{"name":"相談支援　にこっと","kind":"計画相談支援","capacity":5.0,"layer":"welfare","source":"国土数値情報 P14 福祉施設（定員つき）"}},{"type":"Feature","geometry":{"type":"Point","coordinates":[139.653904,35.658748]},"properties":{"name":"相談支援センター　かりんとう","kind":"計画相談支援","capacity":5.0,"layer":"welfare","source":"国土数値情報 P14 福祉施設（定員つき）"}},{"type":"Feature","geometry":{"type":"Point","coordinates":[139.651342,35.666833]},"properties":{"name":"相棒相談支援センター","kind":"計画相談支援","capacity":5.0,"layer":"welfare","source":"国土数値情報 P14 福祉施設（定員つき）"}},{"type":"Feature","geometry":{"type":"Point","coordinates":[139.647744,35.677818]},"properties":{"name":"相談支援事業所かすみ草","kind":"計画相談支援","capacity":5.0,"layer":"welfare","source":"国土数値情報 P14 福祉施設（定員つき）"}},{"type":"Feature","geometry":{"type":"Point","coordinates":[139.668505,35.688172]},"properties":{"name":"南部すこやか障害者相談支援事業所","kind":"計画相談支援","capacity":5.0,"layer":"welfare","source":"国土数値情報 P14 福祉施設（定員つき）"}},{"type":"Feature","geometry":{"type":"Point","coordinates":[139.684824,35.589042]},"properties":{"name":"リトル　コールケア　相談支援事業所","kind":"計画相談支援","capacity":5.0,"layer":"welfare","source":"国土数値情報 P14 福祉施設（定員つき）"}},{"type":"Feature","geometry":{"type":"Point","coordinates":[139.701304,35.682943]},"properties":{"name":"相談支援センター樹音","kind":"計画相談支援","capacity":5.0,"layer":"welfare","source":"国土数値情報 P14 福祉施設（定員つき）"}},{"type":"Feature","geometry":{"type":"Point","coordinates":[139.664047,35.607319]},"properties":{"name":"相談支援事業所　青い鳥","kind":"計画相談支援","capacity":5.0,"layer":"welfare","source":"国土数値情報 P14 福祉施設（定員つき）"}},{"type":"Feature","geometry":{"type":"Point","coordinates":[139.674275,35.695384]},"properties":{"name":"相談支援事業所あいだっく","kind":"計画相談支援","capacity":5.0,"layer":"welfare","source":"国土数値情報 P14 福祉施設（定員つき）"}},{"type":"Feature","geometry":{"type":"Point","coordinates":[139.722309,35.655158]},"properties":{"name":"宮代学園相談支援センター","kind":"計画相談支援","capacity":5.0,"layer":"welfare","source":"国土数値情報 P14 福祉施設（定員つき）"}},{"type":"Feature","geometry":{"type":"Point","coordinates":[139.684427,35.610675]},"properties":{"name":"ナイスケア目黒相談支援センター","kind":"計画相談支援","capacity":5.0,"layer":"welfare","source":"国土数値情報 P14 福祉施設（定員つき）"}},{"type":"Feature","geometry":{"type":"Point","coordinates":[139.679569,35.576153]},"properties":{"name":"特定相談支援事業所　ワークスタッフ鵜の木","kind":"就労継続支援B型","capacity":20.0,"layer":"welfare","source":"国土数値情報 P14 福祉施設（定員つき）"}},{"type":"Feature","geometry":{"type":"Point","coordinates":[139.643355,35.669249]},"properties":{"name":"永福南社会福祉ガーデン　相談支援事業所","kind":"計画相談支援","capacity":5.0,"layer":"welfare","source":"国土数値情報 P14 福祉施設（定員つき）"}},{"type":"Feature","geometry":{"type":"Point","coordinates":[139.70754,35.655232]},"properties":{"name":"東京聴覚障害者支援事業所　ＲＯＮＡプラン","kind":"障害福祉サービス事業所","capacity":15.0,"layer":"welfare","source":"国土数値情報 P14 福祉施設（定員つき）"}},{"type":"Feature","geometry":{"type":"Point","coordinates":[139.569833,35.69329]},"properties":{"name":"障がい者相談センターともに","kind":"計画相談支援","capacity":5.0,"layer":"welfare","source":"国土数値情報 P14 福祉施設（定員つき）"}},{"type":"Feature","geometry":{"type":"Point","coordinates":[139.70853,35.615388]},"properties":{"name":"相談支援事業所えがお","kind":"計画相談支援","capacity":5.0,"layer":"welfare","source":"国土数値情報 P14 福祉施設（定員つき）"}},{"type":"Feature","geometry":{"type":"Point","coordinates":[139.741458,35.61812]},"properties":{"name":"相談支援事業所　アプリ北品川","kind":"計画相談支援","capacity":5.0,"layer":"welfare","source":"国土数値情報 P14 福祉施設（定員つき）"}},{"type":"Feature","geometry":{"type":"Point","coordinates":[139.700444,35.605015]},"properties":{"name":"品川区旗の台障害児者相談支援センター","kind":"計画相談支援","capacity":5.0,"layer":"welfare","source":"国土数値情報 P14 福祉施設（定員つき）"}},{"type":"Feature","geometry":{"type":"Point","coordinates":[139.744806,35.607294]},"properties":{"name":"品川区南品川障害児者相談支援センター","kind":"計画相談支援","capacity":5.0,"layer":"welfare","source":"国土数値情報 P14 福祉施設（定員つき）"}},{"type":"Feature","geometry":{"type":"Point","coordinates":[139.658099,35.709946]},"properties":{"name":"なごみ相談支援事業所","kind":"計画相談支援","capacity":5.0,"layer":"welfare","source":"国土数値情報 P14 福祉施設（定員つき）"}},{"type":"Feature","geometry":{"type":"Point","coordinates":[139.736124,35.664876]},"properties":{"name":"相談支援Ｋ-スタジオ","kind":"計画相談支援","capacity":5.0,"layer":"welfare","source":"国土数値情報 P14 福祉施設（定員つき）"}},{"type":"Feature","geometry":{"type":"Point","coordinates":[139.645347,35.697234]},"properties":{"name":"相談支援事業所　庵(いおり)","kind":"計画相談支援","capacity":5.0,"layer":"welfare","source":"国土数値情報 P14 福祉施設（定員つき）"}},{"type":"Feature","geometry":{"type":"Point","coordinates":[139.72754,35.650422]},"properties":{"name":"港区立障害者支援ホーム南麻布","kind":"障害福祉サービス事業所","capacity":15.0,"layer":"welfare","source":"国土数値情報 P14 福祉施設（定員つき）"}},{"type":"Feature","geometry":{"type":"Point","coordinates":[139.670731,35.699938]},"properties":{"name":"日本リック相談支援りんく中野事業所","kind":"計画相談支援","capacity":5.0,"layer":"welfare","source":"国土数値情報 P14 福祉施設（定員つき）"}},{"type":"Feature","geometry":{"type":"Point","coordinates":[139.708648,35.660451]},"properties":{"name":"相談支援事業所　クローバー渋谷","kind":"計画相談支援","capacity":5.0,"layer":"welfare","source":"国土数値情報 P14 福祉施設（定員つき）"}},{"type":"Feature","geometry":{"type":"Point","coordinates":[139.694498,35.696293]},"properties":{"name":"ベビーのための相談支援　ベビーノ","kind":"計画相談支援","capacity":5.0,"layer":"welfare","source":"国土数値情報 P14 福祉施設（定員つき）"}},{"type":"Feature","geometry":{"type":"Point","coordinates":[139.649328,35.656215]},"properties":{"name":"相談支援事業所しらうめ","kind":"計画相談支援","capacity":5.0,"layer":"welfare","source":"国土数値情報 P14 福祉施設（定員つき）"}},{"type":"Feature","geometry":{"type":"Point","coordinates":[139.652846,35.677166]},"properties":{"name":"相談支援　ファースト","kind":"計画相談支援","capacity":5.0,"layer":"welfare","source":"国土数値情報 P14 福祉施設（定員つき）"}},{"type":"Feature","geometry":{"type":"Point","coordinates":[139.672976,35.641889]},"properties":{"name":"亀右衛門相談支援事業所","kind":"計画相談支援","capacity":5.0,"layer":"welfare","source":"国土数値情報 P14 福祉施設（定員つき）"}},{"type":"Feature","geometry":{"type":"Point","coordinates":[139.719901,35.609]},"properties":{"name":"相談支援事業所　このこのリーフ戸越公園","kind":"計画相談支援","capacity":5.0,"layer":"welfare","source":"国土数値情報 P14 福祉施設（定員つき）"}},{"type":"Feature","geometry":{"type":"Point","coordinates":[139.655629,35.594408]},"properties":{"name":"相談支援ぴっと東京","kind":"計画相談支援","capacity":5.0,"layer":"welfare","source":"国土数値情報 P14 福祉施設（定員つき）"}},{"type":"Feature","geometry":{"type":"Point","coordinates":[139.608399,35.675526]},"properties":{"name":"相談支援　クロスロード","kind":"計画相談支援","capacity":5.0,"layer":"welfare","source":"国土数値情報 P14 福祉施設（定員つき）"}},{"type":"Feature","geometry":{"type":"Point","coordinates":[139.606259,35.646483]},"properties":{"name":"世田谷区相談支援　ポミエ","kind":"計画相談支援","capacity":5.0,"layer":"welfare","source":"国土数値情報 P14 福祉施設（定員つき）"}},{"type":"Feature","geometry":{"type":"Point","coordinates":[139.683825,35.706643]},"properties":{"name":"相談支援事業所虹の木","kind":"計画相談支援","capacity":5.0,"layer":"welfare","source":"国土数値情報 P14 福祉施設（定員つき）"}},{"type":"Feature","geometry":{"type":"Point","coordinates":[139.676703,35.619828]},"properties":{"name":"指定相談支援アットコレット都立大","kind":"計画相談支援","capacity":5.0,"layer":"welfare","source":"国土数値情報 P14 福祉施設（定員つき）"}},{"type":"Feature","geometry":{"type":"Point","coordinates":[139.704821,35.687645]},"properties":{"name":"模擬特別支援学校 S-00","kind":"特別支援学校","capacity":45.0,"layer":"school","source":"SYNTHETIC FIXTURE"}},{"type":"Feature","geometry":{"type":"Point","coordinates":[139.59971,35.596756]},"properties":{"name":"模擬特別支援学校 S-01","kind":"特別支援学校","capacity":82.0,"layer":"school","source":"SYNTHETIC FIXTURE"}},{"type":"Feature","geometry":{"type":"Point","coordinates":[139.59082,35.626025]},"properties":{"name":"模擬特別支援学校 S-02","kind":"特別支援学校","capacity":92.0,"layer":"school","source":"SYNTHETIC FIXTURE"}},{"type":"Feature","geometry":{"type":"Point","coordinates":[139.585512,35.600946]},"properties":{"name":"模擬特別支援学校 S-03","kind":"特別支援学校","capacity":170.0,"layer":"school","source":"SYNTHETIC FIXTURE"}},{"type":"Feature","geometry":{"type":"Point","coordinates":[139.592332,35.679617]},"properties":{"name":"模擬特別支援学校 S-04","kind":"特別支援学校","capacity":211.0,"layer":"school","source":"SYNTHETIC FIXTURE"}},{"type":"Feature","geometry":{"type":"Point","coordinates":[139.699157,35.614264]},"properties":{"name":"模擬特別支援学校 S-05","kind":"特別支援学校","capacity":152.0,"layer":"school","source":"SYNTHETIC FIXTURE"}},{"type":"Feature","geometry":{"type":"Point","coordinates":[139.599668,35.607435]},"properties":{"name":"模擬特別支援学校 S-06","kind":"特別支援学校","capacity":267.0,"layer":"school","source":"SYNTHETIC FIXTURE"}},{"type":"Feature","geometry":{"type":"Point","coordinates":[139.617868,35.647324]},"properties":{"name":"模擬特別支援学校 S-07","kind":"特別支援学校","capacity":110.0,"layer":"school","source":"SYNTHETIC FIXTURE"}},{"type":"Feature","geometry":{"type":"Point","coordinates":[139.72384,35.596804]},"properties":{"name":"模擬特別支援学校 S-08","kind":"特別支援学校","capacity":127.0,"layer":"school","source":"SYNTHETIC FIXTURE"}},{"type":"Feature","geometry":{"type":"Point","coordinates":[139.7016,35.658]},"properties":{"name":"渋谷駅","kind":"駅","capacity":687169.0,"layer":"station","source":"SYNTHETIC FIXTURE"}},{"type":"Feature","geometry":{"type":"Point","coordinates":[139.71,35.6467]},"properties":{"name":"恵比寿駅","kind":"駅","capacity":232810.0,"layer":"station","source":"SYNTHETIC FIXTURE"}},{"type":"Feature","geometry":{"type":"Point","coordinates":[139.7027,35.6702]},"properties":{"name":"原宿駅","kind":"駅","capacity":196866.0,"layer":"station","source":"SYNTHETIC FIXTURE"}},{"type":"Feature","geometry":{"type":"Point","coordinates":[139.68,35.669]},"properties":{"name":"代々木上原駅","kind":"駅","capacity":66934.0,"layer":"station","source":"SYNTHETIC FIXTURE"}},{"type":"Feature","geometry":{"type":"Point","coordinates":[139.6712,35.6434]},"properties":{"name":"三軒茶屋駅","kind":"駅","capacity":125691.0,"layer":"station","source":"SYNTHETIC FIXTURE"}},{"type":"Feature","geometry":{"type":"Point","coordinates":[139.668,35.6613]},"properties":{"name":"下北沢駅","kind":"駅","capacity":117095.0,"layer":"station","source":"SYNTHETIC FIXTURE"}},{"type":"Feature","geometry":{"type":"Point","coordinates":[139.628,35.6115]},"properties":{"name":"二子玉川駅","kind":"駅","capacity":126554.0,"layer":"station","source":"SYNTHETIC FIXTURE"}},{"type":"Feature","geometry":{"type":"Point","coordinates":[139.599,35.6404]},"properties":{"name":"成城学園前駅","kind":"駅","capacity":47716.0,"layer":"station","source":"SYNTHETIC FIXTURE"}},{"type":"Feature","geometry":{"type":"Point","coordinates":[139.601,35.669]},"properties":{"name":"千歳烏山駅","kind":"駅","capacity":46188.0,"layer":"station","source":"SYNTHETIC FIXTURE"}},{"type":"Feature","geometry":{"type":"Point","coordinates":[139.632,35.627]},"properties":{"name":"用賀駅","kind":"駅","capacity":33067.0,"layer":"station","source":"SYNTHETIC FIXTURE"}},{"type":"Feature","geometry":{"type":"Point","coordinates":[139.635,35.651]},"properties":{"name":"経堂駅","kind":"駅","capacity":42877.0,"layer":"station","source":"SYNTHETIC FIXTURE"}},{"type":"Feature","geometry":{"type":"Point","coordinates":[139.648,35.606]},"properties":{"name":"等々力駅","kind":"駅","capacity":23808.0,"layer":"station","source":"SYNTHETIC FIXTURE"}},{"type":"Feature","geometry":{"type":"Point","coordinates":[139.550926,35.639686]},"properties":{"name":"模擬クリニック C-000","kind":"精神科・心療内科","capacity":1.0,"layer":"clinic","source":"SYNTHETIC FIXTURE"}},{"type":"Feature","geometry":{"type":"Point","coordinates":[139.708769,35.664945]},"properties":{"name":"模擬クリニック C-001","kind":"精神科・心療内科","capacity":1.0,"layer":"clinic","source":"SYNTHETIC FIXTURE"}},{"type":"Feature","geometry":{"type":"Point","coordinates":[139.699159,35.661197]},"properties":{"name":"模擬クリニック C-002","kind":"精神科・心療内科","capacity":1.0,"layer":"clinic","source":"SYNTHETIC FIXTURE"}},{"type":"Feature","geometry":{"type":"Point","coordinates":[139.724737,35.663984]},"properties":{"name":"模擬クリニック C-003","kind":"精神科・心療内科","capacity":1.0,"layer":"clinic","source":"SYNTHETIC FIXTURE"}},{"type":"Feature","geometry":{"type":"Point","coordinates":[139.686945,35.637847]},"properties":{"name":"模擬クリニック C-004","kind":"精神科・心療内科","capacity":1.0,"layer":"clinic","source":"SYNTHETIC FIXTURE"}},{"type":"Feature","geometry":{"type":"Point","coordinates":[139.709679,35.591042]},"properties":{"name":"模擬クリニック C-005","kind":"精神科・心療内科","capacity":1.0,"layer":"clinic","source":"SYNTHETIC FIXTURE"}},{"type":"Feature","geometry":{"type":"Point","coordinates":[139.704432,35.633545]},"properties":{"name":"模擬クリニック C-006","kind":"精神科・心療内科","capacity":1.0,"layer":"clinic","source":"SYNTHETIC FIXTURE"}},{"type":"Feature","geometry":{"type":"Point","coordinates":[139.671914,35.60341]},"properties":{"name":"模擬クリニック C-007","kind":"精神科・心療内科","capacity":1.0,"layer":"clinic","source":"SYNTHETIC FIXTURE"}},{"type":"Feature","geometry":{"type":"Point","coordinates":[139.575828,35.671994]},"properties":{"name":"模擬クリニック C-008","kind":"精神科・心療内科","capacity":1.0,"layer":"clinic","source":"SYNTHETIC FIXTURE"}},{"type":"Feature","geometry":{"type":"Point","coordinates":[139.627717,35.621534]},"properties":{"name":"模擬クリニック C-009","kind":"精神科・心療内科","capacity":1.0,"layer":"clinic","source":"SYNTHETIC FIXTURE"}},{"type":"Feature","geometry":{"type":"Point","coordinates":[139.730814,35.633468]},"properties":{"name":"模擬クリニック C-010","kind":"精神科・心療内科","capacity":1.0,"layer":"clinic","source":"SYNTHETIC FIXTURE"}},{"type":"Feature","geometry":{"type":"Point","coordinates":[139.694308,35.615343]},"properties":{"name":"模擬クリニック C-011","kind":"精神科・心療内科","capacity":1.0,"layer":"clinic","source":"SYNTHETIC FIXTURE"}},{"type":"Feature","geometry":{"type":"Point","coordinates":[139.676613,35.6842]},"properties":{"name":"模擬クリニック C-012","kind":"精神科・心療内科","capacity":1.0,"layer":"clinic","source":"SYNTHETIC FIXTURE"}},{"type":"Feature","geometry":{"type":"Point","coordinates":[139.678572,35.657905]},"properties":{"name":"模擬クリニック C-013","kind":"精神科・心療内科","capacity":1.0,"layer":"clinic","source":"SYNTHETIC FIXTURE"}},{"type":"Feature","geometry":{"type":"Point","coordinates":[139.701585,35.661719]},"properties":{"name":"模擬クリニック C-014","kind":"精神科・心療内科","capacity":1.0,"layer":"clinic","source":"SYNTHETIC FIXTURE"}},{"type":"Feature","geometry":{"type":"Point","coordinates":[139.597107,35.600807]},"properties":{"name":"模擬クリニック C-015","kind":"精神科・心療内科","capacity":1.0,"layer":"clinic","source":"SYNTHETIC FIXTURE"}},{"type":"Feature","geometry":{"type":"Point","coordinates":[139.69486,35.634364]},"properties":{"name":"模擬クリニック C-016","kind":"精神科・心療内科","capacity":1.0,"layer":"clinic","source":"SYNTHETIC FIXTURE"}},{"type":"Feature","geometry":{"type":"Point","coordinates":[139.554731,35.675614]},"properties":{"name":"模擬クリニック C-017","kind":"精神科・心療内科","capacity":1.0,"layer":"clinic","source":"SYNTHETIC FIXTURE"}},{"type":"Feature","geometry":{"type":"Point","coordinates":[139.729537,35.656101]},"properties":{"name":"模擬クリニック C-018","kind":"精神科・心療内科","capacity":1.0,"layer":"clinic","source":"SYNTHETIC FIXTURE"}},{"type":"Feature","geometry":{"type":"Point","coordinates":[139.5936,35.642084]},"properties":{"name":"模擬クリニック C-019","kind":"精神科・心療内科","capacity":1.0,"layer":"clinic","source":"SYNTHETIC FIXTURE"}},{"type":"Feature","geometry":{"type":"Point","coordinates":[139.653775,35.6359]},"properties":{"name":"模擬クリニック C-020","kind":"精神科・心療内科","capacity":1.0,"layer":"clinic","source":"SYNTHETIC FIXTURE"}},{"type":"Feature","geometry":{"type":"Point","coordinates":[139.690856,35.594345]},"properties":{"name":"模擬クリニック C-021","kind":"精神科・心療内科","capacity":1.0,"layer":"clinic","source":"SYNTHETIC FIXTURE"}},{"type":"Feature","geometry":{"type":"Point","coordinates":[139.696683,35.668261]},"properties":{"name":"模擬クリニック C-022","kind":"精神科・心療内科","capacity":1.0,"layer":"clinic","source":"SYNTHETIC FIXTURE"}},{"type":"Feature","geometry":{"type":"Point","coordinates":[139.731984,35.645508]},"properties":{"name":"模擬クリニック C-023","kind":"精神科・心療内科","capacity":1.0,"layer":"clinic","source":"SYNTHETIC FIXTURE"}},{"type":"Feature","geometry":{"type":"Point","coordinates":[139.624304,35.619221]},"properties":{"name":"模擬クリニック C-024","kind":"精神科・心療内科","capacity":1.0,"layer":"clinic","source":"SYNTHETIC FIXTURE"}},{"type":"Feature","geometry":{"type":"Point","coordinates":[139.716627,35.651667]},"properties":{"name":"模擬クリニック C-025","kind":"精神科・心療内科","capacity":1.0,"layer":"clinic","source":"SYNTHETIC FIXTURE"}},{"type":"Feature","geometry":{"type":"Point","coordinates":[139.711731,35.653417]},"properties":{"name":"模擬クリニック C-026","kind":"精神科・心療内科","capacity":1.0,"layer":"clinic","source":"SYNTHETIC FIXTURE"}},{"type":"Feature","geometry":{"type":"Point","coordinates":[139.635574,35.623043]},"properties":{"name":"模擬クリニック C-027","kind":"精神科・心療内科","capacity":1.0,"layer":"clinic","source":"SYNTHETIC FIXTURE"}},{"type":"Feature","geometry":{"type":"Point","coordinates":[139.707382,35.693354]},"properties":{"name":"模擬クリニック C-028","kind":"精神科・心療内科","capacity":1.0,"layer":"clinic","source":"SYNTHETIC FIXTURE"}},{"type":"Feature","geometry":{"type":"Point","coordinates":[139.694079,35.672708]},"properties":{"name":"模擬クリニック C-029","kind":"精神科・心療内科","capacity":1.0,"layer":"clinic","source":"SYNTHETIC FIXTURE"}},{"type":"Feature","geometry":{"type":"Point","coordinates":[139.694446,35.665836]},"properties":{"name":"模擬クリニック C-030","kind":"精神科・心療内科","capacity":1.0,"layer":"clinic","source":"SYNTHETIC FIXTURE"}},{"type":"Feature","geometry":{"type":"Point","coordinates":[139.559907,35.658432]},"properties":{"name":"模擬クリニック C-031","kind":"精神科・心療内科","capacity":1.0,"layer":"clinic","source":"SYNTHETIC FIXTURE"}},{"type":"Feature","geometry":{"type":"Point","coordinates":[139.601469,35.676167]},"properties":{"name":"模擬クリニック C-032","kind":"精神科・心療内科","capacity":1.0,"layer":"clinic","source":"SYNTHETIC FIXTURE"}},{"type":"Feature","geometry":{"type":"Point","coordinates":[139.705788,35.647279]},"properties":{"name":"模擬クリニック C-033","kind":"精神科・心療内科","capacity":1.0,"layer":"clinic","source":"SYNTHETIC FIXTURE"}},{"type":"Feature","geometry":{"type":"Point","coordinates":[139.556323,35.663899]},"properties":{"name":"模擬クリニック C-034","kind":"精神科・心療内科","capacity":1.0,"layer":"clinic","source":"SYNTHETIC FIXTURE"}},{"type":"Feature","geometry":{"type":"Point","coordinates":[139.584787,35.655046]},"properties":{"name":"模擬クリニック C-035","kind":"精神科・心療内科","capacity":1.0,"layer":"clinic","source":"SYNTHETIC FIXTURE"}},{"type":"Feature","geometry":{"type":"Point","coordinates":[139.583711,35.646862]},"properties":{"name":"模擬クリニック C-036","kind":"精神科・心療内科","capacity":1.0,"layer":"clinic","source":"SYNTHETIC FIXTURE"}},{"type":"Feature","geometry":{"type":"Point","coordinates":[139.729485,35.658198]},"properties":{"name":"模擬クリニック C-037","kind":"精神科・心療内科","capacity":1.0,"layer":"clinic","source":"SYNTHETIC FIXTURE"}},{"type":"Feature","geometry":{"type":"Point","coordinates":[139.550234,35.622241]},"properties":{"name":"模擬クリニック C-038","kind":"精神科・心療内科","capacity":1.0,"layer":"clinic","source":"SYNTHETIC FIXTURE"}},{"type":"Feature","geometry":{"type":"Point","coordinates":[139.559427,35.67514]},"properties":{"name":"模擬クリニック C-039","kind":"精神科・心療内科","capacity":1.0,"layer":"clinic","source":"SYNTHETIC FIXTURE"}},{"type":"Feature","geometry":{"type":"Point","coordinates":[139.64708,35.619715]},"properties":{"name":"模擬クリニック C-040","kind":"精神科・心療内科","capacity":1.0,"layer":"clinic","source":"SYNTHETIC FIXTURE"}},{"type":"Feature","geometry":{"type":"Point","coordinates":[139.598972,35.673046]},"properties":{"name":"模擬クリニック C-041","kind":"精神科・心療内科","capacity":1.0,"layer":"clinic","source":"SYNTHETIC FIXTURE"}},{"type":"Feature","geometry":{"type":"Point","coordinates":[139.681153,35.622978]},"properties":{"name":"模擬クリニック C-042","kind":"精神科・心療内科","capacity":1.0,"layer":"clinic","source":"SYNTHETIC FIXTURE"}},{"type":"Feature","geometry":{"type":"Point","coordinates":[139.694276,35.601626]},"properties":{"name":"模擬クリニック C-043","kind":"精神科・心療内科","capacity":1.0,"layer":"clinic","source":"SYNTHETIC FIXTURE"}},{"type":"Feature","geometry":{"type":"Point","coordinates":[139.658165,35.621341]},"properties":{"name":"模擬クリニック C-044","kind":"精神科・心療内科","capacity":1.0,"layer":"clinic","source":"SYNTHETIC FIXTURE"}},{"type":"Feature","geometry":{"type":"Point","coordinates":[139.580797,35.650288]},"properties":{"name":"模擬クリニック C-045","kind":"精神科・心療内科","capacity":1.0,"layer":"clinic","source":"SYNTHETIC FIXTURE"}},{"type":"Feature","geometry":{"type":"Point","coordinates":[139.716298,35.671088]},"properties":{"name":"模擬クリニック C-046","kind":"精神科・心療内科","capacity":1.0,"layer":"clinic","source":"SYNTHETIC FIXTURE"}},{"type":"Feature","geometry":{"type":"Point","coordinates":[139.561126,35.630389]},"properties":{"name":"模擬クリニック C-047","kind":"精神科・心療内科","capacity":1.0,"layer":"clinic","source":"SYNTHETIC FIXTURE"}},{"type":"Feature","geometry":{"type":"Point","coordinates":[139.71898,35.665577]},"properties":{"name":"模擬クリニック C-048","kind":"精神科・心療内科","capacity":1.0,"layer":"clinic","source":"SYNTHETIC FIXTURE"}},{"type":"Feature","geometry":{"type":"Point","coordinates":[139.605692,35.646263]},"properties":{"name":"模擬クリニック C-049","kind":"精神科・心療内科","capacity":1.0,"layer":"clinic","source":"SYNTHETIC FIXTURE"}},{"type":"Feature","geometry":{"type":"Point","coordinates":[139.692362,35.651725]},"properties":{"name":"模擬クリニック C-050","kind":"精神科・心療内科","capacity":1.0,"layer":"clinic","source":"SYNTHETIC FIXTURE"}},{"type":"Feature","geometry":{"type":"Point","coordinates":[139.706506,35.597486]},"properties":{"name":"模擬クリニック C-051","kind":"精神科・心療内科","capacity":1.0,"layer":"clinic","source":"SYNTHETIC FIXTURE"}},{"type":"Feature","geometry":{"type":"Point","coordinates":[139.712896,35.639863]},"properties":{"name":"模擬クリニック C-052","kind":"精神科・心療内科","capacity":1.0,"layer":"clinic","source":"SYNTHETIC FIXTURE"}},{"type":"Feature","geometry":{"type":"Point","coordinates":[139.620204,35.657774]},"properties":{"name":"模擬クリニック C-053","kind":"精神科・心療内科","capacity":1.0,"layer":"clinic","source":"SYNTHETIC FIXTURE"}},{"type":"Feature","geometry":{"type":"Point","coordinates":[139.690896,35.681227]},"properties":{"name":"模擬クリニック C-054","kind":"精神科・心療内科","capacity":1.0,"layer":"clinic","source":"SYNTHETIC FIXTURE"}},{"type":"Feature","geometry":{"type":"Point","coordinates":[139.717836,35.636034]},"properties":{"name":"模擬クリニック C-055","kind":"精神科・心療内科","capacity":1.0,"layer":"clinic","source":"SYNTHETIC FIXTURE"}},{"type":"Feature","geometry":{"type":"Point","coordinates":[139.654647,35.685881]},"properties":{"name":"模擬クリニック C-056","kind":"精神科・心療内科","capacity":1.0,"layer":"clinic","source":"SYNTHETIC FIXTURE"}},{"type":"Feature","geometry":{"type":"Point","coordinates":[139.682336,35.606206]},"properties":{"name":"模擬クリニック C-057","kind":"精神科・心療内科","capacity":1.0,"layer":"clinic","source":"SYNTHETIC FIXTURE"}},{"type":"Feature","geometry":{"type":"Point","coordinates":[139.625387,35.616655]},"properties":{"name":"模擬クリニック C-058","kind":"精神科・心療内科","capacity":1.0,"layer":"clinic","source":"SYNTHETIC FIXTURE"}},{"type":"Feature","geometry":{"type":"Point","coordinates":[139.65898,35.670923]},"properties":{"name":"模擬クリニック C-059","kind":"精神科・心療内科","capacity":1.0,"layer":"clinic","source":"SYNTHETIC FIXTURE"}},{"type":"Feature","geometry":{"type":"Point","coordinates":[139.634631,35.649243]},"properties":{"name":"模擬クリニック C-060","kind":"精神科・心療内科","capacity":1.0,"layer":"clinic","source":"SYNTHETIC FIXTURE"}},{"type":"Feature","geometry":{"type":"Point","coordinates":[139.703962,35.693176]},"properties":{"name":"模擬クリニック C-061","kind":"精神科・心療内科","capacity":1.0,"layer":"clinic","source":"SYNTHETIC FIXTURE"}},{"type":"Feature","geometry":{"type":"Point","coordinates":[139.730464,35.664306]},"properties":{"name":"模擬クリニック C-062","kind":"精神科・心療内科","capacity":1.0,"layer":"clinic","source":"SYNTHETIC FIXTURE"}},{"type":"Feature","geometry":{"type":"Point","coordinates":[139.633919,35.624087]},"properties":{"name":"模擬クリニック C-063","kind":"精神科・心療内科","capacity":1.0,"layer":"clinic","source":"SYNTHETIC FIXTURE"}},{"type":"Feature","geometry":{"type":"Point","coordinates":[139.586187,35.622322]},"properties":{"name":"模擬クリニック C-064","kind":"精神科・心療内科","capacity":1.0,"layer":"clinic","source":"SYNTHETIC FIXTURE"}},{"type":"Feature","geometry":{"type":"Point","coordinates":[139.694515,35.679237]},"properties":{"name":"模擬クリニック C-065","kind":"精神科・心療内科","capacity":1.0,"layer":"clinic","source":"SYNTHETIC FIXTURE"}},{"type":"Feature","geometry":{"type":"Point","coordinates":[139.642055,35.639115]},"properties":{"name":"模擬クリニック C-066","kind":"精神科・心療内科","capacity":1.0,"layer":"clinic","source":"SYNTHETIC FIXTURE"}},{"type":"Feature","geometry":{"type":"Point","coordinates":[139.710302,35.657293]},"properties":{"name":"模擬クリニック C-067","kind":"精神科・心療内科","capacity":1.0,"layer":"clinic","source":"SYNTHETIC FIXTURE"}},{"type":"Feature","geometry":{"type":"Point","coordinates":[139.721382,35.660102]},"properties":{"name":"模擬クリニック C-068","kind":"精神科・心療内科","capacity":1.0,"layer":"clinic","source":"SYNTHETIC FIXTURE"}},{"type":"Feature","geometry":{"type":"Point","coordinates":[139.693509,35.639158]},"properties":{"name":"模擬クリニック C-069","kind":"精神科・心療内科","capacity":1.0,"layer":"clinic","source":"SYNTHETIC FIXTURE"}}]}