{"type":"FeatureCollection","features":[{"type":"Feature","geometry":{"type":"Point","coordinates":[139.584571,35.627461]},"properties":{"name":"模擬児童館 #01","host_kind":"児童館","source":"SYNTHETIC FIXTURE"}},{"type":"Feature","geometry":{"type":"Point","coordinates":[139.581769,35.65452]},"properties":{"name":"模擬区民センター #01","host_kind":"区民センター","source":"SYNTHETIC FIXTURE"}},{"type":"Feature","geometry":{"type":"Point","coordinates":[139.727206,35.658386]},"properties":{"name":"模擬図書館 #01","host_kind":"図書館","source":"SYNTHETIC FIXTURE"}},{"type":"Feature","geometry":{"type":"Point","coordinates":[139.699511,35.66809]},"properties":{"name":"模擬児童館 #02","host_kind":"児童館","source":"SYNTHETIC FIXTURE"}},{"type":"Feature","geometry":{"type":"Point","coordinates":[139.676427,35.657938]},"properties":{"name":"模擬区民センター #02","host_kind":"区民センター","source":"SYNTHETIC FIXTURE"}},{"type":"Feature","geometry":{"type":"Point","coordinates":[139.7066,35.681297]},"properties":{"name":"模擬区民センター #03","host_kind":"区民センター","source":"SYNTHETIC FIXTURE"}},{"type":"Feature","geometry":{"type":"Point","coordinates":[139.693825,35.60297]},"properties":{"name":"模擬区民センター #04","host_kind":"区民センター","source":"SYNTHETIC FIXTURE"}},{"type":"Feature","geometry":{"type":"Point","coordinates":[139.674112,35.678449]},"properties":{"name":"模擬出張所 #01","host_kind":"出張所","source":"SYNTHETIC FIXTURE"}},{"type":"Feature","geometry":{"type":"Point","coordinates":[139.734983,35.656413]},"properties":{"name":"模擬児童館 #03","host_kind":"児童館","source":"SYNTHETIC FIXTURE"}},{"type":"Feature","geometry":{"type":"Point","coordinates":[139.664943,35.639533]},"properties":{"name":"模擬区民センター #05","host_kind":"区民センター","source":"SYNTHETIC FIXTURE"}},{"type":"Feature","geometry":{"type":"Point","coordinates":[139.653874,35.676968]},"properties":{"name":"模擬出張所 #02","host_kind":"出張所","source":"SYNTHETIC FIXTURE"}},{"type":"Feature","geometry":{"type":"Point","coordinates":[139.704559,35.592803]},"properties":{"name":"模擬児童館 #04","host_kind":"児童館","source":"SYNTHETIC FIXTURE"}},{"type":"Feature","geometry":{"type":"Point","coordinates":[139.705439,35.61934]},"properties":{"name":"模擬区民センター #06","host_kind":"区民センター","source":"SYNTHETIC FIXTURE"}},{"type":"Feature","geometry":{"type":"Point","coordinates":[139.598979,35.646217]},"properties":{"name":"模擬図書館 #02","host_kind":"図書館","source":"SYNTHETIC FIXTURE"}},{"type":"Feature","geometry":{"type":"Point","coordinates":[139.655849,35.664865]},"properties":{"name":"模擬区民センター #07","host_kind":"区民センター","source":"SYNTHETIC FIXTURE"}},{"type":"Feature","geometry":{"type":"Point","coordinates":[139.595076,35.675704]},"properties":{"name":"模擬児童館 #05","host_kind":"児童館","source":"SYNTHETIC FIXTURE"}},{"type":"Feature","geometry":{"type":"Point","coordinates":[139.684393,35.629339]},"properties":{"name":"模擬児童館 #06","host_kind":"児童館","source":"SYNTHETIC FIXTURE"}},{"type":"Feature","geometry":{"type":"Point","coordinates":[139.552157,35.645329]},"properties":{"name":"模擬区民センター #08","host_kind":"区民センター","source":"SYNTHETIC FIXTURE"}},{"type":"Feature","geometry":{"type":"Point","coordinates":[139.727905,35.684501]},"properties":{"name":"模擬図書館 #03","host_kind":"図書館","source":"SYNTHETIC FIXTURE"}},{"type":"Feature","geometry":{"type":"Point","coordinates":[139.605595,35.59564]},"properties":{"name":"模擬区民センター #09","host_kind":"区民センター","source":"SYNTHETIC FIXTURE"}},{"type":"Feature","geometry":{"type":"Point","coordinates":[139.732611,35.682782]},"properties":{"name":"模擬区民センター #10","host_kind":"区民センター","source":"SYNTHETIC FIXTURE"}},{"type":"Feature","geometry":{"type":"Point","coordinates":[139.624693,35.60621]},"properties":{"name":"模擬図書館 #04","host_kind":"図書館","source":"SYNTHETIC FIXTURE"}},{"type":"Feature","geometry":{"type":"Point","coordinates":[139.591053,35.628289]},"properties":{"name":"模擬区民センター #11","host_kind":"区民センター","source":"SYNTHETIC FIXTURE"}},{"type":"Feature","geometry":{"type":"Point","coordinates":[139.69185,35.673535]},"properties":{"name":"模擬図書館 #05","host_kind":"図書館","source":"SYNTHETIC FIXTURE"}},{"type":"Feature","geometry":{"type":"Point","coordinates":[139.617944,35.666351]},"properties":{"name":"模擬文化施設 #01","host_kind":"文化施設","source":"SYNTHETIC FIXTURE"}},{"type":"Feature","geometry":{"type":"Point","coordinates":[139.620199,35.646881]},"properties":{"name":"模擬文化施設 #02","host_kind":"文化施設","source":"SYNTHETIC FIXTURE"}},{"type":"Feature","geometry":{"type":"Point","coordinates":[139.607654,35.61994]},"properties":{"name":"模擬出張所 #03","host_kind":"出張所","source":"SYNTHETIC FIXTURE"}},{"type":"Feature","geometry":{"type":"Point","coordinates":[139.560619,35.607399]},"properties":{"name":"模擬児童館 #07","host_kind":"児童館","source":"SYNTHETIC FIXTURE"}},{"type":"Feature","geometry":{"type":"Point","coordinates":[139.595695,35.592187]},"properties":{"name":"模擬出張所 #04","host_kind":"出張所","source":"SYNTHETIC FIXTURE"}},{"type":"Feature","geometry":{"type":"Point","coordinates":[139.640898,35.632034]},"properties":{"name":"模擬区民センター #12","host_kind":"区民センター","source":"SYNTHETIC FIXTURE"}},{"type":"Feature","geometry":{"type":"Point","coordinates":[139.634399,35.616357]},"properties":{"name":"模擬区民センター #13","host_kind":"区民センター","source":"SYNTHETIC FIXTURE"}},{"type":"Feature","geometry":{"type":"Point","coordinates":[139.649383,35.61035]},"properties":{"name":"模擬公園管理施設 #01","host_kind":"公園管理施設","source":"SYNTHETIC FIXTURE"}},{"type":"Feature","geometry":{"type":"Point","coordinates":[139.699119,35.64035]},"properties":{"name":"模擬区民センター #14","host_kind":"区民センター","source":"SYNTHETIC FIXTURE"}},{"type":"Feature","geometry":{"type":"Point","coordinates":[139.636126,35.659718]},"properties":{"name":"模擬児童館 #08","host_kind":"児童館","source":"SYNTHETIC FIXTURE"}},{"type":"Feature","geometry":{"type":"Point","coordinates":[139.701691,35.676793]},"properties":{"name":"模擬児童館 #09","host_kind":"児童館","source":"SYNTHETIC FIXTURE"}},{"type":"Feature","geometry":{"type":"Point","coordinates":[139.562622,35.67148]},"properties":{"name":"模擬図書館 #06","host_kind":"図書館","source":"SYNTHETIC FIXTURE"}},{"type":"Feature","geometry":{"type":"Point","coordinates":[139.705019,35.667321]},"properties":{"name":"模擬区民センター #15","host_kind":"区民センター","source":"SYNTHETIC FIXTURE"}},{"type":"Feature","geometry":{"type":"Point","coordinates":[139.578542,35.625086]},"properties":{"name":"模擬文化施設 #03","host_kind":"文化施設","source":"SYNTHETIC FIXTURE"}},{"type":"Feature","geometry":{"type":"Point","coordinates":[139.670293,35.670144]},"properties":{"name":"模擬区民センター #16","host_kind":"区民センター","source":"SYNTHETIC FIXTURE"}},{"type":"Feature","geometry":{"type":"Point","coordinates":[139.578769,35.635638]},"properties":{"name":"模擬区民センター #17","host_kind":"区民センター","source":"SYNTHETIC FIXTURE"}},{"type":"Feature","geometry":{"type":"Point","coordinates":[139.561253,35.679392]},"properties":{"name":"模擬区民センター #18","host_kind":"区民センター","source":"SYNTHETIC FIXTURE"}},{"type":"Feature","geometry":{"type":"Point","coordinates":[139.66569,35.654993]},"properties":{"name":"模擬区民センター #19","host_kind":"区民センター","source":"SYNTHETIC FIXTURE"}},{"type":"Feature","geometry":{"type":"Point","coordinates":[139.691475,35.654062]},"properties":{"name":"模擬区民センター #20","host_kind":"区民センター","source":"SYNTHETIC FIXTURE"}},{"type":"Feature","geometry":{"type":"Point","coordinates":[139.710031,35.625887]},"properties":{"name":"模擬図書館 #07","host_kind":"図書館","source":"SYNTHETIC FIXTURE"}},{"type":"Feature","geometry":{"type":"Point","coordinates":[139.628549,35.665172]},"properties":{"name":"模擬児童館 #10","host_kind":"児童館","source":"SYNTHETIC FIXTURE"}},{"type":"Feature","geometry":{"type":"Point","coordinates":[139.698515,35.672594]},"properties":{"name":"模擬文化施設 #04","host_kind":"文化施設","source":"SYNTHETIC FIXTURE"}},{"type":"Feature","geometry":{"type":"Point","coordinates":[139.646402,35.624909]},"properties":{"name":"模擬文化施設 #05","host_kind":"文化施設","source":"SYNTHETIC FIXTURE"}},{"type":"Feature","geometry":{"type":"Point","coordinates":[139.677904,35.603273]},"properties":{"name":"模擬児童館 #11","host_kind":"児童館","source":"SYNTHETIC FIXTURE"}},{"type":"Feature","geometry":{"type":"Point","coordinates":[139.66478,35.627156]},"properties":{"name":"模擬図書館 #08","host_kind":"図書館","source":"SYNTHETIC FIXTURE"}},{"type":"Feature","geometry":{"type":"Point","coordinates":[139.702752,35.592687]},"properties":{"name":"模擬児童館 #12","host_kind":"児童館","source":"SYNTHETIC FIXTURE"}},{"type":"Feature","geometry":{"type":"Point","coordinates":[139.597422,35.591262]},"properties":{"name":"模擬出張所 #05","host_kind":"出張所","source":"SYNTHETIC FIXTURE"}},{"type":"Feature","geometry":{"type":"Point","coordinates":[139.717303,35.620194]},"properties":{"name":"模擬児童館 #13","host_kind":"児童館","source":"SYNTHETIC FIXTURE"}},{"type":"Feature","geometry":{"type":"Point","coordinates":[139.56885,35.651688]},"properties":{"name":"模擬出張所 #06","host_kind":"出張所","source":"SYNTHETIC FIXTURE"}},{"type":"Feature","geometry":{"type":"Point","coordinates":[139.623582,35.686636]},"properties":{"name":"模擬区民センター #21","host_kind":"区民センター","source":"SYNTHETIC FIXTURE"}},{"type":"Feature","geometry":{"type":"Point","coordinates":[139.56852,35.600246]},"properties":{"name":"模擬出張所 #07","host_kind":"出張所","source":"SYNTHETIC FIXTURE"}},{"type":"Feature","geometry":{"type":"Point","coordinates":[139.639732,35.664069]},"properties":{"name":"模擬公園管理施設 #02","host_kind":"公園管理施設","source":"SYNTHETIC FIXTURE"}},{"type":"Feature","geometry":{"type":"Point","coordinates":[139.667072,35.619273]},"properties":{"name":"模擬児童館 #14","host_kind":"児童館","source":"SYNTHETIC FIXTURE"}},{"type":"Feature","geometry":{"type":"Point","coordinates":[139.568446,35.634058]},"properties":{"name":"模擬図書館 #09","host_kind":"図書館","source":"SYNTHETIC FIXTURE"}},{"type":"Feature","geometry":{"type":"Point","coordinates":[139.551817,35.613494]},"properties":{"name":"模擬文化施設 #06","host_kind":"文化施設","source":"SYNTHETIC FIXTURE"}},{"type":"Feature","geometry":{"type":"Point","coordinates":[139.712336,35.596569]},"properties":{"name":"模擬区民センター #22","host_kind":"区民センター","source":"SYNTHETIC FIXTURE"}},{"type":"Feature","geometry":{"type":"Point","coordinates":[139.696506,35.600912]},"properties":{"name":"模擬区民センター #23","host_kind":"区民センター","source":"SYNTHETIC FIXTURE"}},{"type":"Feature","geometry":{"type":"Point","coordinates":[139.600894,35.68937]},"properties":{"name":"模擬児童館 #15","host_kind":"児童館","source":"SYNTHETIC FIXTURE"}},{"type":"Feature","geometry":{"type":"Point","coordinates":[139.664507,35.677992]},"properties":{"name":"模擬区民センター #24","host_kind":"区民センター","source":"SYNTHETIC FIXTURE"}},{"type":"Feature","geometry":{"type":"Point","coordinates":[139.718102,35.590151]},"properties":{"name":"模擬文化施設 #07","host_kind":"文化施設","source":"SYNTHETIC FIXTURE"}},{"type":"Feature","geometry":{"type":"Point","coordinates":[139.624389,35.639043]},"properties":{"name":"模擬文化施設 #08","host_kind":"文化施設","source":"SYNTHETIC FIXTURE"}},{"type":"Feature","geometry":{"type":"Point","coordinates":[139.670256,35.650117]},"properties":{"name":"模擬区民センター #25","host_kind":"区民センター","source":"SYNTHETIC FIXTURE"}},{"type":"Feature","geometry":{"type":"Point","coordinates":[139.664935,35.605636]},"properties":{"name":"模擬区民センター #26","host_kind":"区民センター","source":"SYNTHETIC FIXTURE"}},{"type":"Feature","geometry":{"type":"Point","coordinates":[139.616108,35.617586]},"properties":{"name":"模擬区民センター #27","host_kind":"区民センター","source":"SYNTHETIC FIXTURE"}},{"type":"Feature","geometry":{"type":"Point","coordinates":[139.557444,35.681656]},"properties":{"name":"模擬児童館 #16","host_kind":"児童館","source":"SYNTHETIC FIXTURE"}},{"type":"Feature","geometry":{"type":"Point","coordinates":[139.662975,35.653846]},"properties":{"name":"模擬出張所 #08","host_kind":"出張所","source":"SYNTHETIC FIXTURE"}},{"type":"Feature","geometry":{"type":"Point","coordinates":[139.729374,35.603765]},"properties":{"name":"模擬区民センター #28","host_kind":"区民センター","source":"SYNTHETIC FIXTURE"}},{"type":"Feature","geometry":{"type":"Point","coordinates":[139.647387,35.672104]},"properties":{"name":"模擬図書館 #10","host_kind":"図書館","source":"SYNTHETIC FIXTURE"}},{"type":"Feature","geometry":{"type":"Point","coordinates":[139.605617,35.649965]},"properties":{"name":"模擬図書館 #11","host_kind":"図書館","source":"SYNTHETIC FIXTURE"}},{"type":"Feature","geometry":{"type":"Point","coordinates":[139.604746,35.674615]},"properties":{"name":"模擬区民センター #29","host_kind":"区民センター","source":"SYNTHETIC FIXTURE"}},{"type":"Feature","geometry":{"type":"Point","coordinates":[139.640508,35.62483]},"properties":{"name":"模擬区民センター #30","host_kind":"区民センター","source":"SYNTHETIC FIXTURE"}},{"type":"Feature","geometry":{"type":"Point","coordinates":[139.600271,35.636779]},"properties":{"name":"模擬出張所 #09","host_kind":"出張所","source":"SYNTHETIC FIXTURE"}},{"type":"Feature","geometry":{"type":"Point","coordinates":[139.591739,35.672726]},"properties":{"name":"模擬児童館 #17","host_kind":"児童館","source":"SYNTHETIC FIXTURE"}},{"type":"Feature","geometry":{"type":"Point","coordinates":[139.708522,35.678326]},"properties":{"name":"模擬区民センター #31","host_kind":"区民センター","source":"SYNTHETIC FIXTURE"}},{"type":"Feature","geometry":{"type":"Point","coordinates":[139.682301,35.64552]},"properties":{"name":"模擬区民センター #32","host_kind":"区民センター","source":"SYNTHETIC FIXTURE"}},{"type":"Feature","geometry":{"type":"Point","coordinates":[139.656136,35.629706]},"properties":{"name":"模擬公園管理施設 #03","host_kind":"公園管理施設","source":"SYNTHETIC FIXTURE"}},{"type":"Feature","geometry":{"type":"Point","coordinates":[139.709133,35.613781]},"properties":{"name":"模擬公園管理施設 #04","host_kind":"公園管理施設","source":"SYNTHETIC FIXTURE"}},{"type":"Feature","geometry":{"type":"Point","coordinates":[139.626787,35.640224]},"properties":{"name":"模擬図書館 #12","host_kind":"図書館","source":"SYNTHETIC FIXTURE"}},{"type":"Feature","geometry":{"type":"Point","coordinates":[139.562625,35.653038]},"properties":{"name":"模擬児童館 #18","host_kind":"児童館","source":"SYNTHETIC FIXTURE"}},{"type":"Feature","geometry":{"type":"Point","coordinates":[139.646901,35.662905]},"properties":{"name":"模擬図書館 #13","host_kind":"図書館","source":"SYNTHETIC FIXTURE"}},{"type":"Feature","geometry":{"type":"Point","coordinates":[139.61511,35.605075]},"properties":{"name":"模擬児童館 #19","host_kind":"児童館","source":"SYNTHETIC FIXTURE"}},{"type":"Feature","geometry":{"type":"Point","coordinates":[139.7016,35.658]},"properties":{"name":"渋谷駅（模擬・駅施設）","host_kind":"駅","source":"SYNTHETIC FIXTURE"}},{"type":"Feature","geometry":{"type":"Point","coordinates":[139.71,35.6467]},"properties":{"name":"恵比寿駅（模擬・駅施設）","host_kind":"駅","source":"SYNTHETIC FIXTURE"}},{"type":"Feature","geometry":{"type":"Point","coordinates":[139.7027,35.6702]},"properties":{"name":"原宿駅（模擬・駅施設）","host_kind":"駅","source":"SYNTHETIC FIXTURE"}},{"type":"Feature","geometry":{"type":"Point","coordinates":[139.68,35.669]},"properties":{"name":"代々木上原駅（模擬・駅施設）","host_kind":"駅","source":"SYNTHETIC FIXTURE"}},{"type":"Feature","geometry":{"type":"Point","coordinates":[139.6712,35.6434]},"properties":{"name":"三軒茶屋駅（模擬・駅施設）","host_kind":"駅","source":"SYNTHETIC FIXTURE"}},{"type":"Feature","geometry":{"type":"Point","coordinates":[139.668,35.6613]},"properties":{"name":"下北沢駅（模擬・駅施設）","host_kind":"駅","source":"SYNTHETIC FIXTURE"}},{"type":"Feature","geometry":{"type":"Point","coordinates":[139.628,35.6115]},"properties":{"name":"二子玉川駅（模擬・駅施設）","host_kind":"駅","source":"SYNTHETIC FIXTURE"}}]}